{"type": "FeatureCollection", "features": [{"type": "Feature", "properties": {"ProjectID": "P0480", "provenance": {"produced_by": "pipelines-researcher route-creation SOP §8", "batch": "israel-gas / route-creation-tmng-map", "method": "digitized (map trace); replacement of prior chord", "derived_from": "traces/trace_p0480.geojson", "root_source": {"type": "raster map trace", "name": "INGL national natural-gas transmission map (\"big-map.jpg\")", "url": "https://www.ingl.co.il/wp-content/uploads/2024/04/big-map.jpg", "page": "https://www.ingl.co.il/en/holancha/", "local_copy": "maps/ingl_big_map_fullres.jpg", "fetched": "2026-07-23", "basemap_credit": "base map © Survey of Israel 2018", "disclaimer": "map is schematic → traced RouteAccuracy capped at medium", "georeference": "georef_params.json (ITM EPSG:2039, comb fit, ~92.5 m/px)"}, "route_accuracy_cap": "low", "length_km": 54.1, "sheet_length_km": 65.0, "replacement": true, "qc_gate": "PASS", "tools": ["extract_offshore_lines.py", "build_route_candidate.py", "validate_route_candidate.py"], "researcher_notes": "replaces a garbage chord (Lebanon→Syria). trace = the drawn Israel-Jordan connector: yellow operating grid feeder near Alon Tavor/Gazit + dashed 'connection to Arab Gas line' SE across the border to the Jordanian tie-in. GEM frames P0480 as Leviathan-origin (StartLocation 'Leviathan fields', 65 km known / 220 est) — the upstream subsea+grid portion overlaps the Leviathan subsea line + INGL grid and is NOT re-digitized here. capped low: partial + schematic. Baird decision: is P0480 the whole export path or just the connector?", "generated": "2026-07-23"}}, "geometry": {"type": "LineString", "coordinates": [[35.357562, 32.623413], [35.401889, 32.615032], [35.426519, 32.613327], [35.490562, 32.611534], [35.544754, 32.611399], [35.582196, 32.611292], [35.618615, 32.602859], [35.66782, 32.591873], [35.694349, 32.579295], [35.731621, 32.552525], [35.770819, 32.522408], [35.810002, 32.493943], [35.854126, 32.472095], [35.878658, 32.463648]]}}]}