{"type": "FeatureCollection", "features": [{"type": "Feature", "properties": {"ProjectID": "P2197", "provenance": {"produced_by": "pipelines-researcher route-creation SOP §8", "batch": "israel-gas / route-creation-tmng-map", "method": "extracted from P3658 network geometry; replacement of 2-pt chord", "derived_from": "traces/extract_p2197.geojson", "root_source": {"type": "extraction from existing GEM route geometry", "name": "P3658 INGL-network route (routes repo, RouteAccuracy high)", "source_repo": "GlobalEnergyMonitor/GOIT-GGIT-pipeline-routes", "source_file": "data/individual-routes/gas-pipelines/P3658.geojson", "note": "Elyakim↔Ramle eastern trunk the network already contains; NOT a fresh map trace. Map used only to confirm the corridor."}, "route_accuracy_cap": "medium", "length_km": 90.0, "sheet_length_km": 90.0, "replacement": true, "qc_gate": "FAIL (documented, non-blocking)", "tools": ["build_route_candidate.py", "validate_route_candidate.py"], "researcher_notes": "extracted from P3658 INGL-network geometry (routes repo, RouteAccuracy high) — the Elyakim↔Ramle eastern trunk the network already contains; NOT a fresh map trace. replaces the current 2-point straight chord (iou 0.36 vs the chord). DOCUMENTED gate FAIL: 16.2 km 'palestine' landfall — this is a Natural-Earth coarse-boundary artifact of the trunk hugging the Green Line, IDENTICAL to the parent P3658 (which lands israel 481 / jordan 30 / palestine 16 and is accepted Israel-only, high). Not a defect in the extraction. Provenance is high-accuracy GEM geometry, so medium is conservative — Baird may bump to high after review.", "generated": "2026-07-23"}}, "geometry": {"type": "LineString", "coordinates": [[35.069157, 32.639243], [35.067304, 32.639772], [35.065849, 32.639905], [35.064393, 32.63964], [35.058437, 32.635272], [35.05407, 32.632625], [35.04057, 32.624155], [35.037261, 32.621111], [35.035805, 32.618199], [35.035408, 32.615023], [35.035408, 32.612641], [35.037129, 32.608273], [35.038188, 32.60695], [35.039511, 32.60642], [35.041629, 32.606553], [35.044408, 32.606817], [35.046129, 32.606553], [35.046526, 32.605229], [35.046261, 32.603641], [35.045732, 32.601391], [35.045202, 32.598876], [35.045864, 32.595171], [35.047187, 32.591068], [35.049305, 32.587759], [35.049437, 32.58498], [35.048511, 32.583392], [35.046393, 32.5822], [35.044408, 32.580612], [35.043349, 32.578495], [35.042555, 32.573068], [35.042555, 32.568569], [35.042291, 32.564995], [35.041761, 32.563275], [35.040967, 32.561819], [35.040173, 32.560495], [35.039644, 32.558907], [35.040173, 32.558113], [35.041041, 32.556796], [35.041041, 32.554383], [35.040076, 32.551488], [35.038628, 32.548593], [35.034768, 32.543285], [35.032838, 32.539425], [35.030908, 32.5346], [35.029943, 32.529775], [35.03139, 32.523984], [35.03234, 32.520187], [35.03234, 32.517813], [35.031865, 32.514965], [35.030678, 32.512354], [35.029729, 32.508557], [35.029254, 32.500249], [35.02878, 32.494078], [35.029254, 32.489806], [35.032577, 32.485534], [35.036849, 32.481499], [35.039223, 32.478413], [35.040172, 32.474853], [35.039698, 32.471055], [35.037799, 32.466783], [35.037561, 32.462748], [35.038273, 32.459188], [35.039223, 32.454916], [35.039698, 32.451355], [35.039698, 32.448507], [35.038986, 32.445422], [35.037324, 32.442573], [35.033289, 32.438776], [35.029017, 32.433554], [35.024982, 32.430231], [35.022846, 32.426196], [35.022134, 32.421449], [35.022134, 32.41694], [35.022134, 32.40887], [35.021896, 32.400088], [35.021659, 32.394154], [35.021422, 32.38466], [35.02071, 32.381812], [35.018099, 32.378726], [35.015963, 32.376116], [35.015013, 32.372555], [35.015963, 32.368046], [35.016912, 32.363061], [35.017149, 32.358314], [35.015251, 32.353567], [35.012165, 32.34526], [35.009554, 32.340751], [35.008367, 32.338614], [35.008367, 32.335766], [35.010266, 32.331969], [35.010978, 32.329358], [35.011216, 32.326747], [35.010741, 32.324136], [35.010266, 32.320339], [35.009554, 32.314405], [35.011453, 32.307996], [35.012402, 32.301825], [35.01264, 32.298028], [35.009554, 32.293281], [35.004807, 32.286398], [35.002908, 32.283787], [35.001722, 32.281651], [35.001247, 32.27904], [35.000535, 32.276904], [34.999111, 32.273818], [34.992702, 32.260526], [34.988905, 32.251032], [34.987481, 32.244149], [34.978224, 32.224449], [34.971341, 32.211633], [34.965882, 32.203325], [34.961135, 32.19573], [34.958999, 32.191695], [34.958049, 32.188372], [34.959711, 32.182913], [34.960898, 32.171995], [34.962559, 32.163451], [34.964458, 32.153007], [34.964695, 32.145887], [34.96422, 32.141852], [34.962796, 32.138529], [34.954964, 32.129984], [34.949742, 32.124525], [34.945233, 32.12049], [34.941672, 32.116455], [34.938824, 32.112895], [34.935739, 32.106961], [34.934314, 32.104113], [34.933365, 32.100553], [34.933602, 32.096281], [34.934077, 32.092958], [34.934314, 32.088923], [34.933365, 32.084176], [34.932178, 32.079192], [34.932416, 32.075157], [34.93384, 32.071596], [34.933365, 32.0659], [34.933365, 32.06234], [34.933128, 32.05878], [34.934314, 32.053558], [34.936688, 32.045725], [34.936925, 32.041928], [34.936688, 32.040266], [34.935739, 32.037893], [34.934077, 32.035282], [34.931941, 32.031959], [34.929805, 32.026737], [34.928143, 32.021516], [34.924108, 32.016057], [34.920311, 32.013446], [34.918649, 32.010598], [34.918412, 32.007749], [34.918175, 32.005613], [34.916276, 32.002765], [34.91319, 31.998018], [34.910817, 31.993983], [34.909393, 31.989948], [34.908443, 31.9871], [34.907494, 31.982828], [34.906782, 31.978555], [34.905595, 31.974283], [34.904883, 31.971435], [34.904883, 31.968112], [34.906307, 31.963128], [34.907731, 31.958143], [34.909393, 31.954821], [34.911766, 31.950786], [34.915089, 31.9477], [34.916513, 31.944615], [34.916988, 31.940105], [34.916751, 31.935595], [34.915564, 31.931323], [34.913428, 31.924202], [34.911054, 31.92088], [34.908918, 31.917082], [34.905358, 31.914234], [34.901798, 31.913047], [34.897288, 31.911386], [34.895152, 31.909724], [34.89088, 31.907113]]}}]}