{"type": "FeatureCollection", "features": [{"type": "Feature", "properties": {"ProjectID": "P7603", "provenance": {"produced_by": "pipelines-researcher route-creation SOP §8", "batch": "israel-gas / route-creation-tmng-map", "method": "digitized (map trace, band-centerline corrected; shares P7602 corridor)", "derived_from": "traces/trace_leviathan_centerline.geojson", "root_source": {"type": "raster map trace", "name": "INGL national natural-gas transmission map (\"big-map.jpg\")", "url": "https://www.ingl.co.il/wp-content/uploads/2024/04/big-map.jpg", "page": "https://www.ingl.co.il/en/holancha/", "local_copy": "maps/ingl_big_map_fullres.jpg", "fetched": "2026-07-23", "basemap_credit": "base map © Survey of Israel 2018", "disclaimer": "map is schematic → traced RouteAccuracy capped at medium", "georeference": "georef_params.json (ITM EPSG:2039, comb fit, ~92.5 m/px)", "centerline_correction": "offshore white-band traces are recentered off the dark outline edge onto the band's bright-fill midpoint (recenter_traces.py); the raw BFS trace hugged the edge (~4px / ~415 m offset). Onshore lines on the topo basemap (e.g. P0480) are not amenable and stay human-review candidates.", "digitization_scheme": "legend.md — the map's key (מקרא) is transcribed and its point symbols are used as trace anchors: routes pass dead-through each ⊕ well-marker / ○ marine-receiving-station centre (point-symmetry detection), stay straight through crossings, and follow the gas-suppliers white band centerline."}, "route_accuracy_cap": "medium", "length_km": 119.8, "sheet_length_km": 120.0, "replacement": false, "qc_gate": "PASS", "tools": ["extract_offshore_lines.py", "recenter_traces.py", "build_route_candidate.py", "validate_route_candidate.py"], "researcher_notes": "traced from INGL transmission map (schematic → medium); II shares the I corridor — map draws one line for the field-to-shore system; route recentered onto the band bright-fill CENTERLINE (recenter_traces.py; the raw BFS trace hugged the dark outline edge, ~4px/~415 m offset).", "generated": "2026-07-23"}}, "geometry": {"type": "LineString", "coordinates": [[33.655682, 32.968259], [33.659588, 32.970703], [33.666122, 32.964484], [33.694835, 32.949478], [33.702348, 32.946115], [33.709217, 32.945584], [33.783913, 32.942263], [33.827239, 32.940384], [33.83622, 32.94027], [33.849649, 32.939405], [33.854521, 32.939497], [33.861741, 32.936795], [33.866991, 32.934389], [33.963592, 32.882014], [33.974708, 32.876846], [33.981292, 32.875604], [33.997174, 32.871722], [34.009547, 32.870036], [34.030977, 32.86997], [34.044422, 32.869405], [34.070515, 32.869529], [34.079826, 32.867024], [34.088289, 32.864277], [34.093445, 32.865557], [34.096781, 32.86594], [34.098293, 32.865674], [34.102031, 32.86353], [34.103037, 32.860478], [34.106073, 32.85549], [34.147197, 32.82975], [34.156791, 32.823606], [34.161743, 32.819998], [34.171577, 32.815129], [34.177288, 32.813122], [34.181345, 32.812149], [34.188651, 32.808494], [34.262232, 32.765552], [34.272297, 32.759026], [34.28434, 32.755363], [34.29605, 32.753121], [34.309029, 32.749975], [34.359339, 32.739398], [34.386934, 32.725606], [34.410897, 32.712958], [34.525676, 32.654522], [34.569151, 32.637157], [34.577915, 32.632997], [34.58786, 32.631581], [34.592294, 32.631742], [34.601156, 32.63294], [34.610615, 32.632984], [34.668511, 32.615321], [34.712278, 32.601363], [34.713996, 32.601111], [34.725054, 32.60011], [34.733238, 32.600149], [34.753813, 32.603409], [34.765251, 32.603851], [34.778822, 32.603344], [34.784194, 32.603728], [34.792933, 32.599089], [34.805858, 32.587936]]}}]}