{"type": "FeatureCollection", "features": [{"type": "Feature", "properties": {"ProjectID": "P8003", "provenance": {"produced_by": "pipelines-researcher route-creation SOP §8", "batch": "israel-gas / route-creation-tmng-map", "method": "digitized (map trace, band-centerline corrected); re-traced through the map's legend point-anchors Tanin well-marker (⊕) → Karish/Energean FPSO well-marker (⊕) → Dor INGL OOAT marine-receiving-station (○), each hit dead-centre; NEW discovery row, no prior GEM route. FULL DRAWN EXTENT ~129 km — the Tanin→Karish leg is a drawn FUTURE line (קו עתידי, field tieback), Karish→OOAT is the operating export line; trim is a human decision at apply time.", "derived_from": "traces/trace_karish_centerline.geojson", "root_source": {"type": "raster map trace", "name": "INGL national natural-gas transmission map (\"big-map.jpg\")", "url": "https://www.ingl.co.il/wp-content/uploads/2024/04/big-map.jpg", "page": "https://www.ingl.co.il/en/holancha/", "local_copy": "maps/ingl_big_map_fullres.jpg", "fetched": "2026-07-23", "basemap_credit": "base map © Survey of Israel 2018", "disclaimer": "map is schematic → traced RouteAccuracy capped at medium", "georeference": "georef_params.json (ITM EPSG:2039, comb fit, ~92.5 m/px)", "centerline_correction": "offshore white-band traces are recentered off the dark outline edge onto the band's bright-fill midpoint (recenter_traces.py); the raw BFS trace hugged the edge (~4px / ~415 m offset). Onshore lines on the topo basemap (e.g. P0480) are not amenable and stay human-review candidates.", "digitization_scheme": "legend.md — the map's key (מקרא) is transcribed and its point symbols are used as trace anchors: routes pass dead-through each ⊕ well-marker / ○ marine-receiving-station centre (point-symmetry detection), stay straight through crossings, and follow the gas-suppliers white band centerline."}, "route_accuracy_cap": "medium", "length_km": 129.2, "sheet_length_km": null, "replacement": false, "qc_gate": "PASS", "tools": ["extract_offshore_lines.py", "recenter_traces.py", "retrace_karish_tanin.py", "build_route_candidate.py", "validate_route_candidate.py"], "researcher_notes": "traced from INGL transmission map (schematic -> cap medium); routed through legend point-anchors Tanin well-marker (mikum ha-kiduach) -> Karish/Energean FPSO well-marker -> INGL OOAT marine receiving station. FULL DRAWN LINE ~129 km. SPLIT: the Tanin->Karish leg is drawn as a FUTURE line (kav atidi) = Tanin field subsea tieback to the Karish FPSO; the Karish->OOAT leg is the operating export line. Baird to decide whether P8003 keeps the full drawn extent or trims to the operating Karish->OOAT segment (~88 km). Karish/Tanin FPSO start is map-schematic. Route follows the band bright-fill CENTERLINE and passes dead-through each legend marker center; stays straight through the transverse crossing near the OOAT. Recentered off the dark outline edge (~4px/~415 m).", "generated": "2026-07-23"}}, "geometry": {"type": "LineString", "coordinates": [[33.847009, 33.134328], [33.86083, 33.137805], [33.862852, 33.138122], [33.868331, 33.140745], [33.871169, 33.140847], [33.873911, 33.141391], [33.892444, 33.146383], [33.905489, 33.149283], [33.916886, 33.152423], [33.937034, 33.157345], [33.974267, 33.167022], [33.993038, 33.171425], [34.005872, 33.174934], [34.037549, 33.182783], [34.190357, 33.223789], [34.211779, 33.229398], [34.2195, 33.231096], [34.221007, 33.231567], [34.224017, 33.233733], [34.227141, 33.23295], [34.243301, 33.236991], [34.256271, 33.230437], [34.256573, 33.232112], [34.260993, 33.234206], [34.262697, 33.23428], [34.263744, 33.234651], [34.265262, 33.234134], [34.266576, 33.234077], [34.268095, 33.232874], [34.274386, 33.231669], [34.279145, 33.230455], [34.28261, 33.228898], [34.284295, 33.227901], [34.285252, 33.22469], [34.287681, 33.210384], [34.288945, 33.200212], [34.290894, 33.187535], [34.291419, 33.181588], [34.292925, 33.177014], [34.295513, 33.171279], [34.298889, 33.167546], [34.311529, 33.152111], [34.327913, 33.131264], [34.335613, 33.122072], [34.356027, 33.095979], [34.380694, 33.066283], [34.420166, 33.017873], [34.428799, 33.00771], [34.436206, 32.998354], [34.445628, 32.987133], [34.458125, 32.97163], [34.467586, 32.960432], [34.47494, 32.951048], [34.485911, 32.937696], [34.49376, 32.928598], [34.506941, 32.91198], [34.515599, 32.901836], [34.527913, 32.886234], [34.540676, 32.870892], [34.548014, 32.861504], [34.57158, 32.83272], [34.578889, 32.823317], [34.587462, 32.813128], [34.595625, 32.802705], [34.609153, 32.786297], [34.628308, 32.762546], [34.635583, 32.753126], [34.644998, 32.741914], [34.653193, 32.731512], [34.659992, 32.723331], [34.664043, 32.718104], [34.666776, 32.71399], [34.66858, 32.712167], [34.673898, 32.705856], [34.68441, 32.692881], [34.687322, 32.689887], [34.693075, 32.68506], [34.711213, 32.678073], [34.746, 32.663541], [34.760865, 32.657656], [34.798289, 32.641954], [34.802202, 32.640495], [34.804792, 32.639864], [34.807115, 32.638524], [34.809995, 32.637377], [34.815507, 32.63455], [34.824416, 32.625427]]}}]}