{
 "type": "FeatureCollection",
 "features": [
  {
   "type": "Feature",
   "properties": {
    "ProjectID": "P8069"
   },
   "geometry": {
    "type": "LineString",
    "coordinates": [
     [
      27.936904,
      29.859663
     ],
     [
      28.251485,
      30.053211
     ],
     [
      28.56729,
      30.245998
     ],
     [
      28.884328,
      30.438015
     ],
     [
      29.202609,
      30.629253
     ],
     [
      29.522141,
      30.819703
     ],
     [
      29.842933,
      31.009357
     ]
    ]
   }
  }
 ]
}