{
  "type": "FeatureCollection",
  "name": "ENTSOG_GIE_SYSCAP_2026_pipelines_not_operational",
  "provenance": {
    "source_pdf": "ENTSOG_GIE_SYSCAP_2026_1600x1200_FULL_016_FLAT.pdf",
    "source_title": "ENTSOG/GIE System Capacity Map 2026 (version January 2026)",
    "source_page": 1,
    "extraction": "PyMuPDF get_drawings(); optional-content (Illustrator layer) attributed",
    "classification": "map legend 'Transport by pipeline': solid = operational (by size class), even dash = project, dash-dot-dot = not operational",
    "georeferencing": "page -> EPSG:3857 affine (map states 'WGS 84 / Pseudo-Mercator projection'), fitted by trimmed ICP of the PDF's own 'ne_10m_coastline' layer against Natural Earth 1:10m coastline; median residual 1 m, p90 2 m; scale 2707.9 m/pt, rotation 0.0000 deg",
    "crs": "EPSG:4326",
    "caveats": "cartographic centrelines, not surveyed routes; casing strokes may draw a line more than once; name_nearest is an unverified proximity join",
    "generated_from": "sources/entsog/ + scripts in session scratchpad",
    "status_subset": "not_operational"
  },
  "features": [
    {
      "type": "Feature",
      "properties": {
        "status": "not_operational",
        "status_basis": "legend dash-dot-dot",
        "pdf_layer": "= PIPELINES-LARGE =",
        "size_class": "DN900+ (36\" and over)",
        "stroke_width_pt": 1.44,
        "dash_pattern": "[ 10 3 1 3 1 3 ] 0",
        "name_nearest": null,
        "name_dist_pt": null,
        "n_vertices": 5
      },
      "geometry": {
        "type": "LineString",
        "coordinates": [
          [
            40.645278,
            34.317725
          ],
          [
            41.037085,
            34.28061
          ],
          [
            41.342299,
            34.215521
          ],
          [
            41.899859,
            34.101652
          ],
          [
            42.449662,
            34.089362
          ]
        ]
      }
    },
    {
      "type": "Feature",
      "properties": {
        "status": "not_operational",
        "status_basis": "legend dash-dot-dot",
        "pdf_layer": "= PIPELINES-LARGE =",
        "size_class": "DN900+ (36\" and over)",
        "stroke_width_pt": 1.44,
        "dash_pattern": "[ .99 2.971 .99 2.971 ] 0",
        "name_nearest": "OAL",
        "name_dist_pt": 10.1,
        "n_vertices": 3
      },
      "geometry": {
        "type": "LineString",
        "coordinates": [
          [
            13.78692,
            54.243403
          ],
          [
            13.805579,
            54.250594
          ],
          [
            13.907454,
            54.30164
          ]
        ]
      }
    },
    {
      "type": "Feature",
      "properties": {
        "status": "not_operational",
        "status_basis": "legend dash-dot-dot",
        "pdf_layer": "= PIPELINES-LARGE =",
        "size_class": "DN900+ (36\" and over)",
        "stroke_width_pt": 1.44,
        "dash_pattern": "[ 9.904 2.971 .99 2.971 .99 2.971 ] 0",
        "name_nearest": null,
        "name_dist_pt": null,
        "n_vertices": 32
      },
      "geometry": {
        "type": "LineString",
        "coordinates": [
          [
            13.934879,
            54.315371
          ],
          [
            14.193117,
            54.444407
          ],
          [
            14.549488,
            54.574899
          ],
          [
            14.661262,
            54.648827
          ],
          [
            15.219968,
            54.948038
          ],
          [
            15.739021,
            55.439891
          ],
          [
            16.482673,
            55.714812
          ],
          [
            16.770902,
            55.779532
          ],
          [
            17.337079,
            55.849756
          ],
          [
            18.669601,
            56.298763
          ],
          [
            18.833578,
            56.325789
          ],
          [
            19.202764,
            56.638373
          ],
          [
            19.62809,
            56.876398
          ],
          [
            20.794153,
            58.452193
          ],
          [
            20.894347,
            58.493748
          ],
          [
            21.162538,
            58.875037
          ],
          [
            21.592366,
            59.081672
          ],
          [
            21.654035,
            59.155199
          ],
          [
            21.765197,
            59.211364
          ],
          [
            21.925064,
            59.213008
          ],
          [
            23.344572,
            59.497686
          ],
          [
            25.13215,
            59.887686
          ],
          [
            26.01353,
            59.865833
          ],
          [
            26.310251,
            59.977995
          ],
          [
            26.602524,
            59.99346
          ],
          [
            26.936826,
            60.113711
          ],
          [
            27.678145,
            60.138635
          ],
          [
            28.01911,
            60.256693
          ],
          [
            28.122713,
            60.440757
          ],
          [
            28.260618,
            60.526769
          ],
          [
            28.731774,
            60.722196
          ],
          [
            28.949093,
            60.794609
          ]
        ]
      }
    },
    {
      "type": "Feature",
      "properties": {
        "status": "not_operational",
        "status_basis": "legend dash-dot-dot",
        "pdf_layer": "= PIPELINES-LARGE =",
        "size_class": "DN900+ (36\" and over)",
        "stroke_width_pt": 1.44,
        "dash_pattern": "[ 10 3 1 3 1 3 ] 0",
        "name_nearest": null,
        "name_dist_pt": null,
        "n_vertices": 18
      },
      "geometry": {
        "type": "LineString",
        "coordinates": [
          [
            40.557128,
            34.317725
          ],
          [
            39.121395,
            34.490429
          ],
          [
            38.897793,
            34.478078
          ],
          [
            38.785852,
            34.49546
          ],
          [
            38.563443,
            34.513103
          ],
          [
            38.308828,
            34.508273
          ],
          [
            38.256531,
            34.505704
          ],
          [
            38.116904,
            34.463458
          ],
          [
            37.959976,
            34.47114
          ],
          [
            37.699138,
            34.506986
          ],
          [
            37.591984,
            34.525366
          ],
          [
            37.548517,
            34.525366
          ],
          [
            37.498501,
            34.540077
          ],
          [
            37.331145,
            34.531281
          ],
          [
            37.078062,
            34.567023
          ],
          [
            36.816077,
            34.643644
          ],
          [
            36.70413,
            34.666937
          ],
          [
            36.691849,
            34.699003
          ]
        ]
      }
    }
  ]
}