{
 "type": "FeatureCollection",
 "features": [
  {
   "type": "Feature",
   "properties": {
    "ProjectID": "P8052"
   },
   "geometry": {
    "type": "LineString",
    "coordinates": [
     [
      34.110774,
      31.212769
     ],
     [
      34.062815,
      31.143028
     ],
     [
      34.014926,
      31.073268
     ],
     [
      33.967107,
      31.003491
     ],
     [
      33.919357,
      30.933694
     ],
     [
      33.871677,
      30.86388
     ],
     [
      33.824066,
      30.794047
     ],
     [
      33.776524,
      30.724195
     ]
    ]
   }
  }
 ]
}