{
 "type": "FeatureCollection",
 "features": [
  {
   "type": "Feature",
   "properties": {
    "ProjectID": "P8051"
   },
   "geometry": {
    "type": "LineString",
    "coordinates": [
     [
      30.312949,
      31.100586
     ],
     [
      30.372118,
      31.033758
     ],
     [
      30.431205,
      30.966902
     ],
     [
      30.49021,
      30.900018
     ],
     [
      30.549133,
      30.833106
     ],
     [
      30.607975,
      30.766167
     ],
     [
      30.666734,
      30.699201
     ]
    ]
   }
  }
 ]
}