{
 "type": "FeatureCollection",
 "features": [
  {
   "type": "Feature",
   "properties": {
    "ProjectID": "P0436"
   },
   "geometry": {
    "type": "LineString",
    "coordinates": [
     [
      33.888654,
      31.143504
     ],
     [
      33.812996,
      31.10864
     ],
     [
      33.906966,
      30.97636
     ],
     [
      34.14105,
      30.844957
     ],
     [
      34.221521,
      30.826788
     ],
     [
      34.376156,
      30.66761
     ],
     [
      34.349253,
      30.541487
     ],
     [
      34.36628,
      30.429735
     ],
     [
      34.433905,
      30.304667
     ],
     [
      34.553513,
      30.238677
     ],
     [
      34.685479,
      30.011827
     ],
     [
      34.673121,
      29.93346
     ],
     [
      34.685479,
      29.81798
     ],
     [
      34.757897,
      29.702491
     ],
     [
      34.80922,
      29.611758
     ],
     [
      34.859207,
      29.489684
     ],
     [
      34.825091,
      29.424227
     ]
    ]
   }
  }
 ]
}