{
 "type": "FeatureCollection",
 "features": [
  {
   "type": "Feature",
   "properties": {
    "ProjectID": "P3935"
   },
   "geometry": {
    "type": "LineString",
    "coordinates": [
     [
      26.977176,
      30.708405
     ],
     [
      26.976109,
      30.708147
     ],
     [
      26.973228,
      30.70808
     ],
     [
      26.97143,
      30.708405
     ],
     [
      26.971001,
      30.713387
     ],
     [
      26.970572,
      30.718369
     ],
     [
      26.970143,
      30.72335
     ],
     [
      26.969714,
      30.728332
     ],
     [
      26.969285,
      30.733313
     ],
     [
      26.968898,
      30.737807
     ],
     [
      26.968416,
      30.737763
     ],
     [
      26.96837,
      30.738133
     ],
     [
      26.96887,
      30.73814
     ],
     [
      26.968538,
      30.742318
     ],
     [
      26.968104,
      30.747299
     ],
     [
      26.967671,
      30.752281
     ],
     [
      26.967238,
      30.757262
     ],
     [
      26.967027,
      30.759692
     ],
     [
      26.965394,
      30.764418
     ],
     [
      26.963761,
      30.769144
     ],
     [
      26.962128,
      30.773869
     ],
     [
      26.960495,
      30.778595
     ],
     [
      26.958862,
      30.783321
     ],
     [
      26.957323,
      30.787774
     ],
     [
      26.957873,
      30.793574
     ],
     [
      26.958312,
      30.798555
     ],
     [
      26.958751,
      30.803536
     ],
     [
      26.95919,
      30.808516
     ],
     [
      26.959629,
      30.813497
     ],
     [
      26.960069,
      30.818478
     ],
     [
      26.960508,
      30.823458
     ],
     [
      26.960947,
      30.828439
     ],
     [
      26.961386,
      30.833419
     ],
     [
      26.961826,
      30.8384
     ],
     [
      26.962265,
      30.843381
     ],
     [
      26.962557,
      30.846694
     ],
     [
      26.962998,
      30.851674
     ],
     [
      26.963439,
      30.856655
     ],
     [
      26.96388,
      30.861636
     ],
     [
      26.964321,
      30.866616
     ],
     [
      26.964762,
      30.871596
     ],
     [
      26.965203,
      30.876577
     ],
     [
      26.965644,
      30.881558
     ],
     [
      26.966086,
      30.886538
     ],
     [
      26.966527,
      30.891519
     ],
     [
      26.966968,
      30.896499
     ],
     [
      26.967409,
      30.901479
     ],
     [
      26.96785,
      30.90646
     ],
     [
      26.968291,
      30.911441
     ],
     [
      26.968732,
      30.916421
     ],
     [
      26.969173,
      30.921402
     ],
     [
      26.969614,
      30.926382
     ],
     [
      26.970055,
      30.931363
     ],
     [
      26.970496,
      30.936343
     ],
     [
      26.970937,
      30.941324
     ],
     [
      26.971378,
      30.946304
     ],
     [
      26.971819,
      30.951285
     ],
     [
      26.97226,
      30.956265
     ],
     [
      26.972701,
      30.961246
     ],
     [
      26.973132,
      30.966107
     ],
     [
      26.973516,
      30.971093
     ],
     [
      26.9739,
      30.976078
     ],
     [
      26.974284,
      30.981063
     ],
     [
      26.974669,
      30.986048
     ],
     [
      26.975053,
      30.991033
     ],
     [
      26.975437,
      30.996018
     ],
     [
      26.975654,
      30.998835
     ],
     [
      26.976184,
      31.003807
     ],
     [
      26.976713,
      31.008779
     ],
     [
      26.977243,
      31.013751
     ],
     [
      26.977755,
      31.018562
     ],
     [
      26.978349,
      31.023527
     ],
     [
      26.978943,
      31.028492
     ],
     [
      26.979536,
      31.033456
     ],
     [
      26.980129,
      31.038421
     ],
     [
      26.980723,
      31.043386
     ],
     [
      26.981316,
      31.04835
     ],
     [
      26.981866,
      31.05295
     ],
     [
      26.982457,
      31.057915
     ],
     [
      26.983047,
      31.062881
     ],
     [
      26.983637,
      31.067846
     ],
     [
      26.984227,
      31.072811
     ],
     [
      26.984818,
      31.077776
     ],
     [
      26.985408,
      31.082741
     ],
     [
      26.985998,
      31.087706
     ],
     [
      26.986588,
      31.092671
     ],
     [
      26.986592,
      31.092701
     ],
     [
      26.987178,
      31.097667
     ],
     [
      26.987763,
      31.102633
     ],
     [
      26.988349,
      31.107598
     ],
     [
      26.988935,
      31.112564
     ],
     [
      26.989521,
      31.117529
     ],
     [
      26.990106,
      31.122495
     ],
     [
      26.990692,
      31.127461
     ],
     [
      26.991278,
      31.132426
     ],
     [
      26.991323,
      31.132804
     ],
     [
      26.991587,
      31.133618
     ],
     [
      26.991933,
      31.134308
     ],
     [
      26.992839,
      31.135261
     ],
     [
      26.993716,
      31.135883
     ],
     [
      26.998047,
      31.13838
     ],
     [
      27.002379,
      31.140877
     ],
     [
      27.006711,
      31.143374
     ],
     [
      27.008643,
      31.144488
     ],
     [
      27.012931,
      31.147059
     ],
     [
      27.017219,
      31.149631
     ],
     [
      27.021507,
      31.152203
     ],
     [
      27.023929,
      31.153655
     ],
     [
      27.030477,
      31.158579
     ],
     [
      27.035327,
      31.1605
     ],
     [
      27.040276,
      31.161213
     ],
     [
      27.045225,
      31.161927
     ],
     [
      27.047783,
      31.162295
     ],
     [
      27.050274,
      31.164234
     ],
     [
      27.050959,
      31.165645
     ],
     [
      27.051763,
      31.167795
     ],
     [
      27.052103,
      31.16895
     ],
     [
      27.052084,
      31.16979
     ],
     [
      27.052106,
      31.174549
     ],
     [
      27.052301,
      31.174949
     ],
     [
      27.055556,
      31.177394
     ],
     [
      27.059581,
      31.180361
     ],
     [
      27.063606,
      31.183326
     ],
     [
      27.067631,
      31.186293
     ],
     [
      27.071657,
      31.189259
     ],
     [
      27.075682,
      31.192225
     ],
     [
      27.079707,
      31.195191
     ],
     [
      27.083732,
      31.198157
     ],
     [
      27.086331,
      31.200071
     ],
     [
      27.091818,
      31.204003
     ],
     [
      27.096918,
      31.207494
     ],
     [
      27.097516,
      31.207943
     ],
     [
      27.098964,
      31.209268
     ],
     [
      27.100095,
      31.210854
     ],
     [
      27.101217,
      31.212643
     ],
     [
      27.105899,
      31.22045
     ],
     [
      27.108746,
      31.225419
     ],
     [
      27.111392,
      31.229662
     ],
     [
      27.114038,
      31.233904
     ],
     [
      27.114525,
      31.234686
     ],
     [
      27.11491,
      31.235278
     ],
     [
      27.11769,
      31.240202
     ],
     [
      27.117999,
      31.240616
     ],
     [
      27.118379,
      31.240969
     ],
     [
      27.118674,
      31.241187
     ],
     [
      27.118831,
      31.241326
     ],
     [
      27.119005,
      31.24152
     ],
     [
      27.119177,
      31.241746
     ],
     [
      27.120345,
      31.243694
     ],
     [
      27.120448,
      31.243935
     ],
     [
      27.120534,
      31.244233
     ],
     [
      27.120647,
      31.245071
     ],
     [
      27.120716,
      31.245312
     ],
     [
      27.120923,
      31.245835
     ],
     [
      27.121012,
      31.246015
     ],
     [
      27.122292,
      31.248207
     ],
     [
      27.124089,
      31.25201
     ],
     [
      27.124352,
      31.252634
     ],
     [
      27.127706,
      31.258491
     ],
     [
      27.128668,
      31.259951
     ],
     [
      27.129311,
      31.260959
     ],
     [
      27.129776,
      31.261834
     ],
     [
      27.12988,
      31.262098
     ],
     [
      27.130166,
      31.262546
     ],
     [
      27.130315,
      31.262744
     ],
     [
      27.130532,
      31.262958
     ],
     [
      27.130797,
      31.263376
     ],
     [
      27.132069,
      31.2655
     ],
     [
      27.132241,
      31.265873
     ],
     [
      27.132408,
      31.267737
     ],
     [
      27.132691,
      31.268379
     ],
     [
      27.132856,
      31.268699
     ],
     [
      27.133984,
      31.270463
     ],
     [
      27.134592,
      31.271528
     ],
     [
      27.135163,
      31.272607
     ],
     [
      27.136463,
      31.276918
     ],
     [
      27.137562,
      31.280466
     ],
     [
      27.137804,
      31.281286
     ],
     [
      27.137886,
      31.281473
     ],
     [
      27.138501,
      31.282516
     ],
     [
      27.138663,
      31.282739
     ],
     [
      27.143881,
      31.288548
     ],
     [
      27.147689,
      31.292555
     ],
     [
      27.147783,
      31.292688
     ],
     [
      27.149946,
      31.296193
     ],
     [
      27.152321,
      31.300278
     ],
     [
      27.152696,
      31.300836
     ],
     [
      27.15306,
      31.301674
     ],
     [
      27.154456,
      31.305108
     ],
     [
      27.155081,
      31.306476
     ],
     [
      27.155483,
      31.307073
     ],
     [
      27.158698,
      31.311534
     ],
     [
      27.159488,
      31.312678
     ],
     [
      27.160249,
      31.313708
     ],
     [
      27.162783,
      31.317228
     ],
     [
      27.164111,
      31.319112
     ],
     [
      27.164287,
      31.319472
     ],
     [
      27.165342,
      31.321437
     ],
     [
      27.168169,
      31.326621
     ],
     [
      27.170414,
      31.330797
     ],
     [
      27.171308,
      31.334649
     ],
     [
      27.170499,
      31.337575
     ],
     [
      27.170401,
      31.338043
     ],
     [
      27.169944,
      31.343022
     ],
     [
      27.169488,
      31.348001
     ],
     [
      27.16905,
      31.352778
     ],
     [
      27.16882,
      31.356563
     ],
     [
      27.169559,
      31.357626
     ],
     [
      27.169527,
      31.357962
     ],
     [
      27.169578,
      31.358041
     ],
     [
      27.172839,
      31.359906
     ],
     [
      27.173227,
      31.360163
     ],
     [
      27.173419,
      31.360418
     ],
     [
      27.173609,
      31.360928
     ],
     [
      27.173989,
      31.364715
     ],
     [
      27.174116,
      31.365493
     ],
     [
      27.174438,
      31.366305
     ],
     [
      27.17459,
      31.36656
     ],
     [
      27.174842,
      31.366936
     ],
     [
      27.176526,
      31.368811
     ],
     [
      27.177408,
      31.369879
     ],
     [
      27.17809,
      31.370582
     ],
     [
      27.178572,
      31.370922
     ],
     [
      27.179087,
      31.371161
     ],
     [
      27.179954,
      31.371366
     ],
     [
      27.181171,
      31.371494
     ],
     [
      27.184387,
      31.371696
     ],
     [
      27.191687,
      31.372092
     ],
     [
      27.19744,
      31.372376
     ],
     [
      27.198325,
      31.372418
     ],
     [
      27.198829,
      31.372401
     ],
     [
      27.199601,
      31.37234
     ],
     [
      27.202464,
      31.371858
     ],
     [
      27.20373,
      31.371431
     ],
     [
      27.2044,
      31.3704
     ]
    ]
   }
  }
 ]
}