{
 "type": "FeatureCollection",
 "features": [
  {
   "type": "Feature",
   "properties": {
    "ProjectID": "P3936"
   },
   "geometry": {
    "type": "LineString",
    "coordinates": [
     [
      28.7517,
      29.7708
     ],
     [
      28.671542,
      29.687458
     ],
     [
      28.558373,
      29.722386
     ],
     [
      28.573791,
      29.739837
     ],
     [
      28.649171,
      29.813749
     ],
     [
      28.826486,
      29.980159
     ],
     [
      29.010922,
      30.222006
     ],
     [
      29.305962,
      30.459088
     ],
     [
      29.492542,
      30.583328
     ],
     [
      29.684176,
      30.864978
     ],
     [
      29.697098,
      30.8933
     ],
     [
      29.718636,
      30.941623
     ],
     [
      29.725017,
      30.957834
     ],
     [
      29.723979,
      30.97094
     ],
     [
      29.803233,
      31.012517
     ],
     [
      29.807727,
      31.014383
     ],
     [
      29.814974,
      31.006512
     ]
    ]
   }
  }
 ]
}