{
 "type": "FeatureCollection",
 "features": [
  {
   "type": "Feature",
   "properties": {
    "ProjectID": "P8019"
   },
   "geometry": {
    "type": "LineString",
    "coordinates": [
     [
      30.47,
      31.04056
     ],
     [
      30.458978,
      31.008321
     ],
     [
      30.608214,
      30.90863
     ],
     [
      30.6331,
      30.888735
     ],
     [
      30.643309,
      30.879426
     ],
     [
      30.645118,
      30.87688
     ],
     [
      30.727449,
      30.81854
     ],
     [
      30.990451,
      30.79745
     ],
     [
      30.990022,
      30.797059
     ],
     [
      31.0,
      30.783
     ]
    ]
   }
  }
 ]
}