{
 "type": "FeatureCollection",
 "features": [
  {
   "type": "Feature",
   "properties": {
    "ProjectID": "P8010"
   },
   "geometry": {
    "type": "LineString",
    "coordinates": [
     [
      30.3,
      31.3
     ],
     [
      30.306997,
      31.412479
     ],
     [
      30.332125,
      31.432822
     ],
     [
      30.37027,
      31.440189
     ],
     [
      30.448299,
      31.425834
     ],
     [
      30.461704,
      31.424369
     ],
     [
      30.496858,
      31.429493
     ],
     [
      30.529272,
      31.435347
     ],
     [
      30.569104,
      31.447774
     ],
     [
      30.718534,
      31.497802
     ],
     [
      30.829287,
      31.541726
     ],
     [
      30.922746,
      31.565562
     ],
     [
      30.985579,
      31.579759
     ],
     [
      31.080617,
      31.58749
     ],
     [
      31.175633,
      31.573435
     ],
     [
      31.267536,
      31.541311
     ],
     [
      31.41901,
      31.472036
     ],
     [
      31.43377,
      31.464679
     ],
     [
      31.510225,
      31.431469
     ],
     [
      31.52349,
      31.44123
     ]
    ]
   }
  }
 ]
}