{
 "type": "FeatureCollection",
 "features": [
  {
   "type": "Feature",
   "properties": {
    "ProjectID": "P8024"
   },
   "geometry": {
    "type": "LineString",
    "coordinates": [
     [
      31.39211,
      31.06225
     ],
     [
      31.380088,
      31.034293
     ],
     [
      31.218054,
      30.968615
     ],
     [
      31.155999,
      30.92011
     ],
     [
      31.014744,
      30.795465
     ],
     [
      31.058068,
      30.682039
     ],
     [
      31.186115,
      30.495018
     ],
     [
      31.258313,
      30.112226
     ],
     [
      31.23583,
      30.04444
     ]
    ]
   }
  }
 ]
}