{
 "type": "FeatureCollection",
 "features": [
  {
   "type": "Feature",
   "properties": {
    "ProjectID": "P8036"
   },
   "geometry": {
    "type": "LineString",
    "coordinates": [
     [
      31.23435,
      30.14533
     ],
     [
      31.229117,
      30.26744
     ],
     [
      31.229207,
      30.267544
     ],
     [
      31.70737,
      30.533267
     ],
     [
      32.26034,
      30.583057
     ],
     [
      32.26804,
      30.582768
     ],
     [
      32.261889,
      30.459926
     ],
     [
      32.262048,
      30.439144
     ],
     [
      32.26281,
      30.435142
     ],
     [
      32.274836,
      30.407048
     ],
     [
      32.308639,
      30.402444
     ]
    ]
   }
  }
 ]
}