{
 "type": "FeatureCollection",
 "features": [
  {
   "type": "Feature",
   "properties": {
    "ProjectID": "P8032"
   },
   "geometry": {
    "type": "LineString",
    "coordinates": [
     [
      29.844127,
      31.005133
     ],
     [
      29.807727,
      31.014383
     ],
     [
      29.803233,
      31.012517
     ],
     [
      29.787577,
      31.004299
     ],
     [
      29.901145,
      30.840842
     ],
     [
      30.379576,
      30.38024
     ],
     [
      30.591473,
      30.304098
     ],
     [
      30.952826,
      30.090785
     ],
     [
      31.072151,
      30.086136
     ],
     [
      30.940521,
      29.933461
     ],
     [
      31.09694,
      29.89
     ]
    ]
   }
  }
 ]
}