{
 "type": "FeatureCollection",
 "features": [
  {
   "type": "Feature",
   "properties": {
    "ProjectID": "P8038"
   },
   "geometry": {
    "type": "LineString",
    "coordinates": [
     [
      33.061824,
      28.391991
     ],
     [
      32.903561,
      28.458669
     ],
     [
      32.766636,
      28.621334
     ],
     [
      32.667978,
      28.776288
     ],
     [
      32.627956,
      28.840723
     ],
     [
      32.621218,
      28.852864
     ],
     [
      32.61426,
      28.903014
     ],
     [
      32.603069,
      28.993209
     ],
     [
      32.591928,
      29.085605
     ],
     [
      32.592768,
      29.130359
     ],
     [
      32.59441,
      29.166331
     ],
     [
      32.591749,
      29.181791
     ],
     [
      32.583538,
      29.20781
     ],
     [
      32.571596,
      29.240492
     ],
     [
      32.543801,
      29.310272
     ],
     [
      32.519634,
      29.367711
     ],
     [
      32.35928,
      29.488029
     ],
     [
      32.329854,
      29.535058
     ],
     [
      32.296064,
      29.591212
     ],
     [
      32.281584,
      29.616857
     ],
     [
      32.305741,
      29.63961
     ]
    ]
   }
  }
 ]
}