{
 "type": "FeatureCollection",
 "features": [
  {
   "type": "Feature",
   "properties": {
    "ProjectID": "P8034"
   },
   "geometry": {
    "type": "MultiLineString",
    "coordinates": [
     [
      [
       33.538681,
       27.72999
      ],
      [
       33.50011,
       27.742211
      ],
      [
       33.469698,
       27.755451
      ],
      [
       33.446172,
       27.778987
      ],
      [
       33.440066,
       27.801266
      ],
      [
       33.449224,
       27.83079
      ],
      [
       33.471615,
       27.844023
      ],
      [
       33.49502,
       27.84402
      ],
      [
       33.531658,
       27.844016
      ],
      [
       33.5398,
       27.851142
      ],
      [
       33.517412,
       27.87354
      ],
      [
       33.482811,
       27.917321
      ],
      [
       33.438029,
       27.962123
      ],
      [
       33.407499,
       28.005904
      ],
      [
       33.37595,
       28.022199
      ],
      [
       33.346435,
       28.03849
      ],
      [
       33.323031,
       28.055802
      ],
      [
       33.307765,
       28.077183
      ],
      [
       33.27855,
       28.126398
      ]
     ],
     [
      [
       33.819552,
       27.24037
      ],
      [
       33.72977,
       27.256743
      ],
      [
       33.684156,
       27.292721
      ],
      [
       33.656563,
       27.339645
      ],
      [
       33.61095,
       27.397706
      ],
      [
       33.591636,
       27.42678
      ],
      [
       33.579219,
       27.468183
      ],
      [
       33.566801,
       27.491643
      ],
      [
       33.5405,
       27.517957
      ],
      [
       33.482559,
       27.600859
      ],
      [
       33.464536,
       27.640884
      ],
      [
       33.483942,
       27.696174
      ],
      [
       33.494977,
       27.715495
      ],
      [
       33.521482,
       27.724579
      ],
      [
       33.53886,
       27.729336
      ]
     ]
    ]
   }
  }
 ]
}