{
 "type": "FeatureCollection",
 "features": [
  {
   "type": "Feature",
   "properties": {
    "name": "Faramid Development Lease (map code 94)",
    "concession": "East Obaiyed \u2014 IEOC/Agiba (Eni), Apex 25%",
    "source": "EGPC/EGAS/GANOPE 'Egypt Concession Map', July 2026 (eug.petroleum.gov.eg); green development-lease polygon traced from the 300-ppi raster and georeferenced on the map's own graticule (881.3 px/deg, ticks at 24/26/30/32/34 N and 26/28/30 E)",
    "precision": "~\u00b1200 m"
   },
   "geometry": {
    "type": "Polygon",
    "coordinates": [
     [
      [
       26.97243,
       31.09747
      ],
      [
       26.97697,
       31.09747
      ],
      [
       26.9815,
       31.09747
      ],
      [
       26.98604,
       31.09747
      ],
      [
       26.99058,
       31.09747
      ],
      [
       26.99512,
       31.09747
      ],
      [
       26.99739,
       31.0952
      ],
      [
       26.99739,
       31.09066
      ],
      [
       26.99739,
       31.08612
      ],
      [
       26.99852,
       31.08158
      ],
      [
       27.00306,
       31.08158
      ],
      [
       27.0076,
       31.08158
      ],
      [
       27.01214,
       31.08158
      ],
      [
       27.01668,
       31.08158
      ],
      [
       27.02122,
       31.08158
      ],
      [
       27.02576,
       31.08158
      ],
      [
       27.02462,
       31.07705
      ],
      [
       27.02349,
       31.07364
      ],
      [
       27.01895,
       31.07137
      ],
      [
       27.01441,
       31.06797
      ],
      [
       27.00987,
       31.0657
      ],
      [
       27.01101,
       31.06229
      ],
      [
       27.01555,
       31.06456
      ],
      [
       27.02008,
       31.06683
      ],
      [
       27.02462,
       31.0691
      ],
      [
       27.02916,
       31.07251
      ],
      [
       27.02916,
       31.07705
      ],
      [
       27.02916,
       31.08158
      ],
      [
       27.0337,
       31.08158
      ],
      [
       27.03824,
       31.08158
      ],
      [
       27.04278,
       31.08158
      ],
      [
       27.04732,
       31.08158
      ],
      [
       27.05186,
       31.08158
      ],
      [
       27.05639,
       31.08158
      ],
      [
       27.06093,
       31.08158
      ],
      [
       27.0632,
       31.08045
      ],
      [
       27.05866,
       31.07818
      ],
      [
       27.05412,
       31.07591
      ],
      [
       27.04959,
       31.07364
      ],
      [
       27.04505,
       31.07137
      ],
      [
       27.04051,
       31.06797
      ],
      [
       27.03597,
       31.0657
      ],
      [
       27.03143,
       31.06343
      ],
      [
       27.02689,
       31.06116
      ],
      [
       27.02235,
       31.05889
      ],
      [
       27.01781,
       31.05662
      ],
      [
       27.01441,
       31.05208
      ],
      [
       27.01441,
       31.04754
      ],
      [
       27.01441,
       31.043
      ],
      [
       27.01441,
       31.03847
      ],
      [
       27.01101,
       31.0362
      ],
      [
       27.00647,
       31.0362
      ],
      [
       27.00193,
       31.0362
      ],
      [
       26.99739,
       31.03393
      ],
      [
       26.99739,
       31.02939
      ],
      [
       26.99739,
       31.02485
      ],
      [
       26.99739,
       31.02031
      ],
      [
       26.99399,
       31.01918
      ],
      [
       26.98945,
       31.01918
      ],
      [
       26.98491,
       31.01918
      ],
      [
       26.98037,
       31.01691
      ],
      [
       26.98037,
       31.01237
      ],
      [
       26.98037,
       31.00783
      ],
      [
       26.98037,
       31.00329
      ],
      [
       26.97583,
       31.00329
      ],
      [
       26.97129,
       31.00329
      ],
      [
       26.96902,
       31.00443
      ],
      [
       26.96902,
       31.00896
      ],
      [
       26.96902,
       31.0135
      ],
      [
       26.96902,
       31.01804
      ],
      [
       26.96902,
       31.02258
      ],
      [
       26.96902,
       31.02712
      ],
      [
       26.96902,
       31.03166
      ],
      [
       26.96675,
       31.0362
      ],
      [
       26.96221,
       31.0362
      ],
      [
       26.95768,
       31.0362
      ],
      [
       26.95314,
       31.0362
      ],
      [
       26.952,
       31.04074
      ],
      [
       26.952,
       31.04527
      ],
      [
       26.95427,
       31.04754
      ],
      [
       26.95881,
       31.04754
      ],
      [
       26.96335,
       31.04754
      ],
      [
       26.96789,
       31.04868
      ],
      [
       26.96902,
       31.05322
      ],
      [
       26.96902,
       31.05776
      ],
      [
       26.96902,
       31.06229
      ],
      [
       26.97243,
       31.06456
      ],
      [
       26.97697,
       31.06456
      ],
      [
       26.9815,
       31.06456
      ],
      [
       26.98604,
       31.06683
      ],
      [
       26.98604,
       31.07137
      ],
      [
       26.98604,
       31.07591
      ],
      [
       26.98604,
       31.08045
      ],
      [
       26.98264,
       31.08499
      ],
      [
       26.97924,
       31.08953
      ],
      [
       26.9747,
       31.09407
      ],
      [
       26.97243,
       31.09747
      ]
     ]
    ]
   }
  },
  {
   "type": "Feature",
   "properties": {
    "name": "Faramid pad A (north)",
    "source": "Esri World Imagery, visual identification of graded wellpad"
   },
   "geometry": {
    "type": "Point",
    "coordinates": [
     26.98457,
     31.05617
    ]
   }
  },
  {
   "type": "Feature",
   "properties": {
    "name": "Faramid pad B (east)",
    "source": "Esri World Imagery, visual identification of graded wellpad"
   },
   "geometry": {
    "type": "Point",
    "coordinates": [
     26.98931,
     31.05146
    ]
   }
  },
  {
   "type": "Feature",
   "properties": {
    "name": "Faramid pad C (south, flare)",
    "source": "Esri World Imagery, visual identification of graded wellpad"
   },
   "geometry": {
    "type": "Point",
    "coordinates": [
     26.98399,
     31.04839
    ]
   }
  },
  {
   "type": "Feature",
   "properties": {
    "name": "Faramid pad D (far south)",
    "source": "Esri World Imagery, visual identification of graded wellpad"
   },
   "geometry": {
    "type": "Point",
    "coordinates": [
     26.98646,
     31.04527
    ]
   }
  },
  {
   "type": "Feature",
   "properties": {
    "name": "Faramid pad NW",
    "source": "Esri World Imagery, visual identification of graded wellpad"
   },
   "geometry": {
    "type": "Point",
    "coordinates": [
     26.98152,
     31.05731
    ]
   }
  }
 ]
}