{
"type": "FeatureCollection",
"name": "P3620",
"features": [
{ "type": "Feature", "properties": { "ProjectID": "P3620" }, "geometry": { "type": "LineString", "coordinates": [ [ 34.679266, 31.84901 ], [ 34.679202, 31.849021 ], [ 34.67908, 31.849037 ], [ 34.679002, 31.849012 ], [ 34.678924, 31.849001 ], [ 34.678841, 31.848997 ], [ 34.678754, 31.849005 ], [ 34.678668, 31.849003 ], [ 34.678584, 31.849008 ], [ 34.678502, 31.849005 ], [ 34.67841, 31.848995 ], [ 34.678333, 31.848993 ], [ 34.678246, 31.848998 ], [ 34.678165, 31.849001 ], [ 34.67807, 31.849014 ], [ 34.678001, 31.849005 ], [ 34.677906, 31.849027 ], [ 34.677819, 31.849004 ], [ 34.677735, 31.84901 ], [ 34.677654, 31.849002 ], [ 34.67757, 31.848986 ], [ 34.677484, 31.848974 ], [ 34.677394, 31.848976 ], [ 34.677308, 31.848997 ], [ 34.677229, 31.848985 ], [ 34.677146, 31.848985 ], [ 34.677052, 31.848998 ], [ 34.676972, 31.848988 ], [ 34.676888, 31.848999 ], [ 34.676803, 31.849003 ], [ 34.676716, 31.849008 ], [ 34.676634, 31.849001 ], [ 34.676548, 31.849006 ], [ 34.676463, 31.849011 ], [ 34.676377, 31.849008 ], [ 34.676293, 31.849008 ], [ 34.67621, 31.849011 ], [ 34.676126, 31.849019 ], [ 34.676035, 31.849022 ], [ 34.675953, 31.848996 ], [ 34.675831, 31.84899 ], [ 34.675726, 31.849014 ], [ 34.675616, 31.849011 ], [ 34.675492, 31.849008 ], [ 34.675378, 31.849028 ], [ 34.675258, 31.84902 ], [ 34.675151, 31.849014 ], [ 34.675015, 31.849019 ], [ 34.674927, 31.848994 ], [ 34.674777, 31.848994 ], [ 34.674674, 31.849005 ], [ 34.674559, 31.849005 ], [ 34.674437, 31.84902 ], [ 34.674314, 31.849005 ], [ 34.674216, 31.849021 ], [ 34.674083, 31.849031 ], [ 34.673972, 31.848994 ], [ 34.673851, 31.848995 ], [ 34.673738, 31.848985 ], [ 34.673614, 31.848994 ], [ 34.673498, 31.848997 ], [ 34.67338, 31.848995 ], [ 34.673263, 31.848993 ], [ 34.673139, 31.849 ], [ 34.673029, 31.848996 ], [ 34.67291, 31.848997 ], [ 34.672796, 31.84899 ], [ 34.672675, 31.848992 ], [ 34.672559, 31.848993 ], [ 34.672441, 31.848993 ], [ 34.672323, 31.848986 ], [ 34.6722, 31.848994 ], [ 34.672087, 31.848989 ], [ 34.671986, 31.848991 ], [ 34.671846, 31.849004 ], [ 34.671735, 31.848992 ], [ 34.671629, 31.848992 ], [ 34.671509, 31.848998 ], [ 34.671373, 31.849024 ], [ 34.671288, 31.849004 ], [ 34.671095, 31.848995 ], [ 34.671051, 31.849036 ], [ 34.670986, 31.849059 ], [ 34.670905, 31.849099 ], [ 34.670834, 31.84911 ], [ 34.670765, 31.849143 ], [ 34.670704, 31.849172 ], [ 34.670623, 31.849191 ], [ 34.670556, 31.849238 ], [ 34.670483, 31.849262 ], [ 34.670408, 31.849269 ], [ 34.670337, 31.849299 ], [ 34.67027, 31.849317 ], [ 34.670176, 31.849332 ], [ 34.670116, 31.849372 ], [ 34.670051, 31.849407 ], [ 34.669977, 31.849425 ], [ 34.669914, 31.849452 ], [ 34.669836, 31.849502 ], [ 34.669765, 31.849511 ], [ 34.669694, 31.849535 ], [ 34.669623, 31.849564 ], [ 34.66956, 31.849587 ], [ 34.669459, 31.84959 ], [ 34.669402, 31.849636 ], [ 34.669338, 31.849671 ], [ 34.669266, 31.849693 ], [ 34.66919, 31.849717 ], [ 34.669123, 31.849749 ], [ 34.66905, 31.849774 ], [ 34.668977, 31.849796 ], [ 34.66891, 31.84983 ], [ 34.668838, 31.849859 ], [ 34.668763, 31.849871 ], [ 34.668692, 31.849904 ], [ 34.668621, 31.849931 ], [ 34.668552, 31.84996 ], [ 34.668479, 31.849983 ], [ 34.668409, 31.850012 ], [ 34.668341, 31.850031 ], [ 34.668193, 31.850086 ], [ 34.668103, 31.850122 ], [ 34.667995, 31.85016 ], [ 34.667891, 31.850204 ], [ 34.667785, 31.850238 ], [ 34.66768, 31.850286 ], [ 34.667574, 31.850317 ], [ 34.667466, 31.850355 ], [ 34.66736, 31.850394 ], [ 34.667257, 31.850437 ], [ 34.667149, 31.850469 ], [ 34.667039, 31.850511 ], [ 34.666939, 31.850559 ], [ 34.666832, 31.850594 ], [ 34.666726, 31.850635 ], [ 34.666613, 31.850664 ], [ 34.666516, 31.850716 ], [ 34.666415, 31.850746 ], [ 34.666298, 31.850803 ], [ 34.666197, 31.850827 ], [ 34.66609, 31.850868 ], [ 34.665984, 31.850903 ], [ 34.665877, 31.85094 ], [ 34.665773, 31.850985 ], [ 34.665666, 31.851024 ], [ 34.66556, 31.851065 ], [ 34.665454, 31.851102 ], [ 34.665348, 31.851143 ], [ 34.665242, 31.851174 ], [ 34.665137, 31.85122 ], [ 34.665049, 31.851256 ], [ 34.664918, 31.851317 ], [ 34.664816, 31.851334 ], [ 34.664712, 31.851371 ], [ 34.664604, 31.851411 ], [ 34.664499, 31.851446 ], [ 34.664391, 31.851488 ], [ 34.664285, 31.851523 ], [ 34.664187, 31.85159 ], [ 34.66407, 31.851564 ], [ 34.65896, 31.854262 ] ] } }
]
}
