{
 "type": "FeatureCollection",
 "features": [
  {
   "type": "Feature",
   "properties": {
    "ProjectID": "P3657"
   },
   "geometry": {
    "type": "LineString",
    "coordinates": [
     [
      34.65896,
      31.854262
     ],
     [
      34.657274,
      31.856605
     ],
     [
      34.656138,
      31.858237
     ],
     [
      34.655031,
      31.859912
     ],
     [
      34.653793,
      31.861517
     ],
     [
      34.65254,
      31.863075
     ],
     [
      34.651339,
      31.864652
     ],
     [
      34.650137,
      31.866211
     ],
     [
      34.648896,
      31.867793
     ],
     [
      34.647627,
      31.869298
     ],
     [
      34.646422,
      31.870959
     ],
     [
      34.64534,
      31.872657
     ],
     [
      34.643915,
      31.873848
     ],
     [
      34.641733,
      31.874857
     ],
     [
      34.640074,
      31.876116
     ],
     [
      34.638404,
      31.877272
     ],
     [
      34.636738,
      31.878404
     ],
     [
      34.634947,
      31.879395
     ],
     [
      34.633159,
      31.880359
     ],
     [
      34.6313,
      31.881204
     ],
     [
      34.629358,
      31.882016
     ],
     [
      34.627432,
      31.882756
     ],
     [
      34.62523,
      31.883485
     ],
     [
      34.622958,
      31.884121
     ],
     [
      34.620947,
      31.884545
     ],
     [
      34.618866,
      31.884954
     ],
     [
      34.616774,
      31.885252
     ],
     [
      34.614608,
      31.885482
     ],
     [
      34.612271,
      31.885679
     ],
     [
      34.609925,
      31.885644
     ],
     [
      34.607778,
      31.885607
     ],
     [
      34.605662,
      31.885482
     ],
     [
      34.603566,
      31.885198
     ],
     [
      34.601501,
      31.884922
     ],
     [
      34.599275,
      31.884636
     ],
     [
      34.597085,
      31.884045
     ],
     [
      34.595056,
      31.883458
     ],
     [
      34.593035,
      31.882892
     ],
     [
      34.59115,
      31.882122
     ],
     [
      34.589322,
      31.88108
     ],
     [
      34.587504,
      31.880008
     ],
     [
      34.585943,
      31.878744
     ],
     [
      34.584634,
      31.877389
     ],
     [
      34.583561,
      31.875855
     ],
     [
      34.58275,
      31.874673
     ],
     [
      34.535694,
      31.791944
     ],
     [
      34.464167,
      31.689444
     ],
     [
      34.461528,
      31.683333
     ],
     [
      34.462639,
      31.672639
     ],
     [
      34.470278,
      31.664028
     ],
     [
      34.527222,
      31.642083
     ]
    ]
   }
  }
 ]
}