{"type": "Feature", "properties": {"pid": "P6703", "path_km": 301.9}, "geometry": {"type": "LineString", "coordinates": [[30.37027, 31.440189], [30.332125, 31.432822], [30.306997, 31.412479], [30.262478, 31.070732], [30.062737, 31.110599], [30.043886, 31.089847], [29.94492, 31.106571], [29.882871, 31.045044], [29.852779, 31.025163], [29.807727, 31.014383], [29.803233, 31.012517], [29.723979, 30.97094], [29.725017, 30.957834], [29.718636, 30.941623], [29.697098, 30.8933], [29.684176, 30.864978], [29.492542, 30.583328], [29.305962, 30.459088], [29.010922, 30.222006], [28.826486, 29.980159], [28.649171, 29.813749], [28.573791, 29.739837], [28.558373, 29.722386], [28.388952, 29.769247]]}}