{"type": "Feature", "properties": {"pid": "P7589", "path_km": 347.4}, "geometry": {"type": "LineString", "coordinates": [[26.934433, 30.968514], [26.939161, 30.895963], [26.939357, 30.883579], [26.915008, 30.828443], [26.882951, 30.753122], [26.871397, 30.721034], [26.847747, 30.72171], [27.208295, 30.454367], [27.348095, 30.330295], [27.715797, 29.930289], [28.362243, 29.928117], [28.769511, 29.926768], [28.649171, 29.813749], [28.573791, 29.739837], [28.558373, 29.722386], [28.16489, 29.830804], [27.938857, 29.847961]]}}