{"type": "Feature", "properties": {"pid": "P8034", "path_km": 124.7}, "geometry": {"type": "LineString", "coordinates": [[33.232272, 28.091012], [33.287321, 28.032106], [33.489413, 27.933892], [33.503839, 27.891872], [33.429598, 27.857056], [33.459298, 27.80491], [33.449833, 27.740443], [33.445436, 27.703588], [33.448198, 27.694376], [33.455508, 27.676871], [33.489574, 27.603912], [33.510021, 27.561956], [33.59921, 27.426908], [33.620103, 27.394331], [33.634876, 27.370354], [33.640473, 27.359469], [33.645086, 27.352947], [33.674483, 27.324096], [33.747995, 27.258141], [33.790674, 27.248229]]}}