{
 "type": "FeatureCollection",
 "features": [
  {
   "type": "Feature",
   "properties": {
    "ProjectID": "P8057"
   },
   "geometry": {
    "type": "LineString",
    "coordinates": [
     [
      31.299536,
      30.142961
     ],
     [
      31.247712,
      30.179502
     ],
     [
      31.245724,
      30.17922
     ],
     [
      31.258313,
      30.112226
     ],
     [
      31.282834,
      29.970591
     ],
     [
      31.294361,
      29.792157
     ],
     [
      31.297517,
      29.775835
     ]
    ]
   }
  }
 ]
}