{
 "type": "FeatureCollection",
 "features": [
  {
   "type": "Feature",
   "properties": {
    "ProjectID": "P8056"
   },
   "geometry": {
    "type": "LineString",
    "coordinates": [
     [
      30.837711,
      27.930588
     ],
     [
      30.876575,
      27.847601
     ],
     [
      30.91538,
      27.764602
     ],
     [
      30.954126,
      27.681592
     ],
     [
      30.992814,
      27.598569
     ],
     [
      31.031443,
      27.515535
     ],
     [
      31.070014,
      27.432489
     ],
     [
      31.108528,
      27.349432
     ],
     [
      31.146984,
      27.266363
     ],
     [
      31.185384,
      27.183282
     ]
    ]
   }
  }
 ]
}