{"type": "FeatureCollection", "features": [{"type": "Feature", "properties": {"pid": "P8056", "path_km": 118.5}, "geometry": {"type": "LineString", "coordinates": [[30.650202, 27.913643], [30.661271, 27.549102], [30.664838, 27.463213], [30.66835, 27.40211], [30.671587, 27.378323], [30.682602, 27.369848], [30.706752, 27.348988], [30.849662, 27.221404], [30.88937, 27.187011], [30.906179, 27.183685], [30.940445, 27.182035], [30.986097, 27.181682], [31.08727, 27.183344], [31.172639, 27.186061], [31.175595, 27.179664]]}}]}