{
 "type": "FeatureCollection",
 "features": [
  {
   "type": "Feature",
   "properties": {
    "ProjectID": "P6689"
   },
   "geometry": {
    "type": "LineString",
    "coordinates": [
     [
      28.716032,
      29.63693
     ],
     [
      28.705078,
      29.654629
     ],
     [
      28.696969,
      29.662645
     ],
     [
      28.690186,
      29.668768
     ],
     [
      28.6746,
      29.688414
     ],
     [
      28.663809,
      29.705625
     ],
     [
      28.656183,
      29.713476
     ],
     [
      28.643882,
      29.724495
     ],
     [
      28.638054,
      29.730822
     ],
     [
      28.636491,
      29.732626
     ],
     [
      28.629681,
      29.736642
     ],
     [
      28.616191,
      29.748938
     ],
     [
      28.579964,
      29.781456
     ],
     [
      28.573706,
      29.789333
     ],
     [
      28.571804,
      29.798456
     ],
     [
      28.566637,
      29.852152
     ],
     [
      28.565693,
      29.882028
     ],
     [
      28.564945,
      29.926823
     ],
     [
      28.559434,
      30.007787
     ],
     [
      28.554422,
      30.081415
     ]
    ]
   }
  }
 ]
}