{
 "type": "FeatureCollection",
 "features": [
  {
   "type": "Feature",
   "properties": {
    "ProjectID": "P6699"
   },
   "geometry": {
    "type": "LineString",
    "coordinates": [
     [
      31.129164,
      29.068361
     ],
     [
      31.116603,
      29.058591
     ],
     [
      31.076152,
      29.01814
     ],
     [
      31.051168,
      28.970551
     ],
     [
      31.023804,
      28.927721
     ],
     [
      30.984543,
      28.840276
     ],
     [
      30.944092,
      28.77603
     ],
     [
      30.917918,
      28.711785
     ],
     [
      30.925057,
      28.616606
     ],
     [
      30.883416,
      28.577345
     ],
     [
      30.875088,
      28.509531
     ],
     [
      30.853673,
      28.434578
     ],
     [
      30.796566,
      28.349512
     ],
     [
      30.790617,
      28.256713
     ],
     [
      30.775151,
      28.215072
     ],
     [
      30.707211,
      28.217118
     ],
     [
      30.635952,
      28.206744
     ],
     [
      30.621675,
      28.107997
     ],
     [
      30.619642,
      28.092563
     ]
    ]
   }
  }
 ]
}