{
 "type": "FeatureCollection",
 "features": [
  {
   "type": "Feature",
   "properties": {
    "ProjectID": "P6697"
   },
   "geometry": {
    "type": "LineString",
    "coordinates": [
     [
      31.244348,
      29.800585
     ],
     [
      31.215351,
      29.689148
     ],
     [
      31.212971,
      29.630852
     ],
     [
      31.230181,
      29.565595
     ],
     [
      31.221151,
      29.521436
     ],
     [
      31.215351,
      29.471547
     ],
     [
      31.204643,
      29.453701
     ],
     [
      31.191799,
      29.423638
     ],
     [
      31.194083,
      29.396988
     ],
     [
      31.202078,
      29.349018
     ],
     [
      31.203411,
      29.337406
     ],
     [
      31.199794,
      29.32903
     ],
     [
      31.191228,
      29.3158
     ],
     [
      31.190086,
      29.302666
     ],
     [
      31.192751,
      29.299049
     ],
     [
      31.205886,
      29.296194
     ],
     [
      31.225112,
      29.292958
     ],
     [
      31.238564,
      29.290452
     ]
    ]
   }
  }
 ]
}