{
 "type": "FeatureCollection",
 "features": [
  {
   "type": "Feature",
   "properties": {
    "ProjectID": "P6700"
   },
   "geometry": {
    "type": "LineString",
    "coordinates": [
     [
      30.619642,
      28.092563
     ],
     [
      30.608588,
      28.008654
     ],
     [
      30.622865,
      27.887302
     ],
     [
      30.635952,
      27.783795
     ],
     [
      30.674023,
      27.71598
     ],
     [
      30.699008,
      27.597007
     ],
     [
      30.720423,
      27.536331
     ],
     [
      30.731131,
      27.421522
     ],
     [
      30.764443,
      27.366794
     ],
     [
      30.82155,
      27.310877
     ],
     [
      30.878657,
      27.282324
     ],
     [
      30.95361,
      27.231165
     ],
     [
      31.036891,
      27.187145
     ],
     [
      31.110655,
      27.184766
     ],
     [
      31.151105,
      27.171679
     ],
     [
      31.180996,
      27.176967
     ]
    ]
   }
  }
 ]
}