{
 "type": "FeatureCollection",
 "features": [
  {
   "type": "Feature",
   "properties": {
    "ProjectID": "P6701"
   },
   "geometry": {
    "type": "LineString",
    "coordinates": [
     [
      31.180996,
      27.176967
     ],
     [
      31.20884,
      27.157519
     ],
     [
      31.240736,
      27.152728
     ],
     [
      31.273031,
      27.146741
     ],
     [
      31.293363,
      27.126399
     ],
     [
      31.293363,
      27.099279
     ],
     [
      31.302932,
      27.058593
     ],
     [
      31.333627,
      27.006346
     ],
     [
      31.399014,
      26.931357
     ],
     [
      31.452837,
      26.877504
     ],
     [
      31.493104,
      26.786169
     ],
     [
      31.525398,
      26.743091
     ],
     [
      31.614705,
      26.631406
     ],
     [
      31.70041,
      26.524391
     ],
     [
      31.755041,
      26.462282
     ],
     [
      31.814445,
      26.395672
     ],
     [
      31.880971,
      26.332813
     ]
    ]
   }
  }
 ]
}