{
 "type": "FeatureCollection",
 "features": [
  {
   "type": "Feature",
   "properties": {
    "ProjectID": "P8017"
   },
   "geometry": {
    "type": "LineString",
    "coordinates": [
     [
      31.307696,
      29.822274
     ],
     [
      31.451922,
      29.871571
     ],
     [
      31.472081,
      29.891734
     ],
     [
      31.498164,
      29.911194
     ],
     [
      31.53328,
      29.921224
     ],
     [
      31.595578,
      29.943297
     ],
     [
      31.702017,
      30.082119
     ],
     [
      31.760285,
      30.082189
     ],
     [
      31.982302,
      30.069894
     ],
     [
      32.115922,
      30.05984
     ],
     [
      32.244527,
      30.062837
     ],
     [
      32.395112,
      30.045663
     ],
     [
      32.438347,
      30.035619
     ],
     [
      32.490609,
      30.006507
     ],
     [
      32.524718,
      29.978401
     ],
     [
      32.540773,
      29.962339
     ],
     [
      32.558969,
      29.959252
     ]
    ]
   }
  }
 ]
}