{
 "type": "FeatureCollection",
 "features": [
  {
   "type": "Feature",
   "properties": {
    "ProjectID": "P8018"
   },
   "geometry": {
    "type": "LineString",
    "coordinates": [
     [
      32.558969,
      29.959252
     ],
     [
      32.572696,
      30.013567
     ],
     [
      32.560485,
      30.159152
     ],
     [
      32.555395,
      30.180531
     ],
     [
      32.524864,
      30.196826
     ],
     [
      32.46584,
      30.221267
     ],
     [
      32.419025,
      30.239596
     ],
     [
      32.406811,
      30.261998
     ],
     [
      32.342696,
      30.282367
     ],
     [
      32.32438,
      30.30782
     ],
     [
      32.305044,
      30.327166
     ],
     [
      32.297918,
      30.344476
     ],
     [
      32.299955,
      30.372981
     ],
     [
      32.316925,
      30.401515
     ],
     [
      32.328828,
      30.414718
     ],
     [
      32.32336,
      30.453406
     ],
     [
      32.313184,
      30.519583
     ],
     [
      32.288758,
      30.546055
     ],
     [
      32.265351,
      30.567436
     ],
     [
      32.28417,
      30.595369
     ],
     [
      32.314201,
      30.723196
     ],
     [
      32.314201,
      30.759845
     ],
     [
      32.307077,
      30.825003
     ],
     [
      32.311314,
      30.868183
     ],
     [
      32.306771,
      31.033182
     ],
     [
      32.305699,
      31.080701
     ],
     [
      32.299817,
      31.227586
     ],
     [
      32.307557,
      31.261744
     ]
    ]
   }
  }
 ]
}