{"type": "FeatureCollection", "features": [{"type": "Feature", "properties": {"pid": "P8045", "path_km": 199.8}, "geometry": {"type": "LineString", "coordinates": [[34.859207, 29.489684], [34.772103, 29.403892], [34.713332, 29.327167], [34.696787, 29.203242], [34.652495, 29.026088], [34.499873, 28.836374], [34.458646, 28.593018], [34.466889, 28.522917], [34.40503, 28.500216], [34.301915, 28.281215], [34.306048, 28.164079], [34.270047, 28.042632], [34.359664, 27.970231], [34.301915, 27.891872]]}}]}