{
 "type": "FeatureCollection",
 "features": [
  {
   "type": "Feature",
   "properties": {
    "ProjectID": "P7589"
   },
   "geometry": {
    "type": "LineString",
    "coordinates": [
     [
      26.98931,
      31.05146
     ],
     [
      26.98311,
      31.04218
     ],
     [
      26.91142,
      31.053672
     ],
     [
      26.87979,
      31.05866
     ],
     [
      26.780248,
      31.074577
     ],
     [
      26.706777,
      31.086191
     ],
     [
      26.662359,
      31.093211
     ],
     [
      26.620394,
      31.099917
     ],
     [
      26.6142,
      31.0996
     ]
    ]
   }
  }
 ]
}