{
 "type": "FeatureCollection",
 "features": [
  {
   "type": "Feature",
   "properties": {
    "source_ref_id": "gulfpub:gas:463",
    "split": "vertices 0..28 (Ameriya end -> Tarek junction, nearest vertex to gulfpub:gas:462 endpoint)"
   },
   "geometry": {
    "type": "LineString",
    "coordinates": [
     [
      29.844239999889982,
      31.003286000083442
     ],
     [
      29.821218999867988,
      30.993941000047624
     ],
     [
      29.79149600009122,
      30.982752000141392
     ],
     [
      29.761908000033632,
      30.974183000223256
     ],
     [
      29.742871000448957,
      30.960680999656617
     ],
     [
      29.69759400031104,
      30.94780499980827
     ],
     [
      29.654426999943365,
      30.933027999791555
     ],
     [
      29.64220300044154,
      30.909496999966482
     ],
     [
      29.623227999882815,
      30.86169499962379
     ],
     [
      29.588369000148383,
      30.839715999903603
     ],
     [
      29.559853999968457,
      30.82002600014697
     ],
     [
      29.489334999710213,
      30.79494800000593
     ],
     [
      29.441540000271335,
      30.790494000134334
     ],
     [
      29.39215599967248,
      30.78340799969048
     ],
     [
      29.329762324041127,
      30.77302363898761
     ],
     [
      29.283606336770774,
      30.76267235486512
     ],
     [
      29.25730799962298,
      30.746082000196303
     ],
     [
      29.22924791259115,
      30.739921343729506
     ],
     [
      29.19646600015161,
      30.732724000160864
     ],
     [
      29.16994142589278,
      30.72688360460333
     ],
     [
      29.122779000314058,
      30.716499000082678
     ],
     [
      29.060377999819877,
      30.71557900032655
     ],
     [
      28.98248077590872,
      30.731731167968714
     ],
     [
      28.864095999746986,
      30.75618500023943
     ],
     [
      28.736909000425452,
      30.77870999976705
     ],
     [
      28.623507556437136,
      30.795563441078983
     ],
     [
      28.41320994787662,
      30.826555218865476
     ],
     [
      28.050146168012088,
      30.879208099131933
     ],
     [
      27.602277964117892,
      30.942763551185614
     ]
    ]
   }
  }
 ]
}