{
 "type": "FeatureCollection",
 "features": [
  {
   "type": "Feature",
   "properties": {
    "source_ref_ids": [
     "gulfpub:gas:409",
     "gulfpub:gas:429",
     "gulfpub:gas:437",
     "gulfpub:gas:7072"
    ],
    "note": "four Denise-anchored GulfPub traces merged as one system; gaps never bridged"
   },
   "geometry": {
    "type": "MultiLineString",
    "coordinates": [
     [
      [
       32.10220313203169,
       31.863040109159677
      ],
      [
       32.169905486276164,
       31.430970399570157
      ],
      [
       32.187668568786755,
       31.303270334928058
      ],
      [
       32.21067701395435,
       31.286859075084024
      ],
      [
       32.28043760524579,
       31.27214438256454
      ],
      [
       32.29839541556053,
       31.26989774547183
      ],
      [
       32.30581174574779,
       31.261829583600722
      ]
     ],
     [
      [
       31.921848310455243,
       31.92488531018375
      ],
      [
       31.985667223471978,
       31.9112870605844
      ],
      [
       32.055008256609945,
       31.891810950091294
      ],
      [
       32.095163128574846,
       31.880249905722174
      ]
     ],
     [
      [
       32.2951508947904,
       31.691515581009455
      ],
      [
       32.27113633650459,
       31.701764093751443
      ],
      [
       32.23828626529118,
       31.740978048977993
      ],
      [
       32.12696813931259,
       31.84325920359793
      ]
     ],
     [
      [
       32.095163128574846,
       31.880249905722174
      ],
      [
       32.12453930948168,
       31.68979213483037
      ],
      [
       32.183638058075644,
       31.298246179741678
      ]
     ]
    ]
   }
  }
 ]
}