{
 "type": "FeatureCollection",
 "features": [
  {
   "type": "Feature",
   "properties": {
    "ProjectID": "P6715"
   },
   "geometry": {
    "type": "LineString",
    "coordinates": [
     [
      13.054,
      33.849
     ],
     [
      12.936789,
      33.707337
     ],
     [
      12.819962,
      33.565559
     ],
     [
      12.703516,
      33.423669
     ],
     [
      12.587449,
      33.281666
     ],
     [
      12.471757,
      33.139552
     ],
     [
      12.356438,
      32.997328
     ],
     [
      12.241488,
      32.854994
     ]
    ]
   }
  }
 ]
}