{
 "type": "FeatureCollection",
 "features": [
  {
   "type": "Feature",
   "properties": {
    "source_ref_id": "gulfpub:gas:463",
    "split": "vertices 28..39 (Tarek junction -> Obaiyed end)"
   },
   "geometry": {
    "type": "LineString",
    "coordinates": [
     [
      27.602277964117892,
      30.942763551185614
     ],
     [
      27.427364999988725,
      30.970508999909402
     ],
     [
      27.295117000154296,
      30.991960000383493
     ],
     [
      27.161845999772584,
      31.013401000367093
     ],
     [
      27.045649000416724,
      31.032014000090737
     ],
     [
      26.980723000050638,
      31.043385999902327
     ],
     [
      26.93805600017348,
      31.049338999938865
     ],
     [
      26.881537000174795,
      31.05838500011066
     ],
     [
      26.812021000372287,
      31.069485999741627
     ],
     [
      26.769438000160715,
      31.076220000039974
     ],
     [
      26.700395000186237,
      31.08719999994664
     ],
     [
      26.617897999575153,
      31.099736000148987
     ]
    ]
   }
  }
 ]
}