{
 "type": "FeatureCollection",
 "features": [
  {
   "type": "Feature",
   "properties": {
    "ProjectID": "P0462"
   },
   "geometry": {
    "type": "LineString",
    "coordinates": [
     [
      33.889558,
      31.142732
     ],
     [
      33.812996,
      31.188168
     ],
     [
      33.80638,
      31.206548
     ],
     [
      33.794781,
      31.230154
     ],
     [
      33.793884,
      31.238947
     ],
     [
      33.799785,
      31.247532
     ],
     [
      33.810425,
      31.255611
     ],
     [
      33.823746,
      31.262888
     ],
     [
      33.837689,
      31.269065
     ],
     [
      33.862674,
      31.278025
     ],
     [
      34.146745,
      31.403863
     ],
     [
      34.30549,
      31.515185
     ],
     [
      34.376156,
      31.583139
     ],
     [
      34.426244,
      31.656488
     ],
     [
      34.450154,
      31.681559
     ],
     [
      34.500164,
      31.671829
     ],
     [
      34.536087,
      31.6332
     ]
    ]
   }
  }
 ]
}