{
 "type": "FeatureCollection",
 "features": [
  {
   "type": "Feature",
   "properties": {
    "ProjectID": "P6034"
   },
   "geometry": {
    "type": "LineString",
    "coordinates": [
     [
      33.926165,
      26.745998
     ],
     [
      33.901381,
      26.797915
     ],
     [
      33.888966,
      26.860109
     ],
     [
      33.876548,
      26.907123
     ],
     [
      33.854385,
      26.956899
     ],
     [
      33.83921,
      26.991404
     ],
     [
      33.814379,
      27.041177
     ],
     [
      33.804724,
      27.086722
     ],
     [
      33.800582,
      27.129593
     ],
     [
      33.802438,
      27.17287
     ],
     [
      33.821298,
      27.240285
     ]
    ]
   }
  }
 ]
}