{
 "type": "FeatureCollection",
 "features": [
  {
   "type": "Feature",
   "properties": {
    "ProjectID": "P8033"
   },
   "geometry": {
    "type": "LineString",
    "coordinates": [
     [
      32.305741,
      29.63961
     ],
     [
      32.271679,
      29.636499
     ],
     [
      32.268571,
      29.646856
     ],
     [
      32.278062,
      29.661253
     ],
     [
      32.333854,
      29.732157
     ],
     [
      32.471079,
      29.89909
     ],
     [
      32.529866,
      29.996536
     ],
     [
      32.534036,
      30.120795
     ],
     [
      32.466898,
      30.196617
     ],
     [
      32.377693,
      30.245091
     ],
     [
      32.341199,
      30.266086
     ],
     [
      32.334812,
      30.270678
     ],
     [
      32.308639,
      30.402444
     ]
    ]
   }
  }
 ]
}