{
 "type": "FeatureCollection",
 "features": [
  {
   "type": "Feature",
   "properties": {
    "ProjectID": "P8044"
   },
   "geometry": {
    "type": "LineString",
    "coordinates": [
     [
      33.055111,
      31.003222
     ],
     [
      33.336804,
      31.039666
     ],
     [
      33.517955,
      31.062694
     ],
     [
      33.804895,
      31.113964
     ],
     [
      33.812996,
      31.113964
     ],
     [
      33.812996,
      31.10864
     ],
     [
      33.843361,
      31.095528
     ]
    ]
   }
  }
 ]
}