{
 "type": "FeatureCollection",
 "features": [
  {
   "type": "Feature",
   "properties": {
    "ProjectID": "P8041"
   },
   "geometry": {
    "type": "LineString",
    "coordinates": [
     [
      32.34425,
      31.024372
     ],
     [
      32.348241,
      31.05349
     ],
     [
      32.495837,
      31.060152
     ],
     [
      32.554792,
      31.034308
     ],
     [
      32.611347,
      31.028746
     ],
     [
      32.615086,
      31.026649
     ],
     [
      32.650615,
      31.021315
     ],
     [
      32.668417,
      31.023306
     ]
    ]
   }
  }
 ]
}