{
 "type": "FeatureCollection",
 "features": [
  {
   "type": "Feature",
   "properties": {
    "ProjectID": "P8042"
   },
   "geometry": {
    "type": "LineString",
    "coordinates": [
     [
      32.305505,
      31.263235
     ],
     [
      32.329384,
      31.263776
     ],
     [
      32.340383,
      31.224847
     ],
     [
      32.34824,
      31.113949
     ],
     [
      32.34824,
      31.097143
     ],
     [
      32.429167,
      31.062684
     ],
     [
      32.416762,
      30.863479
     ],
     [
      32.429168,
      30.628054
     ],
     [
      32.475996,
      30.428536
     ],
     [
      32.591322,
      30.287043
     ],
     [
      32.611342,
      30.202294
     ],
     [
      32.534036,
      30.120795
     ],
     [
      32.537086,
      29.974498
     ]
    ]
   }
  }
 ]
}