{"type": "FeatureCollection", "features": [{"type": "Feature", "geometry": {"type": "LineString", "coordinates": [[11.0145772, 31.8650182], [11.0146898, 31.8657449], [11.0148024, 31.8663508], [11.0153174, 31.8673167], [11.0161328, 31.8679909], [11.0242009, 31.8739133], [11.0306597, 31.8814023], [11.0315394, 31.8830239], [11.0320115, 31.8860849], [11.0327196, 31.8880344], [11.0335994, 31.8904939], [11.0338998, 31.8923887], [11.0377621, 31.8979451], [11.0397577, 31.9022261], [11.0424184, 31.9069259], [11.0490274, 31.9169803], [11.0595685, 31.9315682], [11.062069, 31.9346247], [11.0637648, 31.9366006], [11.0676012, 31.9412185], [11.0733348, 31.9478944], [11.0868348, 31.9633763], [11.0904262, 31.9675253], [11.0920927, 31.9690487], [11.0931402, 31.9696892], [11.0939088, 31.9701739], [11.0945754, 31.9707451], [11.0958337, 31.9721819], [11.0965819, 31.973509], [11.0982416, 31.976492], [11.1009079, 31.9794692], [11.1045129, 31.9836636], [11.1075193, 31.9871021], [11.1103829, 31.9903731], [11.1127024, 31.9933037], [11.114362, 31.9956919], [11.1172596, 31.9988184], [11.1223609, 32.0041448], [11.1237082, 32.005665], [11.1300607, 32.0129652], [11.1334753, 32.0165756], [11.1374476, 32.01924], [11.1441678, 32.0236691], [11.1539217, 32.0296894], [11.1652945, 32.0371394], [11.1761804, 32.0463828], [11.1792201, 32.0487636], [11.1866077, 32.0519922], [11.1919176, 32.0544381], [11.1992282, 32.0589383], [11.2086936, 32.0648731], [11.2190055, 32.0699923], [11.3036315, 32.1089974], [11.3368633, 32.1249649], [11.3972024, 32.1547274], [11.431659, 32.1717688], [11.4473318, 32.1850492], [11.4568961, 32.1934081], [11.4706285, 32.2053847], [11.4819365, 32.2151913], [11.500964, 32.2317589], [11.521373, 32.2494758], [11.54838, 32.2729032], [11.5659686, 32.2882459], [11.5989269, 32.3167966], [11.6521296, 32.3629453], [11.6837568, 32.3903346], [11.7319796, 32.4320824], [11.7341701, 32.434521], [11.7507916, 32.4542347], [11.7670324, 32.4734463], [11.7685631, 32.4752567], [11.7723136, 32.4796926], [11.7887663, 32.4991768], [11.796367, 32.5082611], [11.8011857, 32.5158144], [11.8084502, 32.5272544], [11.8100548, 32.5297385], [11.8111442, 32.5311592], [11.8135377, 32.5336296], [11.8189365, 32.5388733], [11.82984, 32.5495009], [11.8419578, 32.5613294], [11.8469165, 32.5654272], [11.8706935, 32.5843081], [11.876102, 32.5889438], [11.9010257, 32.6211955], [11.9131347, 32.6295317], [11.9185352, 32.6332493], [11.9194908, 32.6341003], [11.920402, 32.6349117], [11.9359374, 32.6453194], [11.9385338, 32.6472888], [11.9409478, 32.6498363], [11.9438293, 32.6542603], [11.9476634, 32.6599293], [11.9478893, 32.6602784], [11.9490051, 32.6618139], [11.9495415, 32.6628978], [11.9496059, 32.6642526], [11.9500136, 32.6651919], [11.9509148, 32.6657339], [11.9520092, 32.665788], [11.9527817, 32.665499], [11.9538331, 32.6649932], [11.9722925, 32.6641198], [12.0625978, 32.6598468], [12.0668292, 32.6594294], [12.0720434, 32.6593752], [12.0937709, 32.6583556], [12.1176502, 32.657122], [12.1994768, 32.6531331], [12.2000626, 32.653062], [12.2046331, 32.6526284], [12.2059205, 32.6520322], [12.2086064, 32.6517065], [12.2092036, 32.6516528], [12.2181943, 32.6516347], [12.2283223, 32.6509301], [12.2379139, 32.6507133], [12.2542647, 32.6499365], [12.2606805, 32.6506772], [12.2614717, 32.6507667], [12.262271, 32.6508525], [12.2631776, 32.6509293], [12.264213, 32.6509609], [12.2649264, 32.6509655], [12.2654924, 32.6509572], [12.2663587, 32.6509158], [12.2671902, 32.6508345], [12.2679708, 32.6507314], [12.2688156, 32.6505905], [12.2692352, 32.6505109], [12.2697437, 32.6504144], [12.2703687, 32.6502744], [12.2708447, 32.6501648], [12.2717274, 32.6499651], [12.2725385, 32.6497866], [12.2734934, 32.6495697], [12.2738716, 32.6494862], [12.2743195, 32.6493891], [12.2751199, 32.6492015], [12.2759111, 32.6490206], [12.2767121, 32.6488742], [12.2772378, 32.6487952], [12.2778332, 32.6487116], [12.2782034, 32.6486755], [12.2785306, 32.6486484], [12.2790778, 32.6486122], [12.2796726, 32.6485738], [12.2807152, 32.6485163], [12.2819182, 32.6484914], [12.2823782, 32.6484677], [12.2828185, 32.6484291], [12.2878962, 32.6481562], [12.2906005, 32.6480115], [12.2923225, 32.6479392], [12.2931594, 32.647885], [12.2940145, 32.6478349], [12.2947043, 32.6477676], [12.2953719, 32.6476938], [12.298349, 32.6472528], [12.2999185, 32.6470539], [12.300455, 32.6469907], [12.3012532, 32.6469291], [12.3026302, 32.6468778], [12.3042154, 32.6468236], [12.3049479, 32.6468116], [12.3051837, 32.6468078], [12.3055807, 32.6467897], [12.3068261, 32.6467168], [12.3071102, 32.6466958], [12.3074179, 32.6466796], [12.3080322, 32.6466474], [12.3090032, 32.646609], [12.3104998, 32.6465638], [12.3142362, 32.6464081], [12.3142952, 32.6464056], [12.3169211, 32.6462996], [12.3174106, 32.6462804], [12.3185009, 32.6463109], [12.3192278, 32.6462906], [12.3196891, 32.6462228], [12.3203972, 32.6461438], [12.3209631, 32.6460625], [12.3213735, 32.6459879], [12.3224732, 32.6457564], [12.3252909, 32.6453307], [12.3259655, 32.6451139], [12.3273307, 32.6445696], [12.3275332, 32.6444849], [12.3277505, 32.6444307], [12.3279101, 32.6443889], [12.3280603, 32.6443471], [12.3281555, 32.6443155], [12.3283164, 32.6442478], [12.3286356, 32.6440919], [12.3290741, 32.6438762], [12.3295878, 32.6436312], [12.3299351, 32.643464], [12.3304434, 32.6432269], [12.3307814, 32.6430677], [12.3311864, 32.6428667], [12.3313969, 32.6427515], [12.3315445, 32.6426634], [12.3318127, 32.6424556], [12.331928, 32.6423766], [12.332012, 32.642328], [12.3322982, 32.6421936], [12.3327622, 32.6419519], [12.3330921, 32.6417893], [12.3336259, 32.6415409], [12.3341458, 32.641282], [12.3345914, 32.6410598], [12.3352191, 32.640773], [12.3358762, 32.6404364], [12.3361605, 32.6402896], [12.3362839, 32.640249], [12.3364503, 32.6401938], [12.3365495, 32.6401609], [12.3367506, 32.6400931], [12.3368969, 32.6400499], [12.3371717, 32.6399463], [12.3375982, 32.6397521], [12.3379257, 32.6395878], [12.3382848, 32.6394336], [12.3387355, 32.6392326], [12.3392343, 32.6390022], [12.3395589, 32.6388599], [12.3397776, 32.6387407], [12.3399532, 32.6386386], [12.3400685, 32.6385505], [12.3401329, 32.6384963], [12.3401999, 32.6384375], [12.3402724, 32.6383822], [12.3403644, 32.638334], [12.3407578, 32.6381439], [12.3411897, 32.6379474], [12.341643, 32.6377419], [12.3421633, 32.6374911], [12.3440998, 32.6366034], [12.3458718, 32.6357956], [12.3459747, 32.6357678], [12.3461437, 32.6357384], [12.3463315, 32.6356977], [12.3464861, 32.6356512], [12.346715, 32.63556], [12.3475358, 32.6351398], [12.3477805, 32.6349554], [12.3479086, 32.6348756], [12.348131, 32.6347535], [12.3483481, 32.6346486], [12.348504, 32.6345733], [12.3496756, 32.6340075], [12.3513017, 32.6332544], [12.35172, 32.6330437], [12.3530236, 32.6322847], [12.3533884, 32.6320498], [12.3535766, 32.6319625], [12.3539007, 32.6318443], [12.3541775, 32.6317235], [12.3544141, 32.6316111], [12.3560811, 32.6306248], [12.3570863, 32.63003], [12.3574465, 32.6298316], [12.3578382, 32.6296328], [12.3583665, 32.6293821], [12.3589998, 32.6290944], [12.3604238, 32.6285079], [12.3619008, 32.6279011], [12.3676476, 32.6255485], [12.3696935, 32.6247106], [12.3706242, 32.6243198], [12.3710695, 32.6241436], [12.3714651, 32.6239856], [12.3720458, 32.6237641], [12.3739797, 32.6229666], [12.3746636, 32.6226842], [12.3759257, 32.6221362], [12.3764232, 32.6218766], [12.3769623, 32.6216292], [12.3778957, 32.6212723], [12.3786186, 32.6210374], [12.37921, 32.6208521], [12.379961, 32.6205336], [12.3826888, 32.619395], [12.383987, 32.6188257], [12.3844188, 32.6186653], [12.384848, 32.6185094], [12.3853576, 32.6183106], [12.3865063, 32.6178034], [12.3874712, 32.6173685], [12.3883188, 32.6169121], [12.3889035, 32.6166117], [12.3895848, 32.6162615], [12.3898101, 32.6161463], [12.3900609, 32.6160068], [12.3902419, 32.6159158], [12.3913738, 32.6152968], [12.3917735, 32.6150946], [12.3924762, 32.6147478], [12.3932165, 32.614366], [12.3943135, 32.6137876], [12.3952362, 32.6132883], [12.3963708, 32.6126964], [12.3974892, 32.6121225], [12.3977387, 32.6120028], [12.3980337, 32.6118175], [12.3984092, 32.6115757], [12.3988652, 32.6112911], [12.3992541, 32.6110922], [12.3996431, 32.6109025], [12.3998952, 32.6107985], [12.4001768, 32.6106584], [12.4003887, 32.61055], [12.4006274, 32.6104189], [12.4008742, 32.6102924], [12.4012148, 32.6101207], [12.4014643, 32.6099953], [12.4015997, 32.6099191], [12.4017459, 32.6098417], [12.4019451, 32.60974], [12.4021677, 32.609627], [12.4023219, 32.6095502], [12.4025546, 32.6094542], [12.4028134, 32.6093435], [12.4030334, 32.6092294], [12.4033874, 32.6090718], [12.4046038, 32.6085922], [12.4051805, 32.6083855], [12.4055506, 32.608268], [12.406081, 32.6081172], [12.406598, 32.607972], [12.4077138, 32.6077043], [12.410738, 32.6070874], [12.4143067, 32.6063746], [12.4147519, 32.6062718], [12.4158418, 32.6059758], [12.4162956, 32.6058526], [12.4200399, 32.6047285], [12.4209317, 32.6044594], [12.4247702, 32.6033014], [12.4266288, 32.6027752], [12.4281532, 32.6022833], [12.4290991, 32.6020363], [12.4305662, 32.6015979], [12.4320884, 32.601137], [12.4335945, 32.6006986]]}, "properties": {"source": "OSM", "license": "ODbL", "attribution": "\u00a9 OpenStreetMap contributors", "osm_ids": ["177892623", "182799728", "667364033", "670712757"], "osm_id_key": "w177892623_182799728_667364033_670712757", "substance": "", "osm_name": "\u0627\u0644\u0646\u0647\u0631 \u0627\u0644\u0635\u0646\u0627\u0639\u064a \u0627\u0644\u0639\u0638\u064a\u0645", "man_made": "pipeline", "osm_name_local": "\u0627\u0644\u0646\u0647\u0631 \u0627\u0644\u0635\u0646\u0627\u0639\u064a \u0627\u0644\u0639\u0638\u064a\u0645", "lifecycle": "operating"}}, {"type": "Feature", "geometry": {"type": "LineString", "coordinates": [[11.1044875, 31.9798139], [11.1153209, 31.9943009], [11.1287534, 32.0068023], [11.1461127, 32.0207028], [11.1801875, 32.0483338], [11.2036461, 32.0581728], [11.2250662, 32.0671651], [11.2623596, 32.0826109], [11.3226342, 32.1078605], [11.3585543, 32.1226906], [11.4048949, 32.14182], [11.4286351, 32.1517261], [11.4507472, 32.1609181], [11.4537513, 32.1621851], [11.4869356, 32.1758304], [11.5135056, 32.1869268], [11.5628421, 32.2073], [11.6010582, 32.2230852], [11.650325, 32.2434049], [11.6920817, 32.2605628], [11.7231417, 32.2733271], [11.737175, 32.2791417], [11.7517769, 32.28511], [11.7938232, 32.3023236], [11.8340671, 32.318881], [11.8724763, 32.3345471], [11.8928504, 32.3429501], [11.9196296, 32.3539717], [11.961, 32.3708369], [12.0437193, 32.4046303], [12.080972, 32.4827904], [12.1041703, 32.532723], [12.113079, 32.5521738], [12.1197758, 32.5670371], [12.1276254, 32.5840025], [12.1392723, 32.6095639], [12.1433603, 32.6183881], [12.1480337, 32.6287522], [12.1484707, 32.6290565], [12.1487852, 32.630138], [12.151541, 32.6362367], [12.1583223, 32.6510993], [12.1690123, 32.6744593], [12.1786014, 32.6955629], [12.1797414, 32.6987356], [12.1814546, 32.7033954], [12.1833905, 32.7088219], [12.1843445, 32.7114929], [12.1857327, 32.7154656], [12.1862595, 32.7174523]]}, "properties": {"source": "OSM", "license": "ODbL", "attribution": "\u00a9 OpenStreetMap contributors", "osm_ids": ["150990847"], "osm_id_key": "w150990847", "substance": "oil", "osm_name": "", "man_made": "pipeline", "osm_location": "underground", "lifecycle": "operating"}}, {"type": "Feature", "geometry": {"type": "LineString", "coordinates": [[12.2335053, 32.8470078], [12.2328399, 32.8460563], [12.2292866, 32.8357678], [12.228961, 32.8348162], [12.2291167, 32.8344475], [12.2247989, 32.822956], [12.2251528, 32.8223255], [12.220113, 32.8090359], [12.2183575, 32.8031102], [12.2138274, 32.8022178], [12.2100455, 32.7998337], [12.2058429, 32.7971842], [12.2076409, 32.7846644], [12.206211, 32.7829862], [12.2033797, 32.7752139], [12.1969525, 32.7702145], [12.1975754, 32.7662981], [12.1985743, 32.7608418], [12.1954762, 32.7563842], [12.195138, 32.7531716], [12.1907277, 32.7440101], [12.1895904, 32.7332367], [12.1892765, 32.7291871], [12.1890438, 32.7269582], [12.1889047, 32.7262831], [12.1884881, 32.7242617], [12.1851435, 32.7127762], [12.1855474, 32.7115527], [12.1886761, 32.701858], [12.2160149, 32.5656734], [12.218583, 32.5560762], [12.2206662, 32.5468122], [12.2601886, 32.370876], [12.3019397, 32.183893], [12.3146718, 32.1239189], [12.3196054, 32.1002191], [12.3202502, 32.0790648], [12.3208013, 32.0433723], [12.3213699, 32.0195465], [12.3196154, 32.0163784], [12.3143356, 32.013348], [12.3139457, 32.0128521], [12.3141244, 32.0118052], [12.3136858, 32.0100282], [12.3126461, 32.0084991], [12.3125554, 32.0040438], [12.3114853, 31.9597497], [12.3109895, 31.9455484], [12.3078555, 31.8456819], [12.3031247, 31.6675919], [12.3008273, 31.5867606], [12.2975584, 31.4758411], [12.2954496, 31.4314146], [12.3394655, 31.2488924], [12.3482521, 31.2152314], [12.3587286, 31.1792579], [12.3667586, 31.1507499], [12.3692429, 31.1338289], [12.371748, 31.1166314], [12.3752189, 31.1025357], [12.3791027, 31.0865039], [12.3867223, 31.0548944], [12.3911029, 31.0368341], [12.3956251, 31.0183179], [12.4044684, 30.9819323], [12.4062681, 30.9744539], [12.409299, 30.9619887], [12.4139392, 30.9423905], [12.4228029, 30.9048407], [12.4341094, 30.8569766], [12.4397528, 30.8328706], [12.4412334, 30.826721], [12.4425691, 30.8249982], [12.4433845, 30.8214188], [12.4464315, 30.8090096], [12.4700723, 30.7130908], [12.5192801, 30.5117079], [12.5490862, 30.3896073], [12.5711346, 30.2989095], [12.5713098, 30.2981619], [12.5714761, 30.297796], [12.5718838, 30.2969855], [12.5727797, 30.2952671], [12.5752634, 30.2904174], [12.5808692, 30.2794573], [12.5908577, 30.2598642], [12.610985, 30.2204205], [12.6509727, 30.1418741], [12.6537502, 30.1364706], [12.6579237, 30.1281473], [12.6654017, 30.1135033], [12.6793814, 30.0859912], [12.7074158, 30.0308418], [12.7630212, 29.9210634], [12.7950007, 29.8579289], [12.8270906, 29.7944715], [12.8909236, 29.6677534], [12.9562668, 29.5381416], [12.9604071, 29.529862], [12.9640281, 29.5226691], [12.9707161, 29.5093478], [12.9708125, 29.5092432], [12.971035, 29.5091853], [12.9714839, 29.5090641]]}, "properties": {"source": "OSM", "license": "ODbL", "attribution": "\u00a9 OpenStreetMap contributors", "osm_ids": ["273079900", "310867779"], "osm_id_key": "w273079900_310867779", "substance": "oil", "osm_name": "", "man_made": "pipeline", "osm_location": "underground", "lifecycle": "operating"}}, {"type": "Feature", "geometry": {"type": "LineString", "coordinates": [[13.0059164, 32.523377], [13.0050803, 32.5233804], [12.9958245, 32.5252346], [12.9825055, 32.5250961], [12.9725701, 32.5239959], [12.9517244, 32.5317065], [12.9341036, 32.538136], [12.9301676, 32.540066], [12.9252883, 32.5411024], [12.9201436, 32.5406467], [12.9148869, 32.543978], [12.8942223, 32.5514037], [12.8686123, 32.5724965], [12.8582707, 32.5773665], [12.8513509, 32.5856321], [12.836827, 32.5945056], [12.8189953, 32.5985736], [12.8121896, 32.60104], [12.8090719, 32.6009439], [12.7953115, 32.6050857], [12.7917483, 32.6061582], [12.7916205, 32.6061967], [12.7905939, 32.6071575], [12.7832559, 32.6107766], [12.7725341, 32.6090152], [12.7553868, 32.6109688], [12.7535998, 32.6116734], [12.7504061, 32.6120897], [12.7449311, 32.6115453], [12.7351894, 32.6117447], [12.7120813, 32.6122178], [12.6992683, 32.6132747], [12.6918923, 32.6126021], [12.6850866, 32.613659], [12.6769641, 32.6135794], [12.6747623, 32.6139501], [12.6681437, 32.6150644], [12.6678065, 32.6151275], [12.6675712, 32.61512], [12.6596674, 32.6148663], [12.6481473, 32.6153192], [12.6340867, 32.6152662], [12.6221211, 32.6170878], [12.598016, 32.6161911], [12.592389, 32.617312], [12.5867619, 32.6192975], [12.579462, 32.6208026], [12.5734927, 32.6235565], [12.5549767, 32.6289681], [12.5483991, 32.6292243], [12.5369549, 32.6332267], [12.5293888, 32.6311455], [12.5184388, 32.6319139], [12.5164147, 32.6322247], [12.5049795, 32.6343885], [12.4930224, 32.6359941], [12.4759698, 32.6361404], [12.4662188, 32.6383561], [12.4639933, 32.6388618], [12.4300789, 32.6548047], [12.408217, 32.6637353], [12.3908416, 32.6661359], [12.3878379, 32.6677682], [12.3854806, 32.6678002], [12.360311, 32.6764415], [12.3447137, 32.6756518], [12.3366097, 32.6760761], [12.332452, 32.6769466], [12.3278465, 32.6793399], [12.3134817, 32.6825002], [12.3060162, 32.6905337], [12.2898082, 32.6947107], [12.2779043, 32.6933728], [12.2636739, 32.6918717], [12.258056, 32.6922132], [12.2473805, 32.6920009], [12.243914, 32.691932], [12.2350344, 32.6938945], [12.2335, 32.6957246], [12.2291989, 32.7008547], [12.2272398, 32.7109627], [12.220675, 32.7160348], [12.2181458, 32.7200491], [12.2176, 32.7228643], [12.2158034, 32.7329633], [12.2131465, 32.739736], [12.2077131, 32.7518472], [12.2058776, 32.7627998], [12.2036099, 32.7645334], [12.201401, 32.7654497], [12.1988682, 32.7656974], [12.1976902, 32.7663165], [12.1976088, 32.7667936], [12.1970321, 32.7701725], [12.2031547, 32.7749703], [12.2060703, 32.7830245], [12.2075155, 32.7846918], [12.2059227, 32.7970514], [12.2136006, 32.8020635], [12.2184718, 32.8029968], [12.2202554, 32.8086269], [12.2212873, 32.8119727], [12.2225846, 32.8153184], [12.2253527, 32.8222736], [12.224928, 32.8230113], [12.2300823, 32.8364929], [12.2332074, 32.8458475], [12.2340265, 32.8469555]]}, "properties": {"source": "OSM", "license": "ODbL", "attribution": "\u00a9 OpenStreetMap contributors", "osm_ids": ["224518609", "224518618"], "osm_id_key": "w224518609_224518618", "substance": "gas", "osm_name": "pipeline gas GreenStream", "man_made": "pipeline", "lifecycle": "operating"}}, {"type": "Feature", "geometry": {"type": "LineString", "coordinates": [[12.2438791, 32.856956], [12.2458142, 32.859397], [12.2487416, 32.8632777], [12.2537107, 32.8710197], [12.2552511, 32.8738263], [12.2580543, 32.8771122], [12.338377, 33.0452534], [14.293173, 37.0366785], [14.2932008, 37.0373507]]}, "properties": {"source": "OSM", "license": "ODbL", "attribution": "\u00a9 OpenStreetMap contributors", "osm_ids": ["310845241"], "osm_id_key": "w310845241", "substance": "gas", "osm_name": "Pipeline Gas GreenStream", "man_made": "pipeline", "osm_operator": "Agip Gas BV", "osm_location": "underwater", "lifecycle": "operating"}}, {"type": "Feature", "geometry": {"type": "LineString", "coordinates": [[12.435217, 32.6002317], [12.4355121, 32.6001367], [12.4358368, 32.6000354], [12.4361818, 32.5999258], [12.437194, 32.5996208], [12.4383525, 32.599279], [12.4399392, 32.5988062], [12.4413206, 32.5983881], [12.4432316, 32.5978243], [12.4454979, 32.5971504], [12.4498728, 32.5958493], [12.4506421, 32.5956357], [12.4536453, 32.5948019], [12.4562457, 32.5941071], [12.4566588, 32.5938901], [12.4576753, 32.5935851], [12.4598747, 32.5930111], [12.4607009, 32.5929275], [12.4620439, 32.592564], [12.4670211, 32.5912167], [12.4670684, 32.5911942], [12.4672931, 32.5910789], [12.4673648, 32.5910499], [12.4674312, 32.5910337], [12.4678355, 32.5910202], [12.4679133, 32.5910134], [12.4680009, 32.5909952], [12.4727206, 32.5895991], [12.4758661, 32.5886314], [12.4773017, 32.5882054], [12.4780253, 32.58796], [12.4793611, 32.5875586], [12.4889538, 32.5846993], [12.4906491, 32.5842098], [12.4915275, 32.5839329], [12.4923102, 32.5836989], [12.4934506, 32.5833657], [12.4955884, 32.5827329], [12.4966854, 32.5824278], [12.497195, 32.5823057], [12.4981401, 32.5820047], [12.4993056, 32.5816136], [12.5040316, 32.580214], [12.5060521, 32.5796485], [12.5077789, 32.5790999], [12.5095739, 32.5785191], [12.5111224, 32.5779493], [12.5125989, 32.5774532], [12.5146458, 32.576778], [12.5157371, 32.5764044], [12.5182101, 32.5755569], [12.5194276, 32.5751859], [12.5200873, 32.5749848], [12.5208145, 32.5748064], [12.5217104, 32.5746188], [12.5228657, 32.5744287], [12.5235879, 32.5743386], [12.5242746, 32.574273], [12.524972, 32.5742301], [12.5259263, 32.5742031], [12.5289658, 32.574212], [12.5300977, 32.5742583], [12.5315769, 32.5742685], [12.533431, 32.57429], [12.5354554, 32.5742922]]}, "properties": {"source": "OSM", "license": "ODbL", "attribution": "\u00a9 OpenStreetMap contributors", "osm_ids": ["177892610", "662082290"], "osm_id_key": "w177892610_662082290", "substance": "", "osm_name": "\u0627\u0644\u0646\u0647\u0631 \u0627\u0644\u0635\u0646\u0627\u0639\u064a \u0627\u0644\u0639\u0638\u064a\u0645", "man_made": "pipeline", "osm_name_local": "\u0627\u0644\u0646\u0647\u0631 \u0627\u0644\u0635\u0646\u0627\u0639\u064a \u0627\u0644\u0639\u0638\u064a\u0645", "lifecycle": "operating"}}, {"type": "Feature", "geometry": {"type": "LineString", "coordinates": [[12.5165079, 32.6322653], [12.5195179, 32.6317919], [12.5288052, 32.6311212], [12.5367926, 32.6332713], [12.5417349, 32.6311606], [12.5481061, 32.6292965], [12.5550862, 32.6287244], [12.5554964, 32.6286121], [12.5611763, 32.6270575], [12.5673015, 32.6253609], [12.5723387, 32.6239377], [12.5746331, 32.6232895], [12.5773736, 32.6218297], [12.5802781, 32.6206854], [12.5869186, 32.619403], [12.5931492, 32.6172624], [12.5985835, 32.6162365], [12.6118879, 32.6169862]]}, "properties": {"source": "OSM", "license": "ODbL", "attribution": "\u00a9 OpenStreetMap contributors", "osm_ids": ["151876094"], "osm_id_key": "w151876094", "substance": "", "osm_name": "", "man_made": "pipeline", "osm_operator": "\u0634\u0631\u0643\u0629 \u0627\u0644\u0646\u0641\u0637", "lifecycle": "operating"}}, {"type": "Feature", "geometry": {"type": "LineString", "coordinates": [[12.5354878, 32.5743454], [12.5356472, 32.5743386], [12.5359878, 32.574325], [12.5361943, 32.5743194], [12.5364035, 32.574325], [12.5370902, 32.5743408], [12.537982, 32.5743408], [12.5393888, 32.5743092], [12.5408949, 32.5743071], [12.542494, 32.5743267], [12.543123, 32.574315], [12.5437214, 32.5742809], [12.544382, 32.5742231], [12.5450614, 32.5741601], [12.5458861, 32.574069], [12.5473456, 32.5738948], [12.5478242, 32.5738296], [12.5482898, 32.5737977], [12.54949, 32.5736311], [12.5508526, 32.5735011], [12.5523036, 32.5733565], [12.5537668, 32.5731813], [12.5551441, 32.5730423], [12.5575729, 32.5728219], [12.5596583, 32.5726083], [12.5622855, 32.5723258], [12.5658086, 32.571972], [12.5668996, 32.5718847], [12.567198, 32.5718387], [12.5677773, 32.5717776], [12.5690355, 32.5716202], [12.5710862, 32.571407], [12.5843078, 32.5700326], [12.586534, 32.5698066], [12.5876257, 32.5696687], [12.5938053, 32.5690595], [12.5979146, 32.5686402], [12.599194, 32.5685204], [12.6008034, 32.5683577], [12.6039362, 32.5680231], [12.6046497, 32.567944], [12.6055753, 32.5678502], [12.6064575, 32.5677609], [12.6089466, 32.5674987], [12.6138952, 32.5669675], [12.6174461, 32.5666154], [12.6186615, 32.5665764], [12.6191497, 32.5665697], [12.6196285, 32.5665787], [12.6202078, 32.5666092], [12.6210675, 32.5666669], [12.6216951, 32.5667234], [12.6228002, 32.5668827], [12.6233594, 32.566963], [12.6237577, 32.5670172], [12.6238757, 32.5670195], [12.6240233, 32.5670263], [12.6241607, 32.567033], [12.6243049, 32.5670489], [12.624498, 32.5670806], [12.6248113, 32.5671453], [12.6250624, 32.5671907], [12.6253188, 32.5672501], [12.6259504, 32.5674309], [12.6268865, 32.5676581], [12.6279675, 32.5679666], [12.6298222, 32.5684662], [12.6327243, 32.5692551], [12.6337624, 32.5695263], [12.6353502, 32.5700236], [12.6357874, 32.5702067], [12.6362246, 32.5703649], [12.636981, 32.5705932], [12.6379546, 32.5708645], [12.6389337, 32.5711312], [12.6400575, 32.5714658], [12.6409346, 32.5717008], [12.6423883, 32.5720929], [12.6429275, 32.5722421], [12.6431689, 32.5723043], [12.6432735, 32.5723224], [12.6435216, 32.5723732], [12.6439628, 32.5724207], [12.6442592, 32.5724637], [12.6445502, 32.5725236], [12.6449847, 32.5726388], [12.6453831, 32.5727575], [12.6458631, 32.5728795], [12.6463446, 32.5730084], [12.6467938, 32.5731429], [12.6473169, 32.573335], [12.6477259, 32.5735237], [12.6479432, 32.5736153], [12.6483804, 32.5737463], [12.6489517, 32.5738945], [12.649869, 32.5741577], [12.6509339, 32.5744471], [12.6518056, 32.5747251], [12.6535115, 32.5752178], [12.654874, 32.5756179], [12.6567301, 32.5761965], [12.6583824, 32.5767096], [12.6592112, 32.5769672], [12.6604852, 32.5773673], [12.6616896, 32.5777222], [12.6626068, 32.5779956], [12.6635751, 32.578294], [12.6651468, 32.5788002], [12.6657182, 32.5789675], [12.6666033, 32.5792206], [12.6672765, 32.5794196], [12.6681242, 32.5796591], [12.6686552, 32.5798105], [12.6688363, 32.5798545], [12.6691487, 32.5799303], [12.6697348, 32.5800569], [12.6701291, 32.5801405], [12.6707514, 32.5802547], [12.6713924, 32.5803598], [12.6719396, 32.580431], [12.6726329, 32.5804976], [12.6727892, 32.5805174], [12.6732109, 32.5805406], [12.6740585, 32.5805812], [12.6747827, 32.5805959], [12.6752293, 32.5805926], [12.6757255, 32.5805903], [12.6764511, 32.5805564], [12.6769674, 32.5805101], [12.6776379, 32.5804389], [12.6784694, 32.5803417], [12.6790139, 32.5802705], [12.6794659, 32.5801948], [12.680119, 32.5800795], [12.6813501, 32.5798625], [12.6837534, 32.5794263], [12.6840189, 32.5793721], [12.6844346, 32.5792885], [12.6868728, 32.5788568], [12.6884469, 32.5785424], [12.6897857, 32.5783053], [12.6917652, 32.5779883], [12.6941573, 32.5775521], [12.6960116, 32.5772343], [12.6976562, 32.5769542], [12.6989987, 32.5767025], [12.6998437, 32.5765544], [12.700619, 32.5763965], [12.7015344, 32.5762008], [12.7024549, 32.5759884], [12.7033703, 32.5757774], [12.704299, 32.5755635], [12.7053836, 32.5753015], [12.7059541, 32.5751639], [12.7066755, 32.574985], [12.707382, 32.5748438], [12.7080114, 32.5747159], [12.7086922, 32.5745979], [12.7092212, 32.5745098], [12.7097021, 32.5744567], [12.7104702, 32.5743537], [12.7111428, 32.5742735], [12.7119658, 32.5742094], [12.713005, 32.5741337], [12.7141321, 32.5740289], [12.7156089, 32.5738216], [12.7168071, 32.5736339], [12.7178203, 32.5734357], [12.7180557, 32.5733824], [12.7191205, 32.5731414], [12.7205157, 32.5728332], [12.7218783, 32.572562], [12.7226829, 32.5724128], [12.723611, 32.5722727], [12.7248525, 32.5721176], [12.7251428, 32.5720961], [12.7265641, 32.572024], [12.727899, 32.5719675], [12.7285516, 32.5719765], [12.7290237, 32.5719969], [12.7293446, 32.5720232], [12.729554, 32.5720373], [12.7310407, 32.5721619], [12.7329424, 32.5722998], [12.7336532, 32.5723133], [12.7343505, 32.5723224], [12.7354583, 32.5722546], [12.7363354, 32.5722003], [12.7371696, 32.5721167], [12.7386019, 32.5719053], [12.7406698, 32.5715041], [12.7427164, 32.5711583], [12.7439057, 32.5710127], [12.7457116, 32.570838], [12.7480996, 32.5706949], [12.7487124, 32.5706701], [12.749024, 32.5706554], [12.7507791, 32.5705729], [12.7519754, 32.5705073], [12.7534237, 32.5704372], [12.7553938, 32.5703457], [12.757785, 32.5702225], [12.7589732, 32.5701547], [12.7602875, 32.5700756], [12.761516, 32.5699648], [12.7625567, 32.5699015], [12.7634707, 32.5698444], [12.7658236, 32.5696506], [12.7690583, 32.5693613], [12.7708581, 32.5692438], [12.7725398, 32.56909], [12.7739882, 32.5689996], [12.775147, 32.5690132], [12.776708, 32.5690674], [12.7778399, 32.569185], [12.7781114, 32.5692194], [12.7790523, 32.5693387], [12.779928, 32.5695037], [12.780498, 32.5695851], [12.780911, 32.5696393], [12.7812973, 32.5696766], [12.7818297, 32.5697264], [12.7822561, 32.5697523], [12.7828141, 32.5697772], [12.7833244, 32.5697849], [12.7836133, 32.5697998], [12.7837193, 32.5698066], [12.783816, 32.569804], [12.7841122, 32.5697789], [12.7843516, 32.5697591], [12.7845669, 32.5697438], [12.784815, 32.5697337], [12.7850879, 32.5697224], [12.7855325, 32.5696981], [12.7857732, 32.5696755], [12.7860314, 32.5696506], [12.7861856, 32.5696359], [12.78636, 32.5696224], [12.7864659, 32.5696167], [12.7865578, 32.5696144], [12.7866677, 32.569606], [12.7867757, 32.5695896], [12.7869219, 32.5695636], [12.7874342, 32.5694834], [12.7877051, 32.5694348], [12.7878767, 32.5694128], [12.7880256, 32.5693997], [12.7881537, 32.569389], [12.7883133, 32.5693782], [12.7884621, 32.5693636], [12.78856, 32.5693556], [12.7886586, 32.569346], [12.7890797, 32.5692901], [12.789486, 32.5692517], [12.7898186, 32.5692154], [12.7902344, 32.5691692], [12.7906555, 32.5691059], [12.7910256, 32.5690516], [12.7914924, 32.5689748], [12.7920503, 32.5688866], [12.7928009, 32.5687858], [12.7928737, 32.5687758], [12.7936596, 32.5686696], [12.7945501, 32.5685679], [12.7955157, 32.5684458], [12.7960534, 32.5683769], [12.7964947, 32.5683113], [12.7967969, 32.5682815], [12.7970043, 32.5682469], [12.7972215, 32.5682209], [12.7974428, 32.5681904], [12.7977553, 32.5681441], [12.7981067, 32.5680921], [12.7984393, 32.5680401], [12.7988161, 32.5679802], [12.7991863, 32.5679384], [12.7995886, 32.5678785], [12.7999306, 32.567831], [12.8003691, 32.56777], [12.8005172, 32.567743], [12.8006615, 32.5677168], [12.8010397, 32.567649], [12.8014621, 32.5675733], [12.8019556, 32.5674727], [12.8023003, 32.5673981], [12.8027147, 32.56731], [12.8030178, 32.5672467], [12.8033155, 32.5671845], [12.8036025, 32.5671167], [12.8039123, 32.5670534], [12.8039728, 32.5670383], [12.8041886, 32.5669844], [12.8042469, 32.5669692], [12.8044488, 32.5669166], [12.8047129, 32.5668658], [12.8048806, 32.566833], [12.8053822, 32.5667064], [12.8057858, 32.5666002], [12.806105, 32.5665165], [12.8064041, 32.5664385], [12.8066482, 32.5663786], [12.8068641, 32.5663108], [12.8070129, 32.5662679], [12.8074005, 32.5661752], [12.8079008, 32.5660656], [12.8085029, 32.5659254], [12.8092056, 32.5657401], [12.8099406, 32.5655592], [12.8107345, 32.5653512], [12.8114212, 32.5651659], [12.8117532, 32.5650791], [12.8123546, 32.5649218], [12.8125953, 32.5648679], [12.8135669, 32.5646505], [12.8141425, 32.5645147], [12.8143716, 32.5644606], [12.8148155, 32.5643713], [12.8153076, 32.5642662], [12.8164315, 32.5640854], [12.8173475, 32.5639509], [12.8181159, 32.5638503], [12.8190064, 32.5637327], [12.8194839, 32.5636739], [12.8200378, 32.5636242], [12.8204495, 32.5635926], [12.8211039, 32.5635473], [12.8220266, 32.5634976], [12.8230659, 32.5634501], [12.82399, 32.5634343], [12.8249448, 32.5634343], [12.8257844, 32.56344], [12.8265045, 32.5634309], [12.8276552, 32.5634298], [12.8284706, 32.5634264], [12.829054, 32.5634343], [12.8315431, 32.5634682], [12.8316316, 32.5634818], [12.8317147, 32.5635157], [12.8317898, 32.5635473], [12.8318945, 32.5635541], [12.8346813, 32.5635971], [12.837519, 32.5636604], [12.8387099, 32.5637282], [12.8405982, 32.5637689], [12.8426233, 32.5637282], [12.8429559, 32.5636898], [12.8441012, 32.5635993], [12.845099, 32.5634818], [12.845901, 32.5633801], [12.8461826, 32.5633642], [12.8464025, 32.5633371], [12.8479958, 32.5630071], [12.8491411, 32.5627539], [12.8502434, 32.5624623], [12.8506967, 32.5623334], [12.8512399, 32.5621808], [12.8513834, 32.562139], [12.8523275, 32.5618519], [12.8537974, 32.5614088], [12.8554174, 32.5609341], [12.8562623, 32.5606854], [12.8578368, 32.560222], [12.8613572, 32.5591358], [12.8633702, 32.5585514], [12.8684235, 32.5570548], [12.8700167, 32.5566253], [12.8716153, 32.5562364], [12.8756601, 32.555409], [12.8761397, 32.5553354], [12.877867, 32.5550706], [12.8780362, 32.55505], [12.880421, 32.5547375], [12.881868, 32.5545895], [12.8831126, 32.554499], [12.8850317, 32.5543996], [12.8858243, 32.5543656], [12.8863594, 32.5543476], [12.8884314, 32.5543125], [12.8916568, 32.5542718], [12.8946742, 32.5542424], [12.8956626, 32.5542243], [12.8964257, 32.5542176], [12.8990355, 32.5541814], [12.8991589, 32.5541798], [12.9004571, 32.5541678], [12.9015139, 32.5541475], [12.9034008, 32.5541011], [12.9046105, 32.5540966], [12.9048613, 32.5540868], [12.9071653, 32.5540887], [12.9083589, 32.5541068], [12.9096222, 32.5541452], [12.910856, 32.5542198], [12.9146326, 32.5543736], [12.9170305, 32.5544753], [12.9188168, 32.554568], [12.9219925, 32.5547172], [12.9252294, 32.554872], [12.9264155, 32.5549252], [12.9302216, 32.5550925], [12.9351967, 32.5553176], [12.9356664, 32.5553276], [12.9370505, 32.5553547], [12.9383701, 32.5553502], [12.9388208, 32.5553393], [12.9398668, 32.555314], [12.940816, 32.5552746], [12.9414493, 32.5552643], [12.9437238, 32.5552055], [12.944845, 32.5551874], [12.9474921, 32.5553151], [12.9497909, 32.5554135], [12.9539457, 32.5556961], [12.9545331, 32.5557323], [12.9548418, 32.5557542], [12.9559359, 32.5558317], [12.9566038, 32.5558611], [12.9573143, 32.5558978], [12.957741, 32.5559199], [12.9588729, 32.5559787], [12.9604125, 32.5560736], [12.9613137, 32.5561189], [12.9617536, 32.5561369], [12.9621962, 32.5561369], [12.9626897, 32.5561189], [12.9627776, 32.5561129], [12.9634166, 32.5560691], [12.964358, 32.55599], [12.9656884, 32.5558114], [12.966603, 32.5556622], [12.9675418, 32.5554587], [12.9677393, 32.5554069], [12.9683867, 32.5552372], [12.9694462, 32.5549297], [12.9710555, 32.5543962], [12.9717857, 32.5541565], [12.9730189, 32.5538604], [12.9740435, 32.5536501], [12.974531, 32.5535681], [12.9755214, 32.5534014], [12.9764548, 32.5533155], [12.9772943, 32.5532567], [12.9779059, 32.5532228], [12.9785657, 32.553207], [12.9792604, 32.5532183], [12.980002, 32.5532669], [12.9802796, 32.5533166], [12.980812, 32.5533596], [12.9814088, 32.5534014], [12.9820365, 32.5534263], [12.9836485, 32.5534014], [12.9840803, 32.5533675], [12.9848474, 32.5533087], [12.985341, 32.5532703], [12.9863256, 32.5531319], [12.9872656, 32.5530084], [12.987999, 32.5529289], [12.9885274, 32.5528905], [12.9893252, 32.5528472], [12.990692, 32.5528475], [12.9910085, 32.5528453], [12.991128, 32.5528482], [12.9914671, 32.5528566], [12.991915, 32.5528792], [12.9925668, 32.5529425], [12.9937068, 32.5530804], [12.9942942, 32.5531369], [12.9951015, 32.553216], [12.9955843, 32.5532454], [12.9957855, 32.553255], [12.9965459, 32.5532782], [12.9973546, 32.5532737], [12.9979406, 32.5532522], [12.9985549, 32.5532307], [12.9992656, 32.5531787], [13.0001294, 32.5530849], [13.0005008, 32.5530374], [13.0009702, 32.5529651], [13.0014503, 32.5528905], [13.0015994, 32.5528573], [13.0017802, 32.552817], [13.0021155, 32.5527073], [13.0022576, 32.552644], [13.0023073, 32.5526048], [13.002664, 32.5526067], [13.0031213, 32.5526103], [13.0032983, 32.5525333], [13.0034941, 32.5524745], [13.0036899, 32.5524338], [13.0046743, 32.5522642], [13.0053717, 32.5521534], [13.0059913, 32.552011], [13.0061522, 32.5519477], [13.0062863, 32.5519093], [13.006458, 32.5518754], [13.0077133, 32.5517284], [13.0090208, 32.5516195], [13.0094513, 32.5515837], [13.0095239, 32.5515815], [13.0102721, 32.5515588], [13.0126163, 32.5515701], [13.012776, 32.5515707], [13.0153079, 32.5516019], [13.0167496, 32.5516108], [13.0180666, 32.5516334], [13.0193835, 32.5515927], [13.020333, 32.5515385], [13.0212824, 32.5514642], [13.0214503, 32.5514416], [13.0220577, 32.5513034], [13.0233747, 32.5510841], [13.0241083, 32.5509789], [13.0251409, 32.5508014], [13.0259294, 32.5506656], [13.0263604, 32.5505905], [13.026934, 32.5504996], [13.0272907, 32.550451], [13.0285306, 32.5502711], [13.0288264, 32.5502328], [13.0292499, 32.5501835], [13.0301488, 32.5501213], [13.0305502, 32.5500873], [13.0309422, 32.5500726], [13.0313624, 32.5500575], [13.0315666, 32.5500646], [13.03237, 32.5500751], [13.0331392, 32.5500939], [13.0339582, 32.5501429], [13.0346601, 32.5502202], [13.0355346, 32.5503676], [13.0363673, 32.5505437], [13.0379108, 32.5508927], [13.0387693, 32.5511302], [13.0388805, 32.5511609], [13.0397629, 32.5514155], [13.0406623, 32.5516826], [13.0410974, 32.5518041], [13.0415413, 32.551942], [13.0424103, 32.5522066], [13.0430353, 32.5523411], [13.0432342, 32.5523826], [13.0435985, 32.5524587], [13.0443133, 32.5525593], [13.0448042, 32.5526303], [13.0458784, 32.5527322], [13.0468494, 32.5527526], [13.0476943, 32.5527401], [13.0488503, 32.5526599], [13.0494149, 32.552618], [13.0504301, 32.55247], [13.0507338, 32.552405], [13.0510658, 32.5523388], [13.051782, 32.5521738], [13.0526322, 32.551959], [13.0527364, 32.551931], [13.0530614, 32.5518437], [13.0541182, 32.5516402], [13.054904, 32.5515181], [13.0551589, 32.5514842], [13.0559045, 32.5514232], [13.056736, 32.5513667], [13.0577177, 32.5513712], [13.0593324, 32.5514978], [13.0604897, 32.551673], [13.0622694, 32.5520019], [13.0623016, 32.552008], [13.0636443, 32.5522596], [13.0644936, 32.5524188], [13.0653549, 32.5525803], [13.0661291, 32.5527254], [13.0671754, 32.5529126], [13.0679516, 32.5530725], [13.0683607, 32.5531459], [13.0688032, 32.5532138], [13.0691358, 32.5532635], [13.0694027, 32.5533132], [13.0714881, 32.5537156], [13.0725047, 32.553892], [13.0732074, 32.5540277], [13.0744198, 32.5542515], [13.0751976, 32.5544007], [13.075891, 32.5545106], [13.0770028, 32.5547127], [13.0778772, 32.5548618], [13.0785316, 32.555002], [13.0800444, 32.5553547], [13.0809577, 32.5555265], [13.081584, 32.5556441], [13.0818459, 32.5556924], [13.0840851, 32.5561053], [13.0859452, 32.5564319], [13.0863923, 32.5564883], [13.0871107, 32.5565789], [13.088138, 32.5566405], [13.090045, 32.5566761], [13.0908966, 32.5567043], [13.091948, 32.5566524], [13.0932261, 32.5565981], [13.0937009, 32.5566094], [13.0961591, 32.5566727], [13.0980098, 32.5566863], [13.0980876, 32.5566863], [13.0985543, 32.5566795], [13.0995843, 32.5566614], [13.1006759, 32.556675], [13.1022397, 32.5566682], [13.102811, 32.5566592], [13.1030926, 32.5566524], [13.1035271, 32.5566682], [13.1042004, 32.5566569], [13.1047958, 32.5566592], [13.1051123, 32.5566637], [13.1059438, 32.5566547], [13.1064561, 32.5566592], [13.1069496, 32.5566592], [13.1075075, 32.5566547], [13.108398, 32.5566366], [13.1090069, 32.5566185], [13.1094387, 32.5566094], [13.1098786, 32.5565733], [13.1106256, 32.5565122], [13.1122128, 32.5563923], [13.1124508, 32.5563743], [13.1135049, 32.5562907], [13.1142372, 32.5562342], [13.1147602, 32.556198], [13.1154267, 32.5561799], [13.1164554, 32.5561166], [13.1172788, 32.5560431], [13.1173512, 32.5560419], [13.11818, 32.5560284], [13.1188747, 32.5560013], [13.1193387, 32.55599], [13.1198296, 32.5559787], [13.1201501, 32.5559798], [13.1204492, 32.5559934], [13.1211036, 32.5560149], [13.1216723, 32.5560488], [13.122198, 32.5560782], [13.1231461, 32.5561607], [13.1238462, 32.5562217], [13.1245637, 32.5562816], [13.1252235, 32.5563314], [13.1258619, 32.5564082], [13.1267202, 32.5564896], [13.1277716, 32.5565801], [13.1288177, 32.5566931], [13.1294507, 32.5567609], [13.1300139, 32.5568197], [13.130824, 32.5569011], [13.1316219, 32.5569497], [13.1321932, 32.5570028], [13.132495, 32.5570265], [13.1330985, 32.5570966], [13.1336483, 32.5571611], [13.1340896, 32.5572017], [13.1343551, 32.557221], [13.1347212, 32.5572504], [13.1351061, 32.5572809], [13.1356627, 32.5573476], [13.1361495, 32.5574018], [13.1368791, 32.5574663], [13.1374691, 32.5575115], [13.137854, 32.557551], [13.138829, 32.5576347], [13.1427169, 32.5580563], [13.1433821, 32.5581309], [13.144455, 32.5582461], [13.1482127, 32.55847], [13.1492668, 32.558557], [13.1502243, 32.5586667], [13.1507313, 32.5587402], [13.151186, 32.5588068], [13.1518753, 32.5588905], [13.15246, 32.5589425], [13.1530447, 32.5590058], [13.1531279, 32.559016], [13.1531949, 32.5590241], [13.1532456, 32.5590315], [13.1532902, 32.5590306], [13.1533357, 32.5590216], [13.1534407, 32.5589868], [13.1535165, 32.5589637], [13.1535476, 32.5589552], [13.1535845, 32.5589524], [13.1536727, 32.5589504], [13.1537525, 32.5589515], [13.1538115, 32.5589532], [13.1538906, 32.5589603], [13.153959, 32.5589705], [13.1540187, 32.5589871], [13.1540588, 32.559002], [13.1541003, 32.559029], [13.1541317, 32.5590609], [13.1541578, 32.5590866], [13.1541833, 32.5591081], [13.1542397, 32.5591279], [13.1543054, 32.5591335], [13.1560904, 32.5593302], [13.1562594, 32.559346], [13.1564471, 32.5593607], [13.1566186, 32.5593741], [13.1567371, 32.5594014], [13.156954, 32.5594602], [13.1571016, 32.5594963], [13.1572571, 32.5595223], [13.1579505, 32.5596489], [13.1586715, 32.5597822], [13.1591793, 32.5598817], [13.1624042, 32.5605338], [13.1637481, 32.5607825], [13.1650677, 32.5609883], [13.1668729, 32.5612234], [13.1677151, 32.5612822], [13.1687128, 32.5613025], [13.170585, 32.5612189], [13.1724988, 32.5611059], [13.1732672, 32.5610855], [13.1740407, 32.5610855], [13.1748029, 32.5610993], [13.1749151, 32.561097], [13.178059, 32.5612917], [13.1784412, 32.5613365], [13.1794953, 32.5614088], [13.1807855, 32.5614789], [13.1821722, 32.5615083], [13.1848226, 32.5615804], [13.1851655, 32.5615897], [13.18744, 32.5616191], [13.1901756, 32.5617332], [13.1908223, 32.5617954], [13.1929842, 32.5620915], [13.1943629, 32.5623424], [13.1949609, 32.5624713], [13.1954062, 32.562573], [13.1960848, 32.5627381], [13.1976405, 32.563197], [13.2014653, 32.5643815], [13.2052928, 32.5655411], [13.2084176, 32.5664951], [13.2111897, 32.5673631], [13.2130068, 32.5679237], [13.2134711, 32.5680688], [13.2155389, 32.5687148], [13.2198652, 32.570053], [13.2246986, 32.5715189], [13.2260156, 32.57192], [13.2270831, 32.57225], [13.2283974, 32.5726592], [13.2300416, 32.5732039], [13.2309589, 32.5735271], [13.2316831, 32.5738029], [13.2322866, 32.5740764], [13.2327157, 32.574273], [13.233169, 32.5744651], [13.2339683, 32.5748313], [13.2343546, 32.5750415], [13.2354704, 32.5756201], [13.2362053, 32.5760179], [13.2367766, 32.5763638], [13.2374954, 32.5768339], [13.2379648, 32.5771616], [13.238579, 32.5775978], [13.2391021, 32.5780047], [13.2397807, 32.5785381], [13.2398543, 32.578605], [13.2402903, 32.5789675], [13.2415563, 32.5800659], [13.2421651, 32.5805971], [13.242271, 32.580698], [13.2425755, 32.5809881], [13.2431549, 32.5816299], [13.2437503, 32.5823373], [13.2441446, 32.5827939], [13.2446676, 32.5835284], [13.2451102, 32.5841273], [13.245135, 32.5841691], [13.2460087, 32.5854856], [13.2466122, 32.5864732], [13.2475537, 32.5884032], [13.2480499, 32.5895377], [13.2484388, 32.5905885], [13.2488036, 32.5916416], [13.2490678, 32.592358], [13.2493092, 32.5930653], [13.2494621, 32.5934642], [13.2494945, 32.5935469], [13.2496042, 32.5938268], [13.2497722, 32.5942369], [13.2502399, 32.5951918], [13.25077, 32.5961572], [13.2508184, 32.5962564], [13.2508796, 32.5963736], [13.2516253, 32.5978605], [13.252022, 32.5987889], [13.2523583, 32.5996267], [13.2524182, 32.5998092], [13.2526955, 32.6006534], [13.2529986, 32.6016183], [13.2532293, 32.6023662], [13.2534814, 32.6030847], [13.253637, 32.6034689], [13.2540554, 32.6044292], [13.2545543, 32.6054075], [13.2548278, 32.6058165], [13.2550398, 32.6061735], [13.2557304, 32.6071925], [13.2557935, 32.6072671], [13.2558605, 32.6073434], [13.2560747, 32.6075858], [13.2574135, 32.6091379], [13.2576667, 32.6093984], [13.2579446, 32.6096643], [13.2581994, 32.609906], [13.2583737, 32.6100529], [13.2588834, 32.6104393], [13.2590899, 32.6106178], [13.2592455, 32.6107725], [13.259519, 32.6110448], [13.2596572, 32.6111871], [13.259979, 32.6114741], [13.2608414, 32.61224], [13.2620591, 32.6132725], [13.2625982, 32.6137605], [13.2634538, 32.614558], [13.2645562, 32.6155589], [13.264736, 32.6157103], [13.2649989, 32.6158931], [13.2668039, 32.6176204], [13.2683006, 32.6190799], [13.2690516, 32.6197349], [13.2694405, 32.6200253], [13.2697678, 32.6202783], [13.2701245, 32.6205392], [13.2709426, 32.621078], [13.271064, 32.6211504], [13.2732359, 32.622482], [13.2735837, 32.6226955], [13.2746153, 32.623306], [13.2753763, 32.6237951], [13.2775435, 32.6250031], [13.2789597, 32.6255815], [13.2795125, 32.6258205], [13.2800593, 32.6260117], [13.2803437, 32.6261021], [13.2805797, 32.6261676], [13.280856, 32.626258], [13.2811725, 32.6263371], [13.2814005, 32.6264026], [13.2816902, 32.6264884], [13.2819048, 32.6265449], [13.2821864, 32.6266104], [13.2822883, 32.6266398], [13.2824525, 32.6266674], [13.2828274, 32.626755], [13.283388, 32.6268792], [13.283616, 32.626947], [13.2838467, 32.627017], [13.2843161, 32.6271074], [13.2847667, 32.6272045], [13.2855633, 32.627383], [13.2860675, 32.6274846], [13.2867153, 32.6276088], [13.2874703, 32.6277444], [13.2880309, 32.6278731], [13.2883635, 32.6279432], [13.2885982, 32.6279985], [13.2887524, 32.6280267], [13.2887819, 32.6280358], [13.2890582, 32.6280945], [13.2894954, 32.6281928], [13.2900935, 32.6283283], [13.2920281, 32.6287672], [13.2924136, 32.6288546], [13.2953319, 32.6294612], [13.2975011, 32.6299129], [13.2975823, 32.6299298], [13.2977207, 32.6299592], [13.297922, 32.6300019], [13.2982582, 32.6300733], [13.2983974, 32.630099], [13.2987814, 32.6301698], [13.2990563, 32.6302212], [13.2992077, 32.6302495], [13.2995751, 32.630306], [13.3003637, 32.6304156], [13.3015734, 32.6305612], [13.3029467, 32.6306279], [13.3042815, 32.6307391], [13.3064256, 32.6307318], [13.3081207, 32.630655], [13.3088744, 32.6305782], [13.3104381, 32.6303884], [13.3108056, 32.6303173], [13.3111999, 32.6302077], [13.3115941, 32.6300146], [13.3118865, 32.6298644], [13.3122164, 32.6297119], [13.312734, 32.6295843], [13.3134448, 32.6294544], [13.3139223, 32.629346], [13.3144373, 32.6292195], [13.3149389, 32.6291415], [13.3176211, 32.6288569], [13.3197561, 32.6286445], [13.3234655, 32.6282433], [13.3251205, 32.6280708], [13.3280656, 32.6277455], [13.3294096, 32.6276196], [13.330493, 32.6274937], [13.3309704, 32.6274123], [13.3314961, 32.6273129], [13.3318931, 32.6272406], [13.3323196, 32.6271582], [13.3335601, 32.6268809], [13.3342843, 32.6267036], [13.3347228, 32.6265935], [13.3358708, 32.6262377], [13.3369088, 32.6259508], [13.3380166, 32.6256131], [13.3381841, 32.6255585], [13.3385611, 32.6254357], [13.3392692, 32.6252437], [13.3398432, 32.6250788], [13.3404721, 32.6249139], [13.3423832, 32.62433], [13.3456969, 32.6233294], [13.3470535, 32.6229198], [13.3498251, 32.6221233], [13.3509663, 32.6217953], [13.3532435, 32.6211232], [13.3554402, 32.6204839], [13.3574304, 32.6199643], [13.3584765, 32.6196887], [13.3596083, 32.619474], [13.3615342, 32.6191657], [13.3635249, 32.6189062], [13.3683375, 32.6184943], [13.3717807, 32.618692], [13.3759571, 32.6191715], [13.3788235, 32.619829], [13.3820515, 32.6208341], [13.3835187, 32.6213779], [13.3859837, 32.6225642], [13.3901899, 32.6248875], [13.3940821, 32.6265632], [13.3957657, 32.6272949], [13.4001014, 32.6290564], [13.4031315, 32.6300313], [13.4043948, 32.6303603], [13.4066489, 32.6309565], [13.4082865, 32.6314003], [13.4083897, 32.631428], [13.4092252, 32.6316421], [13.4101383, 32.6318967], [13.410198, 32.6319125], [13.4104572, 32.6319864], [13.412116, 32.6324658], [13.4137464, 32.6328943], [13.4151918, 32.6332059], [13.4168664, 32.6336532], [13.418788, 32.6343027], [13.4209388, 32.6352022], [13.4222338, 32.6357767], [13.4241626, 32.6367011], [13.4250783, 32.6371399], [13.4252411, 32.6372186], [13.4301196, 32.6395778], [13.4314612, 32.6402266], [13.4324495, 32.6406971], [13.4353041, 32.6420779], [13.436477, 32.6426146], [13.4404643, 32.6436168], [13.4437013, 32.6439776], [13.4468234, 32.6439094], [13.4482241, 32.6437322], [13.4497133, 32.6434717], [13.4507843, 32.6432083], [13.4557314, 32.6418529], [13.4575244, 32.6413616], [13.4595839, 32.6407973], [13.4599757, 32.6406933], [13.4622843, 32.6400805], [13.4639436, 32.6397092], [13.4649199, 32.6395104], [13.4661033, 32.6393095], [13.467983, 32.6390993], [13.4691364, 32.6389999], [13.4705105, 32.6389317], [13.4713009, 32.6389051], [13.4721351, 32.638896], [13.4728861, 32.6389141], [13.473443, 32.6389362], [13.4781057, 32.6392371], [13.4802031, 32.6393794], [13.4814584, 32.6394675], [13.4823884, 32.6395566], [13.4827368, 32.6395753], [13.4861207, 32.6398134], [13.4880902, 32.6399305], [13.4891282, 32.6400005], [13.4900553, 32.6400963], [13.4912779, 32.6401843], [13.4980431, 32.6406707], [13.5000454, 32.6407633], [13.50165, 32.6408741], [13.5034025, 32.6409973], [13.5058776, 32.6411695], [13.5075338, 32.6412614], [13.5082113, 32.6413363], [13.5089575, 32.6414147], [13.5099323, 32.6415271], [13.5118303, 32.6417824], [13.5219097, 32.6432823], [13.5254989, 32.6438181], [13.5280716, 32.6440306], [13.5380974, 32.6440527], [13.5398501, 32.6440501], [13.5424733, 32.6440411], [13.5453594, 32.6440592], [13.5484171, 32.6440501], [13.5505575, 32.6440366], [13.5520649, 32.6440411], [13.557402, 32.6440298], [13.5597199, 32.6439101], [13.5608857, 32.643801], [13.5625979, 32.6435804], [13.5643148, 32.6432597], [13.5675037, 32.6427786], [13.5690421, 32.6425188], [13.5707932, 32.6421902], [13.5729383, 32.641747], [13.5817535, 32.6400346], [13.5818232, 32.640021], [13.5861597, 32.6391886], [13.5906763, 32.6385809], [13.5989438, 32.6376506], [13.6019519, 32.6371433], [13.6034223, 32.6368308], [13.6080096, 32.6353113], [13.6121214, 32.6333142], [13.6157821, 32.6319057], [13.6189812, 32.6312885], [13.6220384, 32.6311034], [13.6226231, 32.6309949], [13.6229449, 32.6308549], [13.6232292, 32.6306652]]}, "properties": {"source": "OSM", "license": "ODbL", "attribution": "\u00a9 OpenStreetMap contributors", "osm_ids": ["183446424", "218816444", "523183206", "658365609", "658631737", "661131029", "661701024", "661949778", "662000758", "662082287", "665229144", "665499737", "665726710", "665736918", "667628764", "668190000", "670008139", "670012119", "776624412", "776624413", "776624414"], "osm_id_key": "w183446424_218816444_523183206_658365609_658631737_661131029_661701024_661949778_662000758_662082287_665229144_665499737_665726710_665736918_667628764_668190000_670008139_670012119_776624412_776624413_776624414", "substance": "", "osm_name": "\u0627\u0644\u0646\u0647\u0631 \u0627\u0644\u0635\u0646\u0627\u0639\u064a \u0627\u0644\u0639\u0638\u064a\u0645", "man_made": "pipeline", "osm_name_local": "\u0627\u0644\u0646\u0647\u0631 \u0627\u0644\u0635\u0646\u0627\u0639\u064a \u0627\u0644\u0639\u0638\u064a\u0645", "lifecycle": "operating"}}, {"type": "Feature", "geometry": {"type": "LineString", "coordinates": [[13.1752293, 32.5345311], [13.1753673, 32.5345375], [13.1757801, 32.5345566]]}, "properties": {"source": "OSM", "license": "ODbL", "attribution": "\u00a9 OpenStreetMap contributors", "osm_ids": ["1121156565"], "osm_id_key": "w1121156565", "substance": "", "osm_name": "", "man_made": "pipeline", "lifecycle": "operating"}}, {"type": "Feature", "geometry": {"type": "LineString", "coordinates": [[13.1761105, 32.534607], [13.1763388, 32.534613]]}, "properties": {"source": "OSM", "license": "ODbL", "attribution": "\u00a9 OpenStreetMap contributors", "osm_ids": ["1121156566"], "osm_id_key": "w1121156566", "substance": "", "osm_name": "", "man_made": "pipeline", "lifecycle": "operating"}}]}