{
 "type": "FeatureCollection",
 "features": [
  {
   "type": "Feature",
   "properties": {
    "georef": {
     "order": 2,
     "n_gcps": 9,
     "rmse_km": 7.204,
     "loo_rmse_km": 36.096,
     "max_residual_km": 14.541,
     "residuals_km": [
      7.455,
      9.783,
      3.549,
      4.099,
      14.541,
      6.771,
      1.538,
      4.654,
      2.256
     ],
     "condition": 9.21,
     "pass": false,
     "max_rmse_km": 5.0,
     "image": "Fanack_Libya_gas-production_Map_02.webp"
    }
   },
   "geometry": {
    "type": "LineString",
    "coordinates": [
     [
      11.772115,
      34.215529
     ],
     [
      11.836089,
      34.077384
     ],
     [
      11.877482,
      33.98586
     ],
     [
      11.919576,
      33.892361
     ],
     [
      11.959975,
      33.801491
     ],
     [
      12.001291,
      33.708102
     ],
     [
      12.034748,
      33.609729
     ],
     [
      12.073127,
      33.523415
     ],
     [
      12.11909,
      33.432325
     ],
     [
      12.157995,
      33.340247
     ],
     [
      12.196009,
      33.247928
     ],
     [
      12.23367,
      33.15481
     ],
     [
      12.270806,
      33.063627
     ],
     [
      12.307014,
      32.969237
     ],
     [
      12.37851,
      32.837179
     ]
    ]
   }
  }
 ]
}