{
 "type": "FeatureCollection",
 "features": [
  {
   "type": "Feature",
   "properties": {
    "georef": {
     "order": 1,
     "n_gcps": 9,
     "rmse_km": 10.351,
     "loo_rmse_km": 16.71,
     "max_residual_km": 19.385,
     "residuals_km": [
      7.205,
      6.69,
      1.018,
      8.724,
      19.385,
      16.698,
      7.65,
      4.604,
      7.495
     ],
     "condition": 1.06,
     "pass": false,
     "max_rmse_km": 5.0,
     "image": "Fanack_Libya_gas-production_Map_02.webp"
    }
   },
   "geometry": {
    "type": "LineString",
    "coordinates": [
     [
      11.674325,
      34.16247
     ],
     [
      11.748265,
      34.029742
     ],
     [
      11.796824,
      33.941866
     ],
     [
      11.846781,
      33.852115
     ],
     [
      11.895305,
      33.764921
     ],
     [
      11.945502,
      33.67533
     ],
     [
      11.987802,
      33.581476
     ],
     [
      12.035477,
      33.498683
     ],
     [
      12.092329,
      33.411035
     ],
     [
      12.141958,
      33.322829
     ],
     [
      12.191163,
      33.234453
     ],
     [
      12.240591,
      33.145355
     ],
     [
      12.289799,
      33.058103
     ],
     [
      12.33885,
      32.967909
     ],
     [
      12.430975,
      32.840616
     ]
    ]
   }
  }
 ]
}