{"type": "Feature", "properties": {"pid": "P3939", "path_km": 360.8}, "geometry": {"type": "LineString", "coordinates": [[28.165803, 29.929114], [28.362243, 29.928117], [28.769511, 29.926768], [28.649171, 29.813749], [28.573791, 29.739837], [28.558373, 29.722386], [28.671542, 29.687458], [28.985845, 29.728051], [29.052137, 29.735546], [29.562599, 29.757474], [30.060911, 29.779447], [30.660042, 29.846861], [30.940521, 29.933461], [31.253854, 29.835357], [31.247712, 29.820515], [31.206528, 29.814893]]}}