{"type": "FeatureCollection", "name": "tamar", "crs": null, "features": [{"type": "Feature", "properties": {"name": "tamar", "source": "trace of INGL transmission map (ingl.co.il)", "length_km": 186.0}, "geometry": {"type": "LineString", "coordinates": [[34.082703, 32.991954], [34.069012, 32.979355], [34.079357, 32.943684], [34.086969, 32.888857], [34.092118, 32.872268], [34.085306, 32.86389], [34.099281, 32.85237], [34.097357, 32.848194], [34.132618, 32.708764], [34.145802, 32.678101], [34.153045, 32.649049], [34.158592, 32.595861], [34.183409, 32.49209], [34.211779, 32.417454], [34.266243, 32.189116], [34.278229, 32.167576], [34.373096, 32.085879], [34.396964, 32.045271], [34.416009, 31.993814], [34.416144, 31.978009], [34.404908, 31.919706], [34.342297, 31.817804], [34.326843, 31.799397], [34.328819, 31.796914], [34.321118, 31.785215], [34.332928, 31.775313], [34.440905, 31.823425], [34.497191, 31.872002], [34.509871, 31.8754], [34.517739, 31.868787], [34.545909, 31.893062], [34.548847, 31.892245], [34.577106, 31.905698], [34.588888, 31.898269], [34.59667, 31.904129], [34.612398, 31.890893], [34.630015, 31.887646], [34.64375, 31.879388], [34.654482, 31.882763], [34.67609, 31.864552]]}}]}