{"type": "FeatureCollection", "name": "leviathan_centerline", "crs": null, "features": [{"type": "Feature", "properties": {"name": "leviathan_centerline", "source": "trace of INGL transmission map (ingl.co.il), band-centerline corrected", "correction": "recenter_traces.py: edge->bright-fill midpoint, perpendicular resample, median shift 4.5px (~416 m)", "length_km": 119.8}, "geometry": {"type": "LineString", "coordinates": [[33.655682, 32.968259], [33.659588, 32.970703], [33.666122, 32.964484], [33.694835, 32.949478], [33.702348, 32.946115], [33.709217, 32.945584], [33.783913, 32.942263], [33.827239, 32.940384], [33.83622, 32.94027], [33.849649, 32.939405], [33.854521, 32.939497], [33.861741, 32.936795], [33.866991, 32.934389], [33.963592, 32.882014], [33.974708, 32.876846], [33.981292, 32.875604], [33.997174, 32.871722], [34.009547, 32.870036], [34.030977, 32.86997], [34.044422, 32.869405], [34.070515, 32.869529], [34.079826, 32.867024], [34.088289, 32.864277], [34.093445, 32.865557], [34.096781, 32.86594], [34.098293, 32.865674], [34.102031, 32.86353], [34.103037, 32.860478], [34.106073, 32.85549], [34.147197, 32.82975], [34.156791, 32.823606], [34.161743, 32.819998], [34.171577, 32.815129], [34.177288, 32.813122], [34.181345, 32.812149], [34.188651, 32.808494], [34.262232, 32.765552], [34.272297, 32.759026], [34.28434, 32.755363], [34.29605, 32.753121], [34.309029, 32.749975], [34.359339, 32.739398], [34.386934, 32.725606], [34.410897, 32.712958], [34.525676, 32.654522], [34.569151, 32.637157], [34.577915, 32.632997], [34.58786, 32.631581], [34.592294, 32.631742], [34.601156, 32.63294], [34.610615, 32.632984], [34.668511, 32.615321], [34.712278, 32.601363], [34.713996, 32.601111], [34.725054, 32.60011], [34.733238, 32.600149], [34.753813, 32.603409], [34.765251, 32.603851], [34.778822, 32.603344], [34.784194, 32.603728], [34.792933, 32.599089], [34.805858, 32.587936]]}}]}