{"type": "FeatureCollection", "name": "leviathan", "crs": null, "features": [{"type": "Feature", "properties": {"name": "leviathan", "source": "trace of INGL transmission map (ingl.co.il)", "length_km": 119.3}, "geometry": {"type": "LineString", "coordinates": [[33.655682, 32.968259], [33.659594, 32.970802], [33.666618, 32.965067], [33.703474, 32.949714], [33.855872, 32.943135], [33.976396, 32.880334], [34.01008, 32.874007], [34.071348, 32.873745], [34.09713, 32.86649], [34.163839, 32.82298], [34.183675, 32.815657], [34.274095, 32.762296], [34.361129, 32.742949], [34.527548, 32.65745], [34.578953, 32.636921], [34.611477, 32.637079], [34.713168, 32.605077], [34.732877, 32.60432], [34.75355, 32.607724], [34.78509, 32.605337], [34.805858, 32.587936]]}}]}