{"type": "FeatureCollection", "name": "karish_tanin_centerline", "crs": null, "features": [{"type": "Feature", "properties": {"name": "karish_tanin_centerline", "source": "trace of INGL transmission map (ingl.co.il), gas-suppliers band centerline; routed through legend point-anchors Tanin ⊕ → Karish ⊕ (FPSO) → Dor ○ (marine receiving station)", "anchors": {"Tanin": [33.847009, 33.134328], "Karish": [34.243301, 33.236991], "Dor": [34.824416, 32.625427]}, "note": "Tanin→Karish leg is drawn as a FUTURE line (קו עתידי); Karish→Dor is the operating export line.", "length_km": 129.2}, "geometry": {"type": "LineString", "coordinates": [[33.847009, 33.134328], [33.86083, 33.137805], [33.862852, 33.138122], [33.868331, 33.140745], [33.871169, 33.140847], [33.873911, 33.141391], [33.892444, 33.146383], [33.905489, 33.149283], [33.916886, 33.152423], [33.937034, 33.157345], [33.974267, 33.167022], [33.993038, 33.171425], [34.005872, 33.174934], [34.037549, 33.182783], [34.190357, 33.223789], [34.211779, 33.229398], [34.2195, 33.231096], [34.221007, 33.231567], [34.224017, 33.233733], [34.227141, 33.23295], [34.243301, 33.236991], [34.256271, 33.230437], [34.256573, 33.232112], [34.260993, 33.234206], [34.262697, 33.23428], [34.263744, 33.234651], [34.265262, 33.234134], [34.266576, 33.234077], [34.268095, 33.232874], [34.274386, 33.231669], [34.279145, 33.230455], [34.28261, 33.228898], [34.284295, 33.227901], [34.285252, 33.22469], [34.287681, 33.210384], [34.288945, 33.200212], [34.290894, 33.187535], [34.291419, 33.181588], [34.292925, 33.177014], [34.295513, 33.171279], [34.298889, 33.167546], [34.311529, 33.152111], [34.327913, 33.131264], [34.335613, 33.122072], [34.356027, 33.095979], [34.380694, 33.066283], [34.420166, 33.017873], [34.428799, 33.00771], [34.436206, 32.998354], [34.445628, 32.987133], [34.458125, 32.97163], [34.467586, 32.960432], [34.47494, 32.951048], [34.485911, 32.937696], [34.49376, 32.928598], [34.506941, 32.91198], [34.515599, 32.901836], [34.527913, 32.886234], [34.540676, 32.870892], [34.548014, 32.861504], [34.57158, 32.83272], [34.578889, 32.823317], [34.587462, 32.813128], [34.595625, 32.802705], [34.609153, 32.786297], [34.628308, 32.762546], [34.635583, 32.753126], [34.644998, 32.741914], [34.653193, 32.731512], [34.659992, 32.723331], [34.664043, 32.718104], [34.666776, 32.71399], [34.66858, 32.712167], [34.673898, 32.705856], [34.68441, 32.692881], [34.687322, 32.689887], [34.693075, 32.68506], [34.711213, 32.678073], [34.746, 32.663541], [34.760865, 32.657656], [34.798289, 32.641954], [34.802202, 32.640495], [34.804792, 32.639864], [34.807115, 32.638524], [34.809995, 32.637377], [34.815507, 32.63455], [34.824416, 32.625427]]}}]}