{"type": "FeatureCollection", "name": "p0480_trace", "crs": null, "features": [{"type": "Feature", "properties": {"ProjectID": "P0480", "source": "trace of INGL transmission map (ingl.co.il) \u2014 Israel-Jordan connector: yellow grid feeder + dashed 'connection to Arab Gas line'", "length_km": 54.1}, "geometry": {"type": "LineString", "coordinates": [[35.357562, 32.623413], [35.401889, 32.615032], [35.426519, 32.613327], [35.490562, 32.611534], [35.544754, 32.611399], [35.582196, 32.611292], [35.618615, 32.602859], [35.66782, 32.591873], [35.694349, 32.579295], [35.731621, 32.552525], [35.770819, 32.522408], [35.810002, 32.493943], [35.854126, 32.472095], [35.878658, 32.463648]]}}]}