{
 "type": "FeatureCollection",
 "features": [
  {
   "type": "Feature",
   "properties": {
    "ProjectID": "P5052"
   },
   "geometry": {
    "type": "LineString",
    "coordinates": [
     [
      110.128333,
      36.099444
     ],
     [
      110.024263,
      35.907485
     ],
     [
      109.920695,
      35.715429
     ],
     [
      109.817623,
      35.523279
     ],
     [
      109.715041,
      35.331035
     ],
     [
      109.612944,
      35.138699
     ],
     [
      109.511326,
      34.94627
     ],
     [
      109.410182,
      34.753751
     ],
     [
      109.309506,
      34.561142
     ],
     [
      109.209294,
      34.368445
     ]
    ]
   }
  }
 ]
}