{
 "type": "FeatureCollection",
 "features": [
  {
   "type": "Feature",
   "properties": {
    "ProjectID": "P6229"
   },
   "geometry": {
    "type": "LineString",
    "coordinates": [
     [
      84.99532,
      45.581337
     ],
     [
      85.216043,
      45.432434
     ],
     [
      85.435607,
      45.283101
     ],
     [
      85.65402,
      45.133346
     ],
     [
      85.871292,
      44.98317
     ],
     [
      86.08743,
      44.83258
     ],
     [
      86.302444,
      44.681578
     ],
     [
      86.516342,
      44.53017
     ],
     [
      86.729134,
      44.37836
     ],
     [
      86.940827,
      44.22615
     ],
     [
      87.15143,
      44.073547
     ],
     [
      87.360953,
      43.920553
     ]
    ]
   }
  }
 ]
}