{
 "type": "FeatureCollection",
 "features": [
  {
   "type": "Feature",
   "properties": {
    "ProjectID": "P6230"
   },
   "geometry": {
    "type": "LineString",
    "coordinates": [
     [
      77.047511,
      37.17648
     ],
     [
      77.308902,
      37.173411
     ],
     [
      77.570271,
      37.169765
     ],
     [
      77.831612,
      37.165543
     ],
     [
      78.092922,
      37.160744
     ],
     [
      78.354197,
      37.15537
     ],
     [
      78.615434,
      37.149419
     ],
     [
      78.876627,
      37.142893
     ],
     [
      79.137774,
      37.135791
     ],
     [
      79.39887,
      37.128114
     ],
     [
      79.659911,
      37.119862
     ],
     [
      79.920893,
      37.111036
     ]
    ]
   }
  }
 ]
}