{
 "type": "FeatureCollection",
 "features": [
  {
   "type": "Feature",
   "properties": {
    "ProjectID": "P7448"
   },
   "geometry": {
    "type": "LineString",
    "coordinates": [
     [
      83.453159,
      41.819687
     ],
     [
      83.18745,
      41.718693
     ],
     [
      82.922574,
      41.617084
     ],
     [
      82.65853,
      41.514865
     ],
     [
      82.395318,
      41.41204
     ],
     [
      82.132938,
      41.308613
     ],
     [
      81.871388,
      41.204588
     ],
     [
      81.610667,
      41.099969
     ],
     [
      81.350775,
      40.99476
     ],
     [
      81.09171,
      40.888965
     ],
     [
      80.833471,
      40.782588
     ],
     [
      80.576058,
      40.675633
     ],
     [
      80.319468,
      40.568104
     ],
     [
      80.0637,
      40.460004
     ],
     [
      79.808752,
      40.351339
     ],
     [
      79.554624,
      40.242111
     ],
     [
      79.301314,
      40.132325
     ],
     [
      79.04882,
      40.021985
     ],
     [
      78.797139,
      39.911094
     ],
     [
      78.546271,
      39.799657
     ]
    ]
   }
  }
 ]
}