{
 "type": "FeatureCollection",
 "features": [
  {
   "type": "Feature",
   "properties": {
    "ProjectID": "P7700"
   },
   "geometry": {
    "type": "LineString",
    "coordinates": [
     [
      126.594982,
      43.898609
     ],
     [
      126.856286,
      43.818608
     ],
     [
      127.11689,
      43.738011
     ],
     [
      127.376794,
      43.656819
     ],
     [
      127.635996,
      43.575038
     ],
     [
      127.894495,
      43.492669
     ],
     [
      128.152289,
      43.409716
     ],
     [
      128.409378,
      43.326182
     ],
     [
      128.665762,
      43.24207
     ],
     [
      128.921438,
      43.157385
     ],
     [
      129.176407,
      43.072128
     ],
     [
      129.430668,
      42.986304
     ]
    ]
   }
  }
 ]
}