{
 "type": "FeatureCollection",
 "features": [
  {
   "type": "Feature",
   "properties": {
    "ProjectID": "P7705"
   },
   "geometry": {
    "type": "LineString",
    "coordinates": [
     [
      126.52708,
      44.83838
     ],
     [
      126.773857,
      44.718916
     ],
     [
      127.019619,
      44.598918
     ],
     [
      127.264369,
      44.478391
     ],
     [
      127.508111,
      44.35734
     ],
     [
      127.750849,
      44.235767
     ],
     [
      127.992588,
      44.113679
     ],
     [
      128.233331,
      43.991078
     ],
     [
      128.473084,
      43.86797
     ],
     [
      128.711849,
      43.744358
     ],
     [
      128.949632,
      43.620246
     ],
     [
      129.186436,
      43.49564
     ],
     [
      129.422267,
      43.370542
     ],
     [
      129.657129,
      43.244957
     ],
     [
      129.891025,
      43.118889
     ],
     [
      130.123962,
      42.992343
     ],
     [
      130.355943,
      42.865321
     ]
    ]
   }
  }
 ]
}