{
 "type": "FeatureCollection",
 "features": [
  {
   "type": "Feature",
   "properties": {
    "ProjectID": "P0477"
   },
   "geometry": {
    "type": "LineString",
    "coordinates": [
     [
      31.244348,
      29.800585
     ],
     [
      31.215351,
      29.689148
     ],
     [
      31.212971,
      29.630852
     ],
     [
      31.230181,
      29.565595
     ],
     [
      31.221151,
      29.521436
     ],
     [
      31.215351,
      29.471547
     ],
     [
      31.204643,
      29.453701
     ],
     [
      31.191799,
      29.423638
     ],
     [
      31.194083,
      29.396988
     ],
     [
      31.202078,
      29.349018
     ],
     [
      31.203411,
      29.337406
     ],
     [
      31.199794,
      29.32903
     ],
     [
      31.191228,
      29.3158
     ],
     [
      31.190086,
      29.302666
     ],
     [
      31.192751,
      29.299049
     ],
     [
      31.205886,
      29.296194
     ],
     [
      31.225112,
      29.292958
     ],
     [
      31.238564,
      29.290452
     ],
     [
      31.233588,
      29.242578
     ],
     [
      31.216541,
      29.201359
     ],
     [
      31.17609,
      29.141872
     ],
     [
      31.148726,
      29.083576
     ],
     [
      31.129164,
      29.068361
     ],
     [
      31.116603,
      29.058591
     ],
     [
      31.076152,
      29.01814
     ],
     [
      31.051168,
      28.970551
     ],
     [
      31.023804,
      28.927721
     ],
     [
      30.984543,
      28.840276
     ],
     [
      30.944092,
      28.77603
     ],
     [
      30.917918,
      28.711785
     ],
     [
      30.925057,
      28.616606
     ],
     [
      30.883416,
      28.577345
     ],
     [
      30.875088,
      28.509531
     ],
     [
      30.853673,
      28.434578
     ],
     [
      30.796566,
      28.349512
     ],
     [
      30.790617,
      28.256713
     ],
     [
      30.775151,
      28.215072
     ],
     [
      30.707211,
      28.217118
     ],
     [
      30.635952,
      28.206744
     ],
     [
      30.621675,
      28.107997
     ],
     [
      30.619642,
      28.092563
     ],
     [
      30.608588,
      28.008654
     ],
     [
      30.622865,
      27.887302
     ],
     [
      30.635952,
      27.783795
     ],
     [
      30.674023,
      27.71598
     ],
     [
      30.699008,
      27.597007
     ],
     [
      30.720423,
      27.536331
     ],
     [
      30.731131,
      27.421522
     ],
     [
      30.764443,
      27.366794
     ],
     [
      30.82155,
      27.310877
     ],
     [
      30.878657,
      27.282324
     ],
     [
      30.95361,
      27.231165
     ],
     [
      31.036891,
      27.187145
     ],
     [
      31.110655,
      27.184766
     ],
     [
      31.151105,
      27.171679
     ],
     [
      31.180996,
      27.176967
     ],
     [
      31.20884,
      27.157519
     ],
     [
      31.240736,
      27.152728
     ],
     [
      31.273031,
      27.146741
     ],
     [
      31.293363,
      27.126399
     ],
     [
      31.293363,
      27.099279
     ],
     [
      31.302932,
      27.058593
     ],
     [
      31.333627,
      27.006346
     ],
     [
      31.399014,
      26.931357
     ],
     [
      31.452837,
      26.877504
     ],
     [
      31.493104,
      26.786169
     ],
     [
      31.525398,
      26.743091
     ],
     [
      31.614705,
      26.631406
     ],
     [
      31.70041,
      26.524391
     ],
     [
      31.755041,
      26.462282
     ],
     [
      31.814445,
      26.395672
     ],
     [
      31.880971,
      26.332813
     ],
     [
      31.890389,
      26.323913
     ],
     [
      31.947605,
      26.262045
     ],
     [
      31.964351,
      26.230135
     ],
     [
      31.984683,
      26.185862
     ],
     [
      32.011794,
      26.16592
     ],
     [
      32.076383,
      26.124033
     ],
     [
      32.179641,
      26.052889
     ],
     [
      32.238248,
      26.015931
     ],
     [
      32.280907,
      26.009941
     ],
     [
      32.34749,
      26.032265
     ],
     [
      32.408907,
      26.059162
     ],
     [
      32.502179,
      26.081304
     ],
     [
      32.61421,
      26.11798
     ],
     [
      32.65687,
      26.129939
     ],
     [
      32.693433,
      26.132267
     ],
     [
      32.727461,
      26.117837
     ],
     [
      32.750674,
      26.064181
     ],
     [
      32.764116,
      26.017061
     ],
     [
      32.752154,
      25.966808
     ],
     [
      32.723448,
      25.920546
     ],
     [
      32.705858,
      25.845331
     ],
     [
      32.684378,
      25.795316
     ],
     [
      32.65687,
      25.759824
     ],
     [
      32.623779,
      25.711174
     ],
     [
      32.603445,
      25.680064
     ],
     [
      32.585503,
      25.656138
     ],
     [
      32.556795,
      25.637398
     ],
     [
      32.512942,
      25.631419
     ],
     [
      32.474667,
      25.611081
     ],
     [
      32.45593,
      25.594334
     ],
     [
      32.460714,
      25.522943
     ],
     [
      32.478257,
      25.480266
     ],
     [
      32.483038,
      25.421637
     ],
     [
      32.487826,
      25.369389
     ],
     [
      32.499785,
      25.318339
     ],
     [
      32.53208,
      25.268079
     ],
     [
      32.567561,
      25.240955
     ],
     [
      32.613014,
      25.211037
     ],
     [
      32.635338,
      25.169556
     ],
     [
      32.668829,
      25.110921
     ],
     [
      32.718665,
      25.022772
     ],
     [
      32.758133,
      24.959752
     ],
     [
      32.772488,
      24.915881
     ],
     [
      32.776076,
      24.875198
     ],
     [
      32.79242,
      24.843291
     ],
     [
      32.813951,
      24.804997
     ],
     [
      32.827107,
      24.768305
     ],
     [
      32.84505,
      24.705288
     ],
     [
      32.857009,
      24.631503
     ],
     [
      32.852226,
      24.556122
     ],
     [
      32.848636,
      24.502679
     ],
     [
      32.852226,
      24.44445
     ],
     [
      32.852226,
      24.374255
     ],
     [
      32.861392,
      24.319614
     ],
     [
      32.861392,
      24.278931
     ],
     [
      32.853422,
      24.224294
     ],
     [
      32.853422,
      24.186005
     ],
     [
      32.874552,
      24.137345
     ],
     [
      32.882923,
      24.108627
     ],
     [
      32.904012,
      24.098895
     ]
    ]
   }
  }
 ]
}