{
 "type": "FeatureCollection",
 "features": [
  {
   "type": "Feature",
   "properties": {
    "ProjectID": "P8026"
   },
   "geometry": {
    "type": "LineString",
    "coordinates": [
     [
      32.3075,
      31.0425
     ],
     [
      32.356201,
      30.854209
     ],
     [
      32.404712,
      30.665893
     ],
     [
      32.453036,
      30.477555
     ],
     [
      32.501173,
      30.289193
     ],
     [
      32.549127,
      30.100808
     ],
     [
      32.5969,
      29.9124
     ]
    ]
   }
  }
 ]
}