{
 "type": "FeatureCollection",
 "features": [
  {
   "type": "Feature",
   "properties": {
    "ProjectID": "P8063"
   },
   "geometry": {
    "type": "LineString",
    "coordinates": [
     [
      32.3,
      31.2502
     ],
     [
      32.145398,
      31.093272
     ],
     [
      31.991303,
      30.936154
     ],
     [
      31.837712,
      30.77885
     ],
     [
      31.684621,
      30.621361
     ],
     [
      31.532024,
      30.463689
     ],
     [
      31.379919,
      30.305834
     ],
     [
      31.2283,
      30.1478
     ]
    ]
   }
  }
 ]
}