{
 "type": "FeatureCollection",
 "features": [
  {
   "type": "Feature",
   "properties": {
    "ProjectID": "P3894"
   },
   "geometry": {
    "type": "LineString",
    "coordinates": [
     [
      143.06312,
      52.338789
     ],
     [
      142.812004,
      52.176089
     ],
     [
      142.562717,
      52.012853
     ],
     [
      142.31524,
      51.849089
     ],
     [
      142.069556,
      51.684804
     ],
     [
      141.825647,
      51.520004
     ],
     [
      141.583494,
      51.354696
     ],
     [
      141.343081,
      51.188886
     ],
     [
      141.10439,
      51.022581
     ],
     [
      140.867403,
      50.855787
     ],
     [
      140.632103,
      50.688511
     ],
     [
      140.398473,
      50.520758
     ],
     [
      140.166496,
      50.352535
     ],
     [
      139.936155,
      50.183847
     ],
     [
      139.707432,
      50.014702
     ],
     [
      139.480312,
      49.845103
     ],
     [
      139.254778,
      49.675058
     ],
     [
      139.030813,
      49.504571
     ],
     [
      138.808401,
      49.333649
     ],
     [
      138.587525,
      49.162297
     ],
     [
      138.368171,
      48.99052
     ],
     [
      138.150321,
      48.818323
     ],
     [
      137.93396,
      48.645713
     ],
     [
      137.719073,
      48.472694
     ],
     [
      137.505643,
      48.299271
     ],
     [
      137.293657,
      48.125449
     ],
     [
      137.083097,
      47.951234
     ],
     [
      136.87395,
      47.77663
     ],
     [
      136.6662,
      47.601642
     ],
     [
      136.459832,
      47.426275
     ],
     [
      136.254832,
      47.250533
     ],
     [
      136.051186,
      47.074422
     ],
     [
      135.848878,
      46.897946
     ],
     [
      135.647894,
      46.721109
     ],
     [
      135.448221,
      46.543916
     ],
     [
      135.249845,
      46.366371
     ],
     [
      135.052751,
      46.188479
     ],
     [
      134.856925,
      46.010243
     ],
     [
      134.662355,
      45.831668
     ],
     [
      134.469027,
      45.652759
     ],
     [
      134.276927,
      45.473519
     ],
     [
      134.086042,
      45.293952
     ],
     [
      133.896359,
      45.114063
     ],
     [
      133.707865,
      44.933855
     ],
     [
      133.520547,
      44.753332
     ],
     [
      133.334394,
      44.572497
     ],
     [
      133.149391,
      44.391356
     ],
     [
      132.965527,
      44.209911
     ],
     [
      132.78279,
      44.028166
     ],
     [
      132.601166,
      43.846125
     ],
     [
      132.420645,
      43.663791
     ],
     [
      132.241215,
      43.481168
     ],
     [
      132.062862,
      43.298259
     ],
     [
      131.885577,
      43.115068
     ]
    ]
   }
  }
 ]
}