{
 "type": "FeatureCollection",
 "features": [
  {
   "type": "Feature",
   "properties": {
    "ProjectID": "P7531"
   },
   "geometry": {
    "type": "LineString",
    "coordinates": [
     [
      119.827983,
      33.940142
     ],
     [
      119.564581,
      33.940105
     ],
     [
      119.30118,
      33.939504
     ],
     [
      119.037786,
      33.938339
     ],
     [
      118.7744,
      33.936611
     ],
     [
      118.511026,
      33.93432
     ],
     [
      118.247669,
      33.931465
     ],
     [
      117.98433,
      33.928048
     ],
     [
      117.721015,
      33.924067
     ],
     [
      117.457725,
      33.919523
     ],
     [
      117.194466,
      33.914416
     ],
     [
      116.931239,
      33.908747
     ],
     [
      116.668049,
      33.902515
     ],
     [
      116.404899,
      33.895721
     ],
     [
      116.141793,
      33.888366
     ],
     [
      115.878733,
      33.880448
     ],
     [
      115.615724,
      33.871969
     ],
     [
      115.352768,
      33.862929
     ],
     [
      115.08987,
      33.853327
     ],
     [
      114.827032,
      33.843166
     ],
     [
      114.564258,
      33.832444
     ],
     [
      114.301552,
      33.821162
     ],
     [
      114.038916,
      33.809321
     ],
     [
      113.776354,
      33.796921
     ],
     [
      113.513869,
      33.783962
     ],
     [
      113.251466,
      33.770445
     ],
     [
      112.989146,
      33.75637
     ],
     [
      112.726914,
      33.741738
     ]
    ]
   }
  }
 ]
}