{
 "type": "FeatureCollection",
 "features": [
  {
   "type": "Feature",
   "properties": {
    "ProjectID": "P7568"
   },
   "geometry": {
    "type": "LineString",
    "coordinates": [
     [
      106.187,
      29.886
     ],
     [
      106.442724,
      29.909145
     ],
     [
      106.698565,
      29.931794
     ],
     [
      106.954521,
      29.953946
     ],
     [
      107.210588,
      29.975601
     ],
     [
      107.466766,
      29.996757
     ],
     [
      107.723051,
      30.017415
     ],
     [
      107.979441,
      30.037573
     ],
     [
      108.235934,
      30.057232
     ],
     [
      108.492527,
      30.07639
     ],
     [
      108.749217,
      30.095047
     ],
     [
      109.006002,
      30.113202
     ],
     [
      109.26288,
      30.130855
     ],
     [
      109.519848,
      30.148005
     ],
     [
      109.776904,
      30.164652
     ],
     [
      110.034045,
      30.180795
     ],
     [
      110.291268,
      30.196434
     ],
     [
      110.548572,
      30.211569
     ],
     [
      110.805953,
      30.226198
     ],
     [
      111.063408,
      30.240321
     ],
     [
      111.320936,
      30.253939
     ],
     [
      111.578534,
      30.26705
     ],
     [
      111.836199,
      30.279654
     ],
     [
      112.093928,
      30.291751
     ],
     [
      112.35172,
      30.30334
     ],
     [
      112.609571,
      30.314421
     ],
     [
      112.867478,
      30.324994
     ]
    ]
   }
  }
 ]
}