{
 "type": "FeatureCollection",
 "features": [
  {
   "type": "Feature",
   "properties": {
    "ProjectID": "P7633"
   },
   "geometry": {
    "type": "LineString",
    "coordinates": [
     [
      125.101481,
      46.596903
     ],
     [
      124.970595,
      46.409958
     ],
     [
      124.8406,
      46.222857
     ],
     [
      124.711486,
      46.035604
     ],
     [
      124.583242,
      45.8482
     ],
     [
      124.455856,
      45.660647
     ],
     [
      124.329319,
      45.472946
     ],
     [
      124.203619,
      45.2851
     ],
     [
      124.078747,
      45.09711
     ],
     [
      123.954691,
      44.908979
     ],
     [
      123.831443,
      44.720707
     ],
     [
      123.708991,
      44.532297
     ],
     [
      123.587328,
      44.34375
     ]
    ]
   }
  }
 ]
}