{
 "type": "FeatureCollection",
 "features": [
  {
   "type": "Feature",
   "properties": {
    "ProjectID": "P7630"
   },
   "geometry": {
    "type": "LineString",
    "coordinates": [
     [
      114.716314,
      41.148231
     ],
     [
      115.007894,
      41.111172
     ],
     [
      115.299144,
      41.073377
     ],
     [
      115.590058,
      41.034845
     ],
     [
      115.880628,
      40.99558
     ],
     [
      116.170852,
      40.955584
     ],
     [
      116.460721,
      40.914857
     ],
     [
      116.750232,
      40.873402
     ],
     [
      117.039379,
      40.831222
     ],
     [
      117.328157,
      40.788317
     ],
     [
      117.61656,
      40.74469
     ],
     [
      117.904583,
      40.700343
     ],
     [
      118.192221,
      40.655278
     ],
     [
      118.47947,
      40.609498
     ]
    ]
   }
  }
 ]
}