{
 "type": "FeatureCollection",
 "features": [
  {
   "type": "Feature",
   "properties": {
    "ProjectID": "P7647"
   },
   "geometry": {
    "type": "LineString",
    "coordinates": [
     [
      117.013002,
      32.586683
     ],
     [
      117.016939,
      32.380806
     ],
     [
      117.020858,
      32.174924
     ],
     [
      117.02476,
      31.969034
     ],
     [
      117.028644,
      31.763137
     ],
     [
      117.032511,
      31.557234
     ],
     [
      117.036361,
      31.351324
     ],
     [
      117.040194,
      31.145407
     ],
     [
      117.044011,
      30.939483
     ],
     [
      117.047811,
      30.733553
     ],
     [
      117.051596,
      30.527616
     ]
    ]
   }
  }
 ]
}