{
 "type": "FeatureCollection",
 "features": [
  {
   "type": "Feature",
   "properties": {
    "ProjectID": "P7644"
   },
   "geometry": {
    "type": "LineString",
    "coordinates": [
     [
      115.277219,
      35.670334
     ],
     [
      115.355482,
      35.456669
     ],
     [
      115.433332,
      35.242945
     ],
     [
      115.510775,
      35.029164
     ],
     [
      115.587815,
      34.815327
     ],
     [
      115.664458,
      34.601433
     ],
     [
      115.740709,
      34.387484
     ],
     [
      115.816573,
      34.17348
     ],
     [
      115.892055,
      33.959422
     ],
     [
      115.96716,
      33.74531
     ],
     [
      116.041893,
      33.531146
     ],
     [
      116.116258,
      33.316929
     ],
     [
      116.19026,
      33.102661
     ],
     [
      116.263903,
      32.888341
     ],
     [
      116.337193,
      32.673971
     ],
     [
      116.410133,
      32.459551
     ],
     [
      116.482729,
      32.245082
     ],
     [
      116.554984,
      32.030564
     ],
     [
      116.626904,
      31.815997
     ],
     [
      116.698491,
      31.601383
     ],
     [
      116.769751,
      31.386722
     ],
     [
      116.840687,
      31.172014
     ],
     [
      116.911304,
      30.95726
     ],
     [
      116.981605,
      30.742461
     ],
     [
      117.051596,
      30.527616
     ]
    ]
   }
  }
 ]
}