{
 "type": "FeatureCollection",
 "features": [
  {
   "type": "Feature",
   "properties": {
    "ProjectID": "P7645"
   },
   "geometry": {
    "type": "LineString",
    "coordinates": [
     [
      115.277219,
      35.670334
     ],
     [
      115.333408,
      35.468101
     ],
     [
      115.389316,
      35.265834
     ],
     [
      115.444947,
      35.063536
     ],
     [
      115.500304,
      34.861205
     ],
     [
      115.55539,
      34.658842
     ],
     [
      115.610209,
      34.456448
     ],
     [
      115.664765,
      34.254022
     ],
     [
      115.71906,
      34.051566
     ],
     [
      115.773097,
      33.849079
     ]
    ]
   }
  }
 ]
}