{
 "type": "FeatureCollection",
 "features": [
  {
   "type": "Feature",
   "geometry": {
    "type": "Point",
    "coordinates": [
     30.737401,
     31.671524
    ]
   },
   "properties": {
    "label_text": "32 \u201c 165 k.m",
    "diameter_in": "32",
    "length_km_label": 165.0,
    "page_x": 377.857,
    "page_y": 52.003,
    "nearest_path_id": "g07-0044",
    "nearest_dist_pagept": 12.79,
    "nearest_legend_class": "existing_pl",
    "nearest_trace_length_km": 111.3
   }
  },
  {
   "type": "Feature",
   "geometry": {
    "type": "Point",
    "coordinates": [
     31.77554,
     31.551102
    ]
   },
   "properties": {
    "label_text": "24 \u201c 50 k.m",
    "diameter_in": "24",
    "length_km_label": 50.0,
    "page_x": 445.387,
    "page_y": 58.958,
    "nearest_path_id": "g07-0111",
    "nearest_dist_pagept": 10.17,
    "nearest_legend_class": "existing_pl",
    "nearest_trace_length_km": 48.75
   }
  },
  {
   "type": "Feature",
   "geometry": {
    "type": "Point",
    "coordinates": [
     30.85759,
     31.348271
    ]
   },
   "properties": {
    "label_text": "42 \u201c 150 k.m",
    "diameter_in": "42",
    "length_km_label": 150.0,
    "page_x": 386.017,
    "page_y": 73.603,
    "nearest_path_id": "g07-0115",
    "nearest_dist_pagept": 9.06,
    "nearest_legend_class": "under_study_pl",
    "nearest_trace_length_km": 102.09
   }
  },
  {
   "type": "Feature",
   "geometry": {
    "type": "Point",
    "coordinates": [
     30.783888,
     31.224155
    ]
   },
   "properties": {
    "label_text": "30 \u201c 26 k.m",
    "diameter_in": "30",
    "length_km_label": 26.0,
    "page_x": 381.367,
    "page_y": 82.003,
    "nearest_path_id": "g07-0043",
    "nearest_dist_pagept": 11.46,
    "nearest_legend_class": "existing_pl",
    "nearest_trace_length_km": 49.59
   }
  },
  {
   "type": "Feature",
   "geometry": {
    "type": "Point",
    "coordinates": [
     31.048852,
     31.188481
    ]
   },
   "properties": {
    "label_text": "12 \u201c 40 k.m",
    "diameter_in": "12",
    "length_km_label": 40.0,
    "page_x": 398.647,
    "page_y": 84.163,
    "nearest_path_id": "g07-0101",
    "nearest_dist_pagept": 11.51,
    "nearest_legend_class": "existing_pl",
    "nearest_trace_length_km": 6.67
   }
  },
  {
   "type": "Feature",
   "geometry": {
    "type": "Point",
    "coordinates": [
     31.992534,
     31.078721
    ]
   },
   "properties": {
    "label_text": "42 \u201c 40 k.m",
    "diameter_in": "42",
    "length_km_label": 40.0,
    "page_x": 460.327,
    "page_y": 90.403,
    "nearest_path_id": "g07-0112",
    "nearest_dist_pagept": 12.86,
    "nearest_legend_class": "under_construction_pl",
    "nearest_trace_length_km": 33.44
   }
  },
  {
   "type": "Feature",
   "geometry": {
    "type": "Point",
    "coordinates": [
     33.33919,
     31.037771
    ]
   },
   "properties": {
    "label_text": "36 \u201c 196",
    "diameter_in": "36",
    "length_km_label": 196.0,
    "page_x": 548.465,
    "page_y": 90.723,
    "nearest_path_id": "g07-0109",
    "nearest_dist_pagept": 6.52,
    "nearest_legend_class": "under_construction_pl",
    "nearest_trace_length_km": 81.67
   }
  },
  {
   "type": "Feature",
   "geometry": {
    "type": "Point",
    "coordinates": [
     33.678285,
     30.909955
    ]
   },
   "properties": {
    "label_text": "24 \u201c - 45 k.m",
    "diameter_in": "24",
    "length_km_label": 45.0,
    "page_x": 571.02,
    "page_y": 98.563,
    "nearest_path_id": "g07-0109",
    "nearest_dist_pagept": 5.2,
    "nearest_legend_class": "under_construction_pl",
    "nearest_trace_length_km": 81.67
   }
  },
  {
   "type": "Feature",
   "geometry": {
    "type": "Point",
    "coordinates": [
     31.125327,
     30.955309
    ]
   },
   "properties": {
    "label_text": "28 \u201c 40 k.m",
    "diameter_in": "28",
    "length_km_label": 40.0,
    "page_x": 403.927,
    "page_y": 99.763,
    "nearest_path_id": "g07-0075",
    "nearest_dist_pagept": 7.1,
    "nearest_legend_class": "existing_pl",
    "nearest_trace_length_km": 6.05
   }
  },
  {
   "type": "Feature",
   "geometry": {
    "type": "Point",
    "coordinates": [
     30.406763,
     30.924639
    ]
   },
   "properties": {
    "label_text": "28 \u201c 16 k.m",
    "diameter_in": "28",
    "length_km_label": 16.0,
    "page_x": 357.127,
    "page_y": 102.403,
    "nearest_path_id": "g07-0098",
    "nearest_dist_pagept": 8.29,
    "nearest_legend_class": "existing_pl",
    "nearest_trace_length_km": 6.69
   }
  },
  {
   "type": "Feature",
   "geometry": {
    "type": "Point",
    "coordinates": [
     32.745884,
     30.842703
    ]
   },
   "properties": {
    "label_text": "36 \u201c - 33 k.m",
    "diameter_in": "36",
    "length_km_label": 33.0,
    "page_x": 510.06,
    "page_y": 105.043,
    "nearest_path_id": "g07-0127",
    "nearest_dist_pagept": 9.76,
    "nearest_legend_class": "under_study_pl",
    "nearest_trace_length_km": 16.23
   }
  },
  {
   "type": "Feature",
   "geometry": {
    "type": "Point",
    "coordinates": [
     32.026717,
     30.849673
    ]
   },
   "properties": {
    "label_text": "32 \u201c 60 k.m",
    "diameter_in": "32",
    "length_km_label": 60.0,
    "page_x": 462.967,
    "page_y": 105.763,
    "nearest_path_id": "g07-0209",
    "nearest_dist_pagept": 15.29,
    "nearest_legend_class": "under_construction_pl",
    "nearest_trace_length_km": 15.12
   }
  },
  {
   "type": "Feature",
   "geometry": {
    "type": "Point",
    "coordinates": [
     31.945137,
     30.765837
    ]
   },
   "properties": {
    "label_text": "24 \u201c 125 k.m",
    "diameter_in": "24",
    "length_km_label": 125.0,
    "page_x": 457.777,
    "page_y": 111.523,
    "nearest_path_id": "g07-0078",
    "nearest_dist_pagept": 12.42,
    "nearest_legend_class": "existing_pl",
    "nearest_trace_length_km": 7.89
   }
  },
  {
   "type": "Feature",
   "geometry": {
    "type": "Point",
    "coordinates": [
     30.099069,
     30.773558
    ]
   },
   "properties": {
    "label_text": "24 \u201c 45 k.m",
    "diameter_in": "24",
    "length_km_label": 45.0,
    "page_x": 337.207,
    "page_y": 112.723,
    "nearest_path_id": "g07-0023",
    "nearest_dist_pagept": 10.99,
    "nearest_legend_class": "existing_pl",
    "nearest_trace_length_km": 10.93
   }
  },
  {
   "type": "Feature",
   "geometry": {
    "type": "Point",
    "coordinates": [
     32.530414,
     30.730784
    ]
   },
   "properties": {
    "label_text": "16 \u201c 165 k.m",
    "diameter_in": "16",
    "length_km_label": 165.0,
    "page_x": 496.177,
    "page_y": 112.963,
    "nearest_path_id": "g07-0062",
    "nearest_dist_pagept": 8.84,
    "nearest_legend_class": "existing_pl",
    "nearest_trace_length_km": 326.84
   }
  },
  {
   "type": "Feature",
   "geometry": {
    "type": "Point",
    "coordinates": [
     30.132285,
     30.716219
    ]
   },
   "properties": {
    "label_text": "18/16\u201d 13km",
    "diameter_in": "18/16",
    "length_km_label": 13.0,
    "page_x": 339.415,
    "page_y": 116.563,
    "nearest_path_id": "g07-0103",
    "nearest_dist_pagept": 13.82,
    "nearest_legend_class": "existing_pl",
    "nearest_trace_length_km": 37.38
   }
  },
  {
   "type": "Feature",
   "geometry": {
    "type": "Point",
    "coordinates": [
     30.090349,
     30.670101
    ]
   },
   "properties": {
    "label_text": "12\u201d 14.5km",
    "diameter_in": "12",
    "length_km_label": 14.5,
    "page_x": 336.715,
    "page_y": 119.683,
    "nearest_path_id": "g07-0103",
    "nearest_dist_pagept": 12.19,
    "nearest_legend_class": "existing_pl",
    "nearest_trace_length_km": 37.38
   }
  },
  {
   "type": "Feature",
   "geometry": {
    "type": "Point",
    "coordinates": [
     30.1027,
     30.623627
    ]
   },
   "properties": {
    "label_text": "24\u201d 15km",
    "diameter_in": "24",
    "length_km_label": 15.0,
    "page_x": 337.555,
    "page_y": 122.803,
    "nearest_path_id": "g07-0103",
    "nearest_dist_pagept": 13.1,
    "nearest_legend_class": "existing_pl",
    "nearest_trace_length_km": 37.38
   }
  },
  {
   "type": "Feature",
   "geometry": {
    "type": "Point",
    "coordinates": [
     30.289604,
     30.572313
    ]
   },
   "properties": {
    "label_text": "42\u201d 65km",
    "diameter_in": "42",
    "length_km_label": 65.0,
    "page_x": 349.795,
    "page_y": 126.163,
    "nearest_path_id": "g07-0110",
    "nearest_dist_pagept": 10.48,
    "nearest_legend_class": "under_construction_pl",
    "nearest_trace_length_km": 69.67
   }
  },
  {
   "type": "Feature",
   "geometry": {
    "type": "Point",
    "coordinates": [
     28.785916,
     30.465019
    ]
   },
   "properties": {
    "label_text": "24 \u201c 26 k.m",
    "diameter_in": "24",
    "length_km_label": 26.0,
    "page_x": 251.798,
    "page_y": 133.592,
    "nearest_path_id": "g07-0005",
    "nearest_dist_pagept": 5.44,
    "nearest_legend_class": "existing_pl",
    "nearest_trace_length_km": 311.94
   }
  },
  {
   "type": "Feature",
   "geometry": {
    "type": "Point",
    "coordinates": [
     30.409338,
     30.364457
    ]
   },
   "properties": {
    "label_text": "32\u201d 70 km",
    "diameter_in": "32",
    "length_km_label": 70.0,
    "page_x": 357.803,
    "page_y": 140.083,
    "nearest_path_id": "g07-0060",
    "nearest_dist_pagept": 9.21,
    "nearest_legend_class": "existing_pl",
    "nearest_trace_length_km": 177.0
   }
  },
  {
   "type": "Feature",
   "geometry": {
    "type": "Point",
    "coordinates": [
     29.737679,
     30.300814
    ]
   },
   "properties": {
    "label_text": "24 \u201c 26 k.m",
    "diameter_in": "24",
    "length_km_label": 26.0,
    "page_x": 313.927,
    "page_y": 144.643,
    "nearest_path_id": "g07-0018",
    "nearest_dist_pagept": 16.29,
    "nearest_legend_class": "existing_pl",
    "nearest_trace_length_km": 78.73
   }
  },
  {
   "type": "Feature",
   "geometry": {
    "type": "Point",
    "coordinates": [
     32.083035,
     30.054019
    ]
   },
   "properties": {
    "label_text": "32 \u201c 110 k.m",
    "diameter_in": "32",
    "length_km_label": 110.0,
    "page_x": 468.097,
    "page_y": 159.283,
    "nearest_path_id": "g07-0123",
    "nearest_dist_pagept": 13.81,
    "nearest_legend_class": "under_construction_pl",
    "nearest_trace_length_km": 196.38
   }
  },
  {
   "type": "Feature",
   "geometry": {
    "type": "Point",
    "coordinates": [
     29.05755,
     30.066076
    ]
   },
   "properties": {
    "label_text": "12 \u201c 14 k.m",
    "diameter_in": "12",
    "length_km_label": 14.0,
    "page_x": 269.558,
    "page_y": 160.472,
    "nearest_path_id": "g07-0018",
    "nearest_dist_pagept": 20.35,
    "nearest_legend_class": "existing_pl",
    "nearest_trace_length_km": 78.73
   }
  },
  {
   "type": "Feature",
   "geometry": {
    "type": "Point",
    "coordinates": [
     30.577926,
     29.874792
    ]
   },
   "properties": {
    "label_text": "42\u201d 80 km",
    "diameter_in": "42",
    "length_km_label": 80.0,
    "page_x": 369.323,
    "page_y": 172.963,
    "nearest_path_id": "g07-0139",
    "nearest_dist_pagept": 14.59,
    "nearest_legend_class": "under_study_pl",
    "nearest_trace_length_km": 110.34
   }
  },
  {
   "type": "Feature",
   "geometry": {
    "type": "Point",
    "coordinates": [
     31.652982,
     29.852755
    ]
   },
   "properties": {
    "label_text": "24 \u201c 25 k.m",
    "diameter_in": "24",
    "length_km_label": 25.0,
    "page_x": 440.107,
    "page_y": 173.438,
    "nearest_path_id": "g07-0164",
    "nearest_dist_pagept": 6.76,
    "nearest_legend_class": "existing_pl",
    "nearest_trace_length_km": 21.08
   }
  },
  {
   "type": "Feature",
   "geometry": {
    "type": "Point",
    "coordinates": [
     34.514233,
     29.540554
    ]
   },
   "properties": {
    "label_text": "36 \u201c - 264 k.m",
    "diameter_in": "36",
    "length_km_label": 264.0,
    "page_x": 630.236,
    "page_y": 188.798,
    "nearest_path_id": "g07-0089",
    "nearest_dist_pagept": 16.83,
    "nearest_legend_class": "existing_pl",
    "nearest_trace_length_km": 228.08
   }
  },
  {
   "type": "Feature",
   "geometry": {
    "type": "Point",
    "coordinates": [
     28.764114,
     29.519838
    ]
   },
   "properties": {
    "label_text": "24 \u201c - 265 k.m",
    "diameter_in": "24",
    "length_km_label": 265.0,
    "page_x": 250.389,
    "page_y": 197.182,
    "nearest_path_id": "g07-0001",
    "nearest_dist_pagept": 39.6,
    "nearest_legend_class": "existing_pl",
    "nearest_trace_length_km": 365.29
   }
  },
  {
   "type": "Feature",
   "geometry": {
    "type": "Point",
    "coordinates": [
     31.489605,
     29.233471
    ]
   },
   "properties": {
    "label_text": "22 \u201c 87 k.m",
    "diameter_in": "22",
    "length_km_label": 87.0,
    "page_x": 430.267,
    "page_y": 215.438,
    "nearest_path_id": "g07-0148",
    "nearest_dist_pagept": 15.34,
    "nearest_legend_class": "existing_pl",
    "nearest_trace_length_km": 104.09
   }
  },
  {
   "type": "Feature",
   "geometry": {
    "type": "Point",
    "coordinates": [
     32.301805,
     29.149959
    ]
   },
   "properties": {
    "label_text": "24 \u201c 10 k.m",
    "diameter_in": "24",
    "length_km_label": 10.0,
    "page_x": 484.267,
    "page_y": 219.998,
    "nearest_path_id": "g07-0153",
    "nearest_dist_pagept": 6.18,
    "nearest_legend_class": "existing_pl",
    "nearest_trace_length_km": 13.48
   }
  },
  {
   "type": "Feature",
   "geometry": {
    "type": "Point",
    "coordinates": [
     30.562574,
     29.106738
    ]
   },
   "properties": {
    "label_text": "36 \u201c 88 k.m",
    "diameter_in": "36",
    "length_km_label": 88.0,
    "page_x": 369.067,
    "page_y": 224.798,
    "nearest_path_id": "g07-0145",
    "nearest_dist_pagept": 22.8,
    "nearest_legend_class": "existing_pl",
    "nearest_trace_length_km": 35.98
   }
  },
  {
   "type": "Feature",
   "geometry": {
    "type": "Point",
    "coordinates": [
     31.726546,
     29.024644
    ]
   },
   "properties": {
    "label_text": "18 \u201c 162",
    "diameter_in": "18",
    "length_km_label": 162.0,
    "page_x": 446.303,
    "page_y": 229.273,
    "nearest_path_id": "g07-0151",
    "nearest_dist_pagept": 24.38,
    "nearest_legend_class": "existing_pl",
    "nearest_trace_length_km": 136.32
   }
  },
  {
   "type": "Feature",
   "geometry": {
    "type": "Point",
    "coordinates": [
     34.35154,
     28.766643
    ]
   },
   "properties": {
    "label_text": "20 \u201c - 208 k.m",
    "diameter_in": "20",
    "length_km_label": 208.0,
    "page_x": 621.836,
    "page_y": 241.598,
    "nearest_path_id": "g07-0196",
    "nearest_dist_pagept": 16.86,
    "nearest_legend_class": "existing_pl",
    "nearest_trace_length_km": 185.46
   }
  },
  {
   "type": "Feature",
   "geometry": {
    "type": "Point",
    "coordinates": [
     32.375964,
     28.775763
    ]
   },
   "properties": {
    "label_text": "16 \u201c 192 k.m",
    "diameter_in": "16",
    "length_km_label": 192.0,
    "page_x": 489.938,
    "page_y": 245.192,
    "nearest_path_id": "g07-0152",
    "nearest_dist_pagept": 15.13,
    "nearest_legend_class": "existing_pl",
    "nearest_trace_length_km": 19.73
   }
  },
  {
   "type": "Feature",
   "geometry": {
    "type": "Point",
    "coordinates": [
     31.324171,
     28.781624
    ]
   },
   "properties": {
    "label_text": "30 \u201c 28 k.m",
    "diameter_in": "30",
    "length_km_label": 28.0,
    "page_x": 419.947,
    "page_y": 246.158,
    "nearest_path_id": "g07-0148",
    "nearest_dist_pagept": 13.65,
    "nearest_legend_class": "existing_pl",
    "nearest_trace_length_km": 104.09
   }
  },
  {
   "type": "Feature",
   "geometry": {
    "type": "Point",
    "coordinates": [
     32.4482,
     28.664135
    ]
   },
   "properties": {
    "label_text": "16 \u201c 256 k.m",
    "diameter_in": "16",
    "length_km_label": 256.0,
    "page_x": 494.978,
    "page_y": 252.632,
    "nearest_path_id": "g07-0149",
    "nearest_dist_pagept": 20.06,
    "nearest_legend_class": "existing_pl",
    "nearest_trace_length_km": 215.31
   }
  },
  {
   "type": "Feature",
   "geometry": {
    "type": "Point",
    "coordinates": [
     31.134703,
     28.443756
    ]
   },
   "properties": {
    "label_text": "32 \u201c 150 k.m",
    "diameter_in": "32",
    "length_km_label": 150.0,
    "page_x": 407.797,
    "page_y": 269.198,
    "nearest_path_id": "g07-0185",
    "nearest_dist_pagept": 10.7,
    "nearest_legend_class": "under_construction_pl",
    "nearest_trace_length_km": 12.71
   }
  },
  {
   "type": "Feature",
   "geometry": {
    "type": "Point",
    "coordinates": [
     33.954447,
     28.080572
    ]
   },
   "properties": {
    "label_text": "20\u201c - 40 k.m",
    "diameter_in": "20",
    "length_km_label": 40.0,
    "page_x": 597.284,
    "page_y": 289.118,
    "nearest_path_id": "g07-0198",
    "nearest_dist_pagept": 19.7,
    "nearest_legend_class": "under_study_pl",
    "nearest_trace_length_km": 23.74
   }
  },
  {
   "type": "Feature",
   "geometry": {
    "type": "Point",
    "coordinates": [
     32.469077,
     28.086218
    ]
   },
   "properties": {
    "label_text": "16 \u201c 75 k.m",
    "diameter_in": "16",
    "length_km_label": 75.0,
    "page_x": 497.558,
    "page_y": 291.753,
    "nearest_path_id": "g07-0195",
    "nearest_dist_pagept": 36.71,
    "nearest_legend_class": "under_study_pl",
    "nearest_trace_length_km": 57.99
   }
  },
  {
   "type": "Feature",
   "geometry": {
    "type": "Point",
    "coordinates": [
     30.271543,
     27.753736
    ]
   },
   "properties": {
    "label_text": "32 \u201c 136 k.m",
    "diameter_in": "32",
    "length_km_label": 136.0,
    "page_x": 350.917,
    "page_y": 316.478,
    "nearest_path_id": "g07-0203",
    "nearest_dist_pagept": 31.82,
    "nearest_legend_class": "under_study_pl",
    "nearest_trace_length_km": 36.43
   }
  },
  {
   "type": "Feature",
   "geometry": {
    "type": "Point",
    "coordinates": [
     32.94898,
     27.352598
    ]
   },
   "properties": {
    "label_text": "24 \u201c 127 k.m",
    "diameter_in": "24",
    "length_km_label": 127.0,
    "page_x": 531.458,
    "page_y": 340.713,
    "nearest_path_id": "g07-0199",
    "nearest_dist_pagept": 31.25,
    "nearest_legend_class": "existing_pl",
    "nearest_trace_length_km": 113.86
   }
  },
  {
   "type": "Feature",
   "geometry": {
    "type": "Point",
    "coordinates": [
     33.271972,
     26.89505
    ]
   },
   "properties": {
    "label_text": "24 \u201c 48 k.m",
    "diameter_in": "24",
    "length_km_label": 48.0,
    "page_x": 554.438,
    "page_y": 371.193,
    "nearest_path_id": "g07-0206",
    "nearest_dist_pagept": 28.05,
    "nearest_legend_class": "under_study_pl",
    "nearest_trace_length_km": 53.42
   }
  },
  {
   "type": "Feature",
   "geometry": {
    "type": "Point",
    "coordinates": [
     30.909929,
     26.924628
    ]
   },
   "properties": {
    "label_text": "32 \u201c 125 k.m",
    "diameter_in": "32",
    "length_km_label": 125.0,
    "page_x": 394.597,
    "page_y": 372.398,
    "nearest_path_id": "g07-0168",
    "nearest_dist_pagept": 27.94,
    "nearest_legend_class": "under_construction_pl",
    "nearest_trace_length_km": 496.25
   }
  },
  {
   "type": "Feature",
   "geometry": {
    "type": "Point",
    "coordinates": [
     33.418081,
     26.559171
    ]
   },
   "properties": {
    "label_text": "20 \u201c 38 k.m",
    "diameter_in": "20",
    "length_km_label": 38.0,
    "page_x": 565.238,
    "page_y": 393.753,
    "nearest_path_id": "g07-0200",
    "nearest_dist_pagept": 31.12,
    "nearest_legend_class": "under_study_pl",
    "nearest_trace_length_km": 26.36
   }
  },
  {
   "type": "Feature",
   "geometry": {
    "type": "Point",
    "coordinates": [
     31.571598,
     26.164835
    ]
   },
   "properties": {
    "label_text": "30 \u201c 147 k.m",
    "diameter_in": "30",
    "length_km_label": 147.0,
    "page_x": 440.437,
    "page_y": 423.518,
    "nearest_path_id": "g07-0207",
    "nearest_dist_pagept": 18.66,
    "nearest_legend_class": "under_study_pl",
    "nearest_trace_length_km": 22.48
   }
  },
  {
   "type": "Feature",
   "geometry": {
    "type": "Point",
    "coordinates": [
     31.965931,
     25.464889
    ]
   },
   "properties": {
    "label_text": "30 \u201c 240 k.m",
    "diameter_in": "30",
    "length_km_label": 240.0,
    "page_x": 468.517,
    "page_y": 470.798,
    "nearest_path_id": "g07-0168",
    "nearest_dist_pagept": 26.02,
    "nearest_legend_class": "under_construction_pl",
    "nearest_trace_length_km": 496.25
   }
  }
 ]
}
