{
 "type": "FeatureCollection",
 "features": [
  {
   "type": "Feature",
   "properties": {
    "ProjectID": "P3934"
   },
   "geometry": {
    "type": "LineString",
    "coordinates": [
     [
      29.84424,
      31.003286
     ],
     [
      29.821219,
      30.993941
     ],
     [
      29.791496,
      30.982752
     ],
     [
      29.761908,
      30.974183
     ],
     [
      29.742871,
      30.960681
     ],
     [
      29.697594,
      30.947805
     ],
     [
      29.654427,
      30.933028
     ],
     [
      29.642203,
      30.909497
     ],
     [
      29.623228,
      30.861695
     ],
     [
      29.588369,
      30.839716
     ],
     [
      29.559854,
      30.820026
     ],
     [
      29.489335,
      30.794948
     ],
     [
      29.44154,
      30.790494
     ],
     [
      29.392156,
      30.783408
     ],
     [
      29.329762,
      30.773024
     ],
     [
      29.283606,
      30.762672
     ],
     [
      29.257308,
      30.746082
     ],
     [
      29.229248,
      30.739921
     ],
     [
      29.196466,
      30.732724
     ],
     [
      29.169941,
      30.726884
     ],
     [
      29.122779,
      30.716499
     ],
     [
      29.060378,
      30.715579
     ],
     [
      28.982481,
      30.731731
     ],
     [
      28.864096,
      30.756185
     ],
     [
      28.736909,
      30.77871
     ],
     [
      28.623508,
      30.795563
     ],
     [
      28.41321,
      30.826555
     ],
     [
      28.050146,
      30.879208
     ],
     [
      27.602278,
      30.942764
     ]
    ]
   }
  }
 ]
}