{
 "type": "FeatureCollection",
 "features": [
  {
   "type": "Feature",
   "properties": {
    "ProjectID": "P6687"
   },
   "geometry": {
    "type": "LineString",
    "coordinates": [
     [
      27.602278,
      30.942764
     ],
     [
      27.427365,
      30.970509
     ],
     [
      27.295117,
      30.99196
     ],
     [
      27.161846,
      31.013401
     ],
     [
      27.045649,
      31.032014
     ],
     [
      26.980723,
      31.043386
     ],
     [
      26.938056,
      31.049339
     ],
     [
      26.881537,
      31.058385
     ],
     [
      26.812021,
      31.069486
     ],
     [
      26.769438,
      31.07622
     ],
     [
      26.700395,
      31.0872
     ],
     [
      26.617898,
      31.099736
     ]
    ]
   }
  }
 ]
}