{
 "type": "FeatureCollection",
 "features": [
  {
   "type": "Feature",
   "properties": {
    "ProjectID": "P6693"
   },
   "geometry": {
    "type": "LineString",
    "coordinates": [
     [
      27.047394,
      31.031929
     ],
     [
      27.021639,
      30.888201
     ],
     [
      27.019419,
      30.869587
     ],
     [
      27.015756,
      30.854295
     ],
     [
      27.006713,
      30.806118
     ],
     [
      27.001778,
      30.781354
     ],
     [
      27.001432,
      30.763181
     ],
     [
      26.988022,
      30.738519
     ],
     [
      26.982332,
      30.710402
     ],
     [
      26.978921,
      30.70832
     ]
    ]
   }
  }
 ]
}