{
 "type": "FeatureCollection",
 "features": [
  {
   "type": "Feature",
   "properties": {
    "ProjectID": "P6702"
   },
   "geometry": {
    "type": "LineString",
    "coordinates": [
     [
      31.880971,
      26.332813
     ],
     [
      31.890389,
      26.323913
     ],
     [
      31.947605,
      26.262045
     ],
     [
      31.964351,
      26.230135
     ],
     [
      31.984683,
      26.185862
     ],
     [
      32.011794,
      26.16592
     ],
     [
      32.076383,
      26.124033
     ],
     [
      32.179641,
      26.052889
     ],
     [
      32.238248,
      26.015931
     ],
     [
      32.280907,
      26.009941
     ],
     [
      32.34749,
      26.032265
     ],
     [
      32.408907,
      26.059162
     ],
     [
      32.502179,
      26.081304
     ],
     [
      32.61421,
      26.11798
     ],
     [
      32.65687,
      26.129939
     ],
     [
      32.693433,
      26.132267
     ],
     [
      32.727461,
      26.117837
     ],
     [
      32.750674,
      26.064181
     ],
     [
      32.764116,
      26.017061
     ],
     [
      32.752154,
      25.966808
     ],
     [
      32.723448,
      25.920546
     ],
     [
      32.705858,
      25.845331
     ],
     [
      32.684378,
      25.795316
     ],
     [
      32.65687,
      25.759824
     ],
     [
      32.623779,
      25.711174
     ],
     [
      32.603445,
      25.680064
     ],
     [
      32.585503,
      25.656138
     ],
     [
      32.556795,
      25.637398
     ],
     [
      32.512942,
      25.631419
     ],
     [
      32.474667,
      25.611081
     ],
     [
      32.45593,
      25.594334
     ],
     [
      32.460714,
      25.522943
     ],
     [
      32.478257,
      25.480266
     ],
     [
      32.483038,
      25.421637
     ],
     [
      32.487826,
      25.369389
     ],
     [
      32.499785,
      25.318339
     ],
     [
      32.53208,
      25.268079
     ],
     [
      32.567561,
      25.240955
     ],
     [
      32.613014,
      25.211037
     ],
     [
      32.635338,
      25.169556
     ],
     [
      32.668829,
      25.110921
     ],
     [
      32.718665,
      25.022772
     ],
     [
      32.758133,
      24.959752
     ],
     [
      32.772488,
      24.915881
     ],
     [
      32.776076,
      24.875198
     ],
     [
      32.79242,
      24.843291
     ],
     [
      32.813951,
      24.804997
     ],
     [
      32.827107,
      24.768305
     ],
     [
      32.84505,
      24.705288
     ],
     [
      32.857009,
      24.631503
     ],
     [
      32.852226,
      24.556122
     ],
     [
      32.848636,
      24.502679
     ],
     [
      32.852226,
      24.44445
     ],
     [
      32.852226,
      24.374255
     ],
     [
      32.861392,
      24.319614
     ],
     [
      32.861392,
      24.278931
     ],
     [
      32.853422,
      24.224294
     ],
     [
      32.853422,
      24.186005
     ],
     [
      32.874552,
      24.137345
     ],
     [
      32.882923,
      24.108627
     ],
     [
      32.904012,
      24.098895
     ]
    ]
   }
  }
 ]
}