{
 "type": "FeatureCollection",
 "features": [
  {
   "type": "Feature",
   "properties": {
    "ProjectID": "P7447"
   },
   "geometry": {
    "type": "MultiLineString",
    "coordinates": [
     [
      [
       31.921848,
       31.924885
      ],
      [
       31.985667,
       31.911287
      ],
      [
       32.055008,
       31.891811
      ],
      [
       32.095163,
       31.88025
      ],
      [
       32.124539,
       31.689792
      ],
      [
       32.183638,
       31.298246
      ]
     ],
     [
      [
       32.102203,
       31.86304
      ],
      [
       32.169905,
       31.43097
      ],
      [
       32.187669,
       31.30327
      ],
      [
       32.210677,
       31.286859
      ],
      [
       32.280438,
       31.272144
      ],
      [
       32.298395,
       31.269898
      ],
      [
       32.305812,
       31.26183
      ]
     ],
     [
      [
       32.295151,
       31.691516
      ],
      [
       32.271136,
       31.701764
      ],
      [
       32.238286,
       31.740978
      ],
      [
       32.126968,
       31.843259
      ]
     ]
    ]
   }
  }
 ]
}