{
 "type": "FeatureCollection",
 "features": [
  {
   "type": "Feature",
   "properties": {
    "ProjectID": "P8016"
   },
   "geometry": {
    "type": "LineString",
    "coordinates": [
     [
      33.280295,
      28.126313
     ],
     [
      33.252909,
      28.13773
     ],
     [
      33.236235,
      28.144299
     ],
     [
      33.214865,
      28.171792
     ],
     [
      33.182296,
      28.211498
     ],
     [
      33.135484,
      28.263426
     ],
     [
      33.103936,
      28.303135
     ],
     [
      33.093509,
      28.341642
     ],
     [
      33.071368,
      28.348953
     ],
     [
      33.033713,
      28.361174
     ],
     [
      33.020486,
      28.383069
     ],
     [
      32.990971,
      28.441608
     ],
     [
      32.948227,
      28.484372
     ],
     [
      32.898359,
      28.524086
     ],
     [
      32.866812,
      28.555646
     ],
     [
      32.850529,
      28.587209
     ],
     [
      32.826101,
      28.648298
     ],
     [
      32.804732,
      28.72262
     ],
     [
      32.79252,
      28.758253
     ],
     [
      32.7742,
      28.776583
     ],
     [
      32.754864,
      28.795928
     ],
     [
      32.727387,
      28.81731
     ],
     [
      32.706017,
      28.847855
     ],
     [
      32.669378,
      28.894692
     ],
     [
      32.637829,
      28.9456
     ],
     [
      32.615441,
      28.989379
     ],
     [
      32.615441,
      29.023993
     ],
     [
      32.618494,
      29.0525
     ],
     [
      32.636811,
      29.077947
     ],
     [
      32.649025,
      29.100346
     ],
     [
      32.649025,
      29.119689
     ],
     [
      32.62765,
      29.177722
     ],
     [
      32.607297,
      29.233716
     ],
     [
      32.588979,
      29.29684
     ],
     [
      32.562522,
      29.359965
     ],
     [
      32.542165,
      29.389493
     ],
     [
      32.509598,
      29.414948
     ],
     [
      32.488228,
      29.43022
     ],
     [
      32.452606,
      29.465856
     ],
     [
      32.405288,
      29.505376
     ],
     [
      32.370356,
      29.540322
     ],
     [
      32.341678,
      29.578878
     ],
     [
      32.336589,
      29.608403
     ],
     [
      32.348941,
      29.645525
     ],
     [
      32.357964,
      29.699009
     ],
     [
      32.405793,
      29.766196
     ],
     [
      32.443046,
      29.804611
     ],
     [
      32.457696,
      29.83338
     ],
     [
      32.466855,
      29.872066
     ],
     [
      32.474679,
      29.920446
     ],
     [
      32.501422,
      29.941111
     ],
     [
      32.528936,
      29.958596
     ],
     [
      32.558969,
      29.959252
     ]
    ]
   }
  }
 ]
}