{
 "type": "FeatureCollection",
 "features": [
  {
   "type": "Feature",
   "properties": {
    "ProjectID": "P2233"
   },
   "geometry": {
    "type": "LineString",
    "coordinates": [
     [
      44.39,
      35.47
     ],
     [
      44.372183,
      35.25238
     ],
     [
      44.354462,
      35.03475
     ],
     [
      44.336833,
      34.817109
     ],
     [
      44.319298,
      34.599458
     ],
     [
      44.301854,
      34.381797
     ],
     [
      44.284499,
      34.164125
     ],
     [
      44.267234,
      33.946443
     ],
     [
      44.250056,
      33.728751
     ],
     [
      44.232965,
      33.511049
     ]
    ]
   }
  }
 ]
}